<?xml version="1.0" encoding="UTF-8"?>
<kml xmlns="http://www.opengis.net/kml/2.2">
  <Document>
    <name>Untitled layer</name>
    <Style id="line-0288D1-5000-nodesc-normal">
      <LineStyle>
        <color>ffd18802</color>
        <width>5</width>
      </LineStyle>
      <BalloonStyle>
        <text><![CDATA[<h3>$[name]</h3>]]></text>
      </BalloonStyle>
    </Style>
    <Style id="line-0288D1-5000-nodesc-highlight">
      <LineStyle>
        <color>ffd18802</color>
        <width>7.5</width>
      </LineStyle>
      <BalloonStyle>
        <text><![CDATA[<h3>$[name]</h3>]]></text>
      </BalloonStyle>
    </Style>
    <StyleMap id="line-0288D1-5000-nodesc">
      <Pair>
        <key>normal</key>
        <styleUrl>#line-0288D1-5000-nodesc-normal</styleUrl>
      </Pair>
      <Pair>
        <key>highlight</key>
        <styleUrl>#line-0288D1-5000-nodesc-highlight</styleUrl>
      </Pair>
    </StyleMap>
    <Placemark>
      <name>EV1 (Malir Cantt to Dolmen Mall Clifton)</name>
      <styleUrl>#line-0288D1-5000-nodesc</styleUrl>
      <LineString>
        <tessellate>1</tessellate>
        <coordinates>
          67.2144,24.94879,0
          67.21442,24.94878,0
          67.21432,24.9486,0
          67.21374,24.94766,0
          67.2136,24.94746,0
          67.21335,24.94714,0
          67.21237,24.9458,0
          67.21178,24.94513,0
          67.21141,24.94474,0
          67.21119,24.94455,0
          67.21101,24.94437,0
          67.21027,24.9437,0
          67.21016,24.94359,0
          67.21005,24.94344,0
          67.21006,24.94342,0
          67.21006,24.94341,0
          67.21008,24.94337,0
          67.21008,24.94325,0
          67.21007,24.94322,0
          67.21005,24.94318,0
          67.21004,24.94315,0
          67.21002,24.94313,0
          67.21001,24.94311,0
          67.20993,24.94305,0
          67.20992,24.94305,0
          67.2099,24.94304,0
          67.20989,24.94303,0
          67.20987,24.94302,0
          67.20985,24.94302,0
          67.20984,24.94301,0
          67.20981,24.94301,0
          67.20977,24.943,0
          67.20971,24.943,0
          67.20968,24.94301,0
          67.20965,24.94301,0
          67.20963,24.94302,0
          67.20957,24.94304,0
          67.20955,24.94306,0
          67.20954,24.94306,0
          67.20951,24.94309,0
          67.2095,24.94309,0
          67.20949,24.9431,0
          67.2094,24.94312,0
          67.20926,24.94314,0
          67.20919,24.94313,0
          67.20895,24.94304,0
          67.20849,24.94284,0
          67.20798,24.94256,0
          67.20676,24.94173,0
          67.20667,24.94164,0
          67.20662,24.94153,0
          67.2066,24.94137,0
          67.20662,24.9413,0
          67.20662,24.94127,0
          67.20661,24.94124,0
          67.20661,24.94121,0
          67.20659,24.94115,0
          67.20657,24.94112,0
          67.20656,24.94111,0
          67.20656,24.9411,0
          67.20655,24.9411,0
          67.20654,24.94109,0
          67.20654,24.94108,0
          67.20653,24.94108,0
          67.20651,24.94106,0
          67.20648,24.94099,0
          67.20647,24.94094,0
          67.20646,24.94091,0
          67.20646,24.94081,0
          67.20647,24.94076,0
          67.20652,24.94059,0
          67.20657,24.94035,0
          67.2066,24.94008,0
          67.20662,24.93949,0
          67.20662,24.93827,0
          67.20661,24.93799,0
          67.20659,24.93776,0
          67.20657,24.93766,0
          67.20651,24.93703,0
          67.20642,24.93636,0
          67.20631,24.93578,0
          67.20606,24.93462,0
          67.20606,24.93461,0
          67.20591,24.93406,0
          67.20545,24.93287,0
          67.20516,24.93224,0
          67.20484,24.93165,0
          67.20479,24.93153,0
          67.20475,24.93146,0
          67.20477,24.93143,0
          67.20479,24.93134,0
          67.20478,24.93131,0
          67.20478,24.93126,0
          67.20477,24.93123,0
          67.20475,24.9312,0
          67.20473,24.93116,0
          67.20469,24.9311,0
          67.20463,24.93106,0
          67.20458,24.93102,0
          67.2045,24.93094,0
          67.20446,24.93091,0
          67.20442,24.93087,0
          67.20437,24.93081,0
          67.20433,24.93073,0
          67.20429,24.93047,0
          67.20427,24.92954,0
          67.20423,24.92915,0
          67.20418,24.92893,0
          67.20391,24.92819,0
          67.20361,24.92747,0
          67.20351,24.9273,0
          67.20266,24.92513,0
          67.20221,24.92404,0
          67.20196,24.92349,0
          67.20127,24.9222,0
          67.20117,24.92206,0
          67.20095,24.92183,0
          67.20073,24.92163,0
          67.20064,24.92156,0
          67.20034,24.92138,0
          67.20012,24.9213,0
          67.19979,24.92116,0
          67.19944,24.92103,0
          67.19923,24.92089,0
          67.19917,24.92083,0
          67.19916,24.9208,0
          67.19913,24.92075,0
          67.19911,24.92074,0
          67.19909,24.92066,0
          67.19908,24.92064,0
          67.19905,24.9205,0
          67.19906,24.92022,0
          67.19907,24.92014,0
          67.19909,24.92006,0
          67.19931,24.91951,0
          67.19945,24.9192,0
          67.19974,24.91864,0
          67.2,24.91819,0
          67.20007,24.91796,0
          67.20008,24.91782,0
          67.20008,24.91768,0
          67.20006,24.91756,0
          67.20002,24.91744,0
          67.19927,24.91555,0
          67.19923,24.91547,0
          67.19863,24.9139,0
          67.19859,24.91376,0
          67.19857,24.91371,0
          67.19857,24.91368,0
          67.19854,24.91353,0
          67.19854,24.91349,0
          67.19858,24.91299,0
          67.19858,24.91237,0
          67.19859,24.91228,0
          67.19859,24.91214,0
          67.19858,24.91209,0
          67.19851,24.91204,0
          67.19849,24.91203,0
          67.19846,24.91202,0
          67.19823,24.91201,0
          67.19614,24.91209,0
          67.19561,24.91209,0
          67.19432,24.91214,0
          67.1931,24.91215,0
          67.18579,24.91233,0
          67.18557,24.91231,0
          67.18527,24.91225,0
          67.18511,24.91216,0
          67.18494,24.91199,0
          67.18473,24.9117,0
          67.18443,24.91089,0
          67.18441,24.91085,0
          67.18404,24.90981,0
          67.18393,24.90944,0
          67.18328,24.90756,0
          67.18327,24.90755,0
          67.18228,24.90464,0
          67.18228,24.90463,0
          67.18227,24.90459,0
          67.18193,24.90365,0
          67.18185,24.90349,0
          67.18147,24.90229,0
          67.18117,24.90153,0
          67.181,24.90092,0
          67.18099,24.90091,0
          67.18094,24.90074,0
          67.18092,24.90071,0
          67.18078,24.90035,0
          67.18064,24.90004,0
          67.18044,24.89952,0
          67.18041,24.89946,0
          67.18035,24.89926,0
          67.18029,24.89901,0
          67.18004,24.89831,0
          67.18003,24.89829,0
          67.17983,24.8976,0
          67.1798,24.89752,0
          67.17974,24.89729,0
          67.17962,24.89694,0
          67.17948,24.89661,0
          67.179,24.89515,0
          67.17841,24.89359,0
          67.17839,24.8935,0
          67.17833,24.89332,0
          67.17803,24.89254,0
          67.17789,24.89209,0
          67.17764,24.89142,0
          67.17718,24.88978,0
          67.17717,24.88976,0
          67.17675,24.88844,0
          67.17671,24.88834,0
          67.17647,24.88761,0
          67.17593,24.88621,0
          67.17589,24.88604,0
          67.17583,24.88589,0
          67.17573,24.88559,0
          67.17559,24.88522,0
          67.17557,24.88519,0
          67.17551,24.88498,0
          67.17551,24.88494,0
          67.1755,24.88489,0
          67.17551,24.88487,0
          67.17554,24.88477,0
          67.17558,24.8847,0
          67.17613,24.88463,0
          67.17668,24.8845,0
          67.17713,24.88435,0
          67.1772,24.88431,0
          67.17706,24.88416,0
          67.17686,24.88424,0
          67.17671,24.88429,0
          67.17639,24.88438,0
          67.17614,24.88442,0
          67.17564,24.88447,0
          67.17552,24.88449,0
          67.17544,24.88449,0
          67.17291,24.88487,0
          67.17115,24.88508,0
          67.17112,24.88509,0
          67.17092,24.88511,0
          67.17073,24.88514,0
          67.17033,24.88518,0
          67.17029,24.88519,0
          67.16935,24.88532,0
          67.16931,24.88532,0
          67.16793,24.88551,0
          67.16742,24.8856,0
          67.16732,24.88563,0
          67.16713,24.88567,0
          67.16711,24.88567,0
          67.16695,24.88571,0
          67.16688,24.88572,0
          67.16674,24.88577,0
          67.16669,24.88578,0
          67.16642,24.88588,0
          67.16587,24.88613,0
          67.16569,24.8862,0
          67.16483,24.88658,0
          67.16462,24.88666,0
          67.16443,24.88672,0
          67.16438,24.88674,0
          67.16405,24.88682,0
          67.16363,24.88688,0
          67.16339,24.8869,0
          67.16233,24.88693,0
          67.16174,24.88693,0
          67.15858,24.88683,0
          67.15712,24.88684,0
          67.15657,24.88687,0
          67.15609,24.88685,0
          67.15573,24.88686,0
          67.155,24.88691,0
          67.14297,24.88684,0
          67.14224,24.88682,0
          67.14078,24.88684,0
          67.13944,24.88691,0
          67.13934,24.88691,0
          67.13378,24.88719,0
          67.13253,24.88719,0
          67.13239,24.88718,0
          67.1314,24.88718,0
          67.13097,24.88714,0
          67.12807,24.88701,0
          67.12781,24.88696,0
          67.12771,24.88696,0
          67.12666,24.8869,0
          67.1243,24.88681,0
          67.12415,24.88678,0
          67.12361,24.88661,0
          67.12355,24.8866,0
          67.12342,24.88655,0
          67.12263,24.88631,0
          67.12261,24.8863,0
          67.12203,24.88613,0
          67.12176,24.88607,0
          67.12174,24.88607,0
          67.12132,24.88598,0
          67.12131,24.88598,0
          67.12101,24.88591,0
          67.11868,24.88513,0
          67.11799,24.88487,0
          67.11792,24.88483,0
          67.11738,24.88461,0
          67.11734,24.8846,0
          67.11659,24.88429,0
          67.11577,24.88391,0
          67.11574,24.8839,0
          67.11574,24.88389,0
          67.11557,24.88381,0
          67.11556,24.88381,0
          67.11431,24.8832,0
          67.11417,24.88311,0
          67.1141,24.88308,0
          67.11251,24.88224,0
          67.11094,24.88132,0
          67.11093,24.88132,0
          67.10854,24.87994,0
          67.1077,24.87949,0
          67.10767,24.87948,0
          67.1071,24.87917,0
          67.10701,24.87913,0
          67.10665,24.87894,0
          67.10664,24.87893,0
          67.10579,24.87847,0
          67.1057,24.87843,0
          67.10473,24.87793,0
          67.10346,24.87733,0
          67.10305,24.87712,0
          67.10302,24.87711,0
          67.1023,24.87673,0
          67.10207,24.87662,0
          67.10106,24.87623,0
          67.10029,24.87601,0
          67.09915,24.87576,0
          67.0985,24.87558,0
          67.09766,24.87531,0
          67.09744,24.87521,0
          67.09643,24.87491,0
          67.09553,24.87461,0
          67.09501,24.87442,0
          67.09482,24.87433,0
          67.09467,24.87427,0
          67.09443,24.87415,0
          67.09406,24.87394,0
          67.094,24.8739,0
          67.094,24.87389,0
          67.09389,24.87382,0
          67.0938,24.87375,0
          67.0937,24.87366,0
          67.09368,24.87365,0
          67.09317,24.87319,0
          67.09275,24.87284,0
          67.09237,24.87256,0
          67.09139,24.87198,0
          67.09108,24.87181,0
          67.08654,24.86906,0
          67.08588,24.86864,0
          67.08543,24.86838,0
          67.08495,24.86805,0
          67.08471,24.8679,0
          67.0841,24.86756,0
          67.08286,24.86695,0
          67.08194,24.86658,0
          67.08114,24.86629,0
          67.08108,24.86626,0
          67.08052,24.86607,0
          67.08012,24.86596,0
          67.08005,24.86593,0
          67.07955,24.86579,0
          67.07937,24.86573,0
          67.07877,24.8655,0
          67.07862,24.86546,0
          67.0777,24.8651,0
          67.07708,24.86489,0
          67.07627,24.86453,0
          67.07399,24.86337,0
          67.07384,24.86331,0
          67.07383,24.86331,0
          67.07366,24.86324,0
          67.07128,24.8625,0
          67.07123,24.86249,0
          67.07109,24.86244,0
          67.07104,24.86243,0
          67.07013,24.86214,0
          67.07004,24.86212,0
          67.06975,24.86203,0
          67.06973,24.86203,0
          67.06956,24.86198,0
          67.06954,24.86197,0
          67.06706,24.86127,0
          67.0667,24.86115,0
          67.06669,24.86115,0
          67.06667,24.86114,0
          67.06651,24.8611,0
          67.06649,24.86109,0
          67.06589,24.86092,0
          67.06588,24.86092,0
          67.0657,24.86087,0
          67.06569,24.86087,0
          67.06552,24.86082,0
          67.06385,24.86044,0
          67.06025,24.8597,0
          67.05972,24.85962,0
          67.05836,24.85962,0
          67.0581,24.85963,0
          67.05774,24.85961,0
          67.05433,24.85963,0
          67.0542,24.85962,0
          67.05397,24.85962,0
          67.05395,24.85961,0
          67.05391,24.85961,0
          67.05388,24.8596,0
          67.05344,24.85953,0
          67.05268,24.85932,0
          67.05255,24.85926,0
          67.05227,24.85916,0
          67.05164,24.8589,0
          67.05147,24.85882,0
          67.0513,24.8587,0
          67.05124,24.85865,0
          67.05107,24.85853,0
          67.05099,24.85845,0
          67.05083,24.85816,0
          67.05077,24.85791,0
          67.05078,24.85758,0
          67.0508,24.85745,0
          67.05083,24.85733,0
          67.05088,24.8572,0
          67.05092,24.85707,0
          67.05116,24.85643,0
          67.05119,24.85631,0
          67.05129,24.85603,0
          67.05147,24.85567,0
          67.05164,24.85524,0
          67.05176,24.85488,0
          67.05226,24.85356,0
          67.05271,24.85257,0
          67.05289,24.85214,0
          67.05365,24.85016,0
          67.05403,24.84911,0
          67.05418,24.84876,0
          67.05434,24.84845,0
          67.05437,24.84838,0
          67.05465,24.84785,0
          67.05494,24.84719,0
          67.05505,24.84706,0
          67.05519,24.84674,0
          67.05519,24.84673,0
          67.0552,24.84673,0
          67.05535,24.84638,0
          67.05543,24.84615,0
          67.05556,24.84583,0
          67.05556,24.84581,0
          67.05557,24.84581,0
          67.05589,24.84494,0
          67.05615,24.84431,0
          67.05619,24.84424,0
          67.0563,24.84401,0
          67.05644,24.84375,0
          67.05647,24.84372,0
          67.05663,24.84347,0
          67.05667,24.84343,0
          67.05677,24.84331,0
          67.05766,24.84248,0
          67.05795,24.84224,0
          67.05847,24.84184,0
          67.05855,24.8418,0
          67.05873,24.84168,0
          67.05906,24.84148,0
          67.05971,24.84115,0
          67.05972,24.84114,0
          67.06043,24.84078,0
          67.06044,24.84077,0
          67.06045,24.84077,0
          67.06046,24.84076,0
          67.06047,24.84076,0
          67.06048,24.84075,0
          67.06049,24.84075,0
          67.06049,24.84074,0
          67.06051,24.84074,0
          67.06052,24.84073,0
          67.06053,24.84073,0
          67.06055,24.84071,0
          67.06057,24.84071,0
          67.06057,24.8407,0
          67.06059,24.8407,0
          67.06061,24.84068,0
          67.06062,24.84068,0
          67.06063,24.84067,0
          67.06065,24.84067,0
          67.06065,24.84066,0
          67.06067,24.84066,0
          67.06067,24.84065,0
          67.06068,24.84065,0
          67.06069,24.84064,0
          67.0607,24.84064,0
          67.06071,24.84063,0
          67.06073,24.84063,0
          67.06073,24.84062,0
          67.06074,24.84062,0
          67.06075,24.84061,0
          67.06076,24.84061,0
          67.06077,24.8406,0
          67.06078,24.8406,0
          67.06079,24.84059,0
          67.0608,24.84059,0
          67.06081,24.84058,0
          67.06082,24.84058,0
          67.06083,24.84057,0
          67.06084,24.84057,0
          67.06085,24.84056,0
          67.06086,24.84056,0
          67.06087,24.84055,0
          67.06088,24.84055,0
          67.06088,24.84054,0
          67.0609,24.84054,0
          67.06091,24.84053,0
          67.06092,24.84053,0
          67.06093,24.84052,0
          67.06094,24.84052,0
          67.06095,24.84051,0
          67.06096,24.84051,0
          67.06096,24.8405,0
          67.06098,24.8405,0
          67.06098,24.84049,0
          67.061,24.84049,0
          67.06102,24.84047,0
          67.06103,24.84047,0
          67.06104,24.84046,0
          67.06106,24.84046,0
          67.06106,24.84045,0
          67.06108,24.84045,0
          67.0611,24.84043,0
          67.06111,24.84043,0
          67.06112,24.84042,0
          67.06114,24.84042,0
          67.06114,24.84041,0
          67.06115,24.84041,0
          67.06379,24.83904,0
          67.06709,24.8374,0
          67.06788,24.83703,0
          67.06832,24.83678,0
          67.069,24.83642,0
          67.069,24.83641,0
          67.06954,24.83613,0
          67.06955,24.83613,0
          67.0707,24.83553,0
          67.07295,24.83426,0
          67.07357,24.83389,0
          67.07363,24.83384,0
          67.07368,24.83381,0
          67.07374,24.83375,0
          67.07377,24.83367,0
          67.07375,24.83358,0
          67.07375,24.83352,0
          67.07392,24.83217,0
          67.07394,24.83208,0
          67.07403,24.83133,0
          67.0742,24.83022,0
          67.07435,24.82899,0
          67.0745,24.82751,0
          67.07458,24.82701,0
          67.07594,24.81642,0
          67.07595,24.81628,0
          67.076,24.81597,0
          67.07629,24.81373,0
          67.07632,24.81362,0
          67.07654,24.81184,0
          67.07659,24.81154,0
          67.07667,24.81086,0
          67.07675,24.8104,0
          67.07675,24.81037,0
          67.07677,24.81025,0
          67.07688,24.80917,0
          67.07689,24.80915,0
          67.07701,24.80822,0
          67.07704,24.80806,0
          67.0776,24.8039,0
          67.07762,24.80367,0
          67.07769,24.8032,0
          67.07768,24.80283,0
          67.07765,24.80269,0
          67.0775,24.80236,0
          67.07741,24.80226,0
          67.07739,24.80223,0
          67.07733,24.80216,0
          67.07642,24.80124,0
          67.07624,24.80102,0
          67.07534,24.80008,0
          67.07525,24.8,0
          67.07211,24.7967,0
          67.07183,24.79639,0
          67.06863,24.79307,0
          67.06863,24.79306,0
          67.06712,24.79149,0
          67.06707,24.79143,0
          67.06658,24.79097,0
          67.06578,24.79014,0
          67.06575,24.7901,0
          67.06372,24.78795,0
          67.06314,24.78737,0
          67.06309,24.78731,0
          67.0625,24.78671,0
          67.06005,24.78412,0
          67.06001,24.78406,0
          67.05953,24.78353,0
          67.05744,24.78138,0
          67.05723,24.78115,0
          67.05695,24.78087,0
          67.05665,24.78054,0
          67.05643,24.78032,0
          67.05634,24.78022,0
          67.05534,24.77922,0
          67.05473,24.77856,0
          67.05472,24.77854,0
          67.05463,24.77844,0
          67.05452,24.77855,0
          67.05437,24.77873,0
          67.0522,24.78116,0
          67.05011,24.78344,0
          67.05011,24.78345,0
          67.04723,24.78662,0
          67.04722,24.78664,0
          67.0446,24.78955,0
          67.0435,24.79073,0
          67.04349,24.79075,0
          67.04309,24.79115,0
          67.04147,24.79295,0
          67.04121,24.79321,0
          67.03916,24.79539,0
          67.03882,24.79577,0
          67.03877,24.79584,0
          67.03591,24.79875,0
          67.0358,24.79885,0
          67.03544,24.79924,0
          67.03514,24.79954,0
          67.03507,24.79962,0
          67.03501,24.79967,0
          67.03501,24.79968,0
          67.03497,24.79968,0
          67.03497,24.79969,0
          67.03496,24.79969,0
          67.03496,24.7997,0
          67.03495,24.7997,0
          67.03495,24.79971,0
          67.03494,24.79971,0
          67.03494,24.79972,0
          67.03493,24.79972,0
          67.03493,24.79975,0
          67.03448,24.80014,0
          67.03278,24.80142,0
          67.03254,24.80158,0
          67.03213,24.80179,0
          67.03192,24.80186,0
          67.0319,24.80186,0
          67.03189,24.80185,0
          67.03188,24.80186,0
          67.03184,24.80186,0
          67.03183,24.80187,0
          67.03181,24.80187,0
          67.03179,24.80189,0
          67.03178,24.80189,0
          67.03177,24.8019,0
          67.03177,24.80191,0
          67.03176,24.80191,0
          67.03175,24.80192,0
          67.03175,24.80193,0
          67.03174,24.80194,0
          67.03174,24.80195,0
          67.03173,24.80196,0
          67.03173,24.80197,0
          67.03153,24.80208,0
          67.0312,24.8023,0
          67.03095,24.8025,0
          67.0309,24.80255,0
          67.03087,24.80257,0
          67.03081,24.80263,0
          67.03075,24.80267,0
          67.03071,24.80271,0
          67.03049,24.80285,0
          67.03031,24.80291,0
          67.02996,24.80293,0
          67.02992,24.80295,0
          67.0298,24.80298,0
          67.02965,24.80304,0
          67.02953,24.80308,0
          67.02925,24.8032,0
          67.0287,24.80347,0
          67.02858,24.80354,0
          67.02853,24.80356,0
          67.02852,24.80356,0
          67.02844,24.80359,0
          67.02837,24.8036,0
        </coordinates>
      </LineString>
    </Placemark>
  </Document>
</kml>
