<?xml version="1.0" encoding="UTF-8"?>
<kml xmlns="http://www.opengis.net/kml/2.2">
  <Document>
    <name>Untitled layer</name>
    <Style id="line-AFB42B-5000-normal">
      <LineStyle>
        <color>ff2bb4af</color>
        <width>5</width>
      </LineStyle>
    </Style>
    <Style id="line-AFB42B-5000-highlight">
      <LineStyle>
        <color>ff2bb4af</color>
        <width>7.5</width>
      </LineStyle>
    </Style>
    <StyleMap id="line-AFB42B-5000">
      <Pair>
        <key>normal</key>
        <styleUrl>#line-AFB42B-5000-normal</styleUrl>
      </Pair>
      <Pair>
        <key>highlight</key>
        <styleUrl>#line-AFB42B-5000-highlight</styleUrl>
      </Pair>
    </StyleMap>
    <Placemark>
      <name>EV2 (Bahria Town to Malir Halt)</name>
      <description><![CDATA[description: <br>Route: <br>Direction: ]]></description>
      <styleUrl>#line-AFB42B-5000</styleUrl>
      <ExtendedData>
        <Data name="description">
          <value/>
        </Data>
        <Data name="Route">
          <value/>
        </Data>
        <Data name="Direction">
          <value/>
        </Data>
      </ExtendedData>
      <LineString>
        <tessellate>1</tessellate>
        <coordinates>
          67.30545,25.07125,0
          67.30577,25.0708,0
          67.30582,25.07076,0
          67.30639,25.07014,0
          67.30653,25.06993,0
          67.30654,25.0699,0
          67.30665,25.06967,0
          67.30687,25.06928,0
          67.30984,25.06918,0
          67.30995,25.06917,0
          67.31361,25.06912,0
          67.31441,25.06908,0
          67.31461,25.06906,0
          67.3168,25.06894,0
          67.3169,25.06896,0
          67.31698,25.069,0
          67.31702,25.06905,0
          67.31707,25.0691,0
          67.31713,25.06914,0
          67.31716,25.06915,0
          67.31719,25.06917,0
          67.31734,25.06917,0
          67.31747,25.06913,0
          67.31752,25.0691,0
          67.31756,25.06906,0
          67.31758,25.06903,0
          67.3176,25.06897,0
          67.31775,25.06894,0
          67.31805,25.06891,0
          67.3229,25.06878,0
          67.32454,25.06868,0
          67.33432,25.06839,0
          67.33413,25.06852,0
          67.33403,25.0686,0
          67.33394,25.06863,0
          67.33294,25.06863,0
          67.33276,25.06865,0
          67.33256,25.06875,0
          67.33246,25.06882,0
          67.33237,25.06895,0
          67.33232,25.06906,0
          67.3323,25.06919,0
          67.3323,25.06941,0
          67.33137,25.06685,0
          67.33137,25.06672,0
          67.33135,25.06667,0
          67.33119,25.06611,0
          67.33115,25.06594,0
          67.33072,25.06475,0
          67.33072,25.06474,0
          67.33028,25.0634,0
          67.33026,25.06336,0
          67.33024,25.06329,0
          67.33024,25.06314,0
          67.33026,25.06309,0
          67.3303,25.06302,0
          67.33066,25.06272,0
          67.33099,25.06252,0
          67.33096,25.06244,0
          67.33089,25.06221,0
          67.33088,25.0621,0
          67.33048,25.06245,0
          67.33035,25.06249,0
          67.33019,25.0625,0
          67.33,25.06247,0
          67.32984,25.06241,0
          67.32968,25.06234,0
          67.32956,25.06226,0
          67.32928,25.06137,0
          67.32895,25.06042,0
          67.3288,25.05993,0
          67.32871,25.05926,0
          67.32872,25.05873,0
          67.32873,25.05862,0
          67.32876,25.05844,0
          67.32876,25.05842,0
          67.3288,25.05827,0
          67.32881,25.0582,0
          67.32895,25.05775,0
          67.32904,25.05758,0
          67.32911,25.05742,0
          67.32951,25.05679,0
          67.32953,25.05675,0
          67.32999,25.05613,0
          67.33032,25.05556,0
          67.33048,25.05524,0
          67.33049,25.05523,0
          67.33065,25.05484,0
          67.33082,25.05434,0
          67.33103,25.05338,0
          67.33107,25.053,0
          67.33107,25.05235,0
          67.33103,25.05189,0
          67.33095,25.05134,0
          67.33077,25.05065,0
          67.33075,25.05055,0
          67.33037,25.04964,0
          67.33032,25.04954,0
          67.32968,25.04855,0
          67.32967,25.04855,0
          67.32945,25.04824,0
          67.32924,25.04802,0
          67.32922,25.04797,0
          67.3292,25.04795,0
          67.32912,25.04785,0
          67.32891,25.04764,0
          67.32856,25.04733,0
          67.32819,25.04707,0
          67.32757,25.04668,0
          67.32707,25.04641,0
          67.32647,25.04613,0
          67.32595,25.04595,0
          67.32541,25.0458,0
          67.3251,25.04569,0
          67.32479,25.04553,0
          67.3244,25.04528,0
          67.32418,25.04509,0
          67.32399,25.04488,0
          67.32379,25.04459,0
          67.32377,25.04454,0
          67.32363,25.04429,0
          67.32349,25.04393,0
          67.32337,25.04351,0
          67.32331,25.04324,0
          67.32321,25.04246,0
          67.32323,25.04208,0
          67.32328,25.0416,0
          67.32328,25.04153,0
          67.32331,25.04125,0
          67.32335,25.04104,0
          67.32339,25.0409,0
          67.32343,25.0407,0
          67.32354,25.04038,0
          67.32356,25.04034,0
          67.32365,25.04011,0
          67.32385,25.03971,0
          67.32397,25.03951,0
          67.32423,25.03897,0
          67.32437,25.03856,0
          67.32438,25.03854,0
          67.32456,25.0379,0
          67.32462,25.03753,0
          67.32465,25.03695,0
          67.32464,25.03677,0
          67.32462,25.03661,0
          67.32462,25.03659,0
          67.32457,25.03625,0
          67.32448,25.03577,0
          67.3244,25.03549,0
          67.32429,25.03519,0
          67.32426,25.03513,0
          67.32413,25.0348,0
          67.32384,25.03427,0
          67.32366,25.034,0
          67.32352,25.03382,0
          67.32332,25.03359,0
          67.32322,25.03346,0
          67.32288,25.03312,0
          67.32262,25.03289,0
          67.32231,25.03264,0
          67.32208,25.03248,0
          67.32204,25.03246,0
          67.32175,25.03228,0
          67.32115,25.03197,0
          67.32092,25.03183,0
          67.32054,25.03157,0
          67.32028,25.03137,0
          67.31993,25.03105,0
          67.31971,25.03082,0
          67.31939,25.03042,0
          67.31914,25.03008,0
          67.31899,25.02983,0
          67.31888,25.02962,0
          67.31851,25.02876,0
          67.31851,25.02875,0
          67.31785,25.02743,0
          67.31769,25.02716,0
          67.3174,25.02671,0
          67.3174,25.02669,0
          67.31701,25.02614,0
          67.31668,25.02572,0
          67.31618,25.02513,0
          67.31547,25.0244,0
          67.31503,25.02401,0
          67.31477,25.02381,0
          67.31491,25.02364,0
          67.31501,25.02347,0
          67.31517,25.02303,0
          67.31522,25.02278,0
          67.31521,25.02255,0
          67.31518,25.02235,0
          67.315,25.02162,0
          67.31484,25.02125,0
          67.31448,25.02061,0
          67.31423,25.02028,0
          67.3139,25.01993,0
          67.31377,25.01983,0
          67.31363,25.0197,0
          67.31352,25.01961,0
          67.3131,25.0193,0
          67.3124,25.01891,0
          67.31181,25.01871,0
          67.31141,25.0186,0
          67.31139,25.0186,0
          67.3109,25.01854,0
          67.31037,25.01859,0
          67.31021,25.01854,0
          67.30998,25.0185,0
          67.30987,25.01846,0
          67.30963,25.01835,0
          67.30957,25.0183,0
          67.30952,25.01823,0
          67.30941,25.01805,0
          67.30935,25.01797,0
          67.30934,25.01795,0
          67.30932,25.01795,0
          67.30923,25.01773,0
          67.30915,25.01748,0
          67.30894,25.01658,0
          67.30892,25.01632,0
          67.3089,25.01618,0
          67.3089,25.01581,0
          67.30888,25.0153,0
          67.30891,25.0147,0
          67.30897,25.0143,0
          67.30912,25.01349,0
          67.30919,25.01321,0
          67.30951,25.01237,0
          67.31031,25.01044,0
          67.31039,25.01028,0
          67.31194,25.0067,0
          67.3136,25.0025,0
          67.31482,24.99953,0
          67.31496,24.99924,0
          67.31514,24.99874,0
          67.31533,24.99835,0
          67.31555,24.99808,0
          67.31596,24.99768,0
          67.31631,24.99761,0
          67.3166,24.99745,0
          67.3168,24.99722,0
          67.31694,24.99694,0
          67.31703,24.99663,0
          67.31703,24.99635,0
          67.31698,24.99609,0
          67.31697,24.99607,0
          67.31679,24.99585,0
          67.31681,24.99533,0
          67.31684,24.99512,0
          67.31702,24.9946,0
          67.31736,24.99376,0
          67.3176,24.99323,0
          67.31789,24.99314,0
          67.31817,24.99308,0
          67.31857,24.99311,0
          67.31878,24.99317,0
          67.31904,24.99328,0
          67.31966,24.99347,0
          67.31968,24.99348,0
          67.31981,24.9935,0
          67.31987,24.9935,0
          67.31995,24.99346,0
          67.32003,24.99341,0
          67.32003,24.9934,0
          67.32009,24.99333,0
          67.32015,24.99321,0
          67.3203,24.99298,0
          67.32032,24.99293,0
          67.32036,24.99274,0
          67.32034,24.99263,0
          67.32027,24.99245,0
          67.32024,24.9924,0
          67.3202,24.99235,0
          67.32002,24.99226,0
          67.31989,24.99221,0
          67.31973,24.99216,0
          67.31961,24.99211,0
          67.31884,24.99186,0
          67.3158,24.99079,0
          67.31549,24.99072,0
          67.31514,24.9907,0
          67.31509,24.99069,0
          67.31454,24.99078,0
          67.31439,24.99079,0
          67.31435,24.9908,0
          67.31416,24.99082,0
          67.31379,24.99082,0
          67.31358,24.9908,0
          67.31335,24.99075,0
          67.31306,24.99066,0
          67.31294,24.99064,0
          67.31283,24.99066,0
          67.31027,24.98974,0
          67.30931,24.98943,0
          67.30679,24.98854,0
          67.3067,24.98852,0
          67.27295,24.97677,0
          67.27246,24.97658,0
          67.27198,24.97642,0
          67.27113,24.97619,0
          67.27013,24.97599,0
          67.26919,24.97588,0
          67.26857,24.97587,0
          67.26637,24.97591,0
          67.26296,24.97605,0
          67.25541,24.97627,0
          67.25403,24.97639,0
          67.25292,24.97659,0
          67.25191,24.9768,0
          67.24941,24.97747,0
          67.24654,24.97829,0
          67.2413,24.97967,0
          67.24018,24.98,0
          67.23529,24.98132,0
          67.23415,24.9816,0
          67.23385,24.9816,0
          67.23256,24.98169,0
          67.23223,24.9817,0
          67.231,24.98179,0
          67.23049,24.98179,0
          67.23008,24.98181,0
          67.2294,24.98189,0
          67.22656,24.98229,0
          67.22593,24.98242,0
          67.22568,24.98246,0
          67.22558,24.98247,0
          67.22522,24.98258,0
          67.22459,24.98275,0
          67.22427,24.98281,0
          67.22409,24.98291,0
          67.22381,24.98303,0
          67.22333,24.9832,0
          67.21883,24.98386,0
          67.2183,24.98396,0
          67.21632,24.98423,0
          67.21562,24.9844,0
          67.21489,24.98454,0
          67.21297,24.98485,0
          67.21197,24.98498,0
          67.20934,24.98541,0
          67.20413,24.98616,0
          67.20402,24.98617,0
          67.19699,24.98717,0
          67.19672,24.9872,0
          67.19635,24.98726,0
          67.19563,24.98702,0
          67.19548,24.98695,0
          67.19542,24.9869,0
          67.19529,24.98681,0
          67.19514,24.98667,0
          67.195,24.98652,0
          67.19468,24.98611,0
          67.19442,24.98563,0
          67.19318,24.98209,0
          67.19261,24.98004,0
          67.19261,24.98003,0
          67.19149,24.97593,0
          67.19147,24.97583,0
          67.19104,24.97429,0
          67.19078,24.97328,0
          67.19075,24.97321,0
          67.1907,24.973,0
          67.18998,24.97058,0
          67.18997,24.97053,0
          67.18986,24.9702,0
          67.18986,24.97008,0
          67.18985,24.97003,0
          67.1895,24.96879,0
          67.18932,24.96833,0
          67.18927,24.96824,0
          67.18924,24.96817,0
          67.18897,24.96768,0
          67.1886,24.96714,0
          67.18845,24.96699,0
          67.18828,24.96679,0
          67.18655,24.96498,0
          67.18644,24.96485,0
          67.18629,24.96465,0
          67.18623,24.96455,0
          67.18613,24.96434,0
          67.18609,24.96424,0
          67.18602,24.96403,0
          67.18589,24.96357,0
          67.18572,24.96275,0
          67.18567,24.96246,0
          67.18418,24.95555,0
          67.18415,24.95545,0
          67.18398,24.95455,0
          67.18379,24.95373,0
          67.18355,24.95255,0
          67.18351,24.9524,0
          67.18345,24.95211,0
          67.18342,24.95203,0
          67.1834,24.95195,0
          67.18337,24.95186,0
          67.18332,24.95163,0
          67.18329,24.95127,0
          67.18321,24.9509,0
          67.1832,24.95081,0
          67.18308,24.95038,0
          67.18294,24.9498,0
          67.18294,24.94977,0
          67.18291,24.94962,0
          67.18287,24.94948,0
          67.18284,24.94933,0
          67.18277,24.94911,0
          67.18275,24.94907,0
          67.18259,24.94865,0
          67.18198,24.94731,0
          67.18192,24.94714,0
          67.18182,24.94695,0
          67.18169,24.94666,0
          67.18151,24.94617,0
          67.18124,24.94556,0
          67.18115,24.94529,0
          67.18095,24.94482,0
          67.1809,24.94472,0
          67.18062,24.94404,0
          67.18055,24.94389,0
          67.18042,24.94357,0
          67.18019,24.94308,0
          67.18013,24.94292,0
          67.1799,24.9424,0
          67.17949,24.9414,0
          67.17933,24.94105,0
          67.17918,24.94067,0
          67.1791,24.94048,0
          67.17837,24.93885,0
          67.17811,24.93821,0
          67.17806,24.93805,0
          67.1778,24.93741,0
          67.17705,24.93573,0
          67.17685,24.93517,0
          67.17684,24.93511,0
          67.17683,24.9351,0
          67.17683,24.93501,0
          67.17685,24.93493,0
          67.17709,24.93423,0
          67.17716,24.9341,0
          67.17758,24.9329,0
          67.1776,24.93286,0
          67.17776,24.93238,0
          67.17787,24.93211,0
          67.17794,24.93188,0
          67.17812,24.93138,0
          67.17826,24.93105,0
          67.17835,24.93081,0
          67.17846,24.93047,0
          67.17877,24.92961,0
          67.17878,24.92957,0
          67.17924,24.92824,0
          67.18022,24.92555,0
          67.18033,24.92521,0
          67.18047,24.92486,0
          67.18049,24.92478,0
          67.18053,24.92469,0
          67.18063,24.9245,0
          67.18072,24.92437,0
          67.1808,24.92428,0
          67.18081,24.92426,0
          67.18102,24.92407,0
          67.18135,24.9238,0
          67.1815,24.92369,0
          67.1818,24.92352,0
          67.18427,24.92239,0
          67.1845,24.92227,0
          67.18461,24.92222,0
          67.18466,24.92219,0
          67.18471,24.92215,0
          67.18486,24.92206,0
          67.18496,24.92199,0
          67.18518,24.92179,0
          67.18526,24.92168,0
          67.18537,24.92155,0
          67.18549,24.92139,0
          67.1857,24.92106,0
          67.18584,24.92076,0
          67.18591,24.92063,0
          67.18635,24.91967,0
          67.18638,24.91962,0
          67.18741,24.91739,0
          67.18744,24.91735,0
          67.18781,24.91661,0
          67.18785,24.91651,0
          67.18811,24.91603,0
          67.18861,24.91532,0
          67.18868,24.91513,0
          67.18873,24.91493,0
          67.18874,24.91469,0
          67.18871,24.91442,0
          67.18864,24.9142,0
          67.18856,24.91402,0
          67.18845,24.91386,0
          67.18833,24.91372,0
          67.18817,24.91359,0
          67.18804,24.9135,0
          67.18793,24.91344,0
          67.18591,24.91266,0
          67.18541,24.91244,0
          67.185,24.91222,0
          67.18493,24.91216,0
          67.18485,24.91203,0
          67.18443,24.91089,0
          67.18441,24.91085,0
          67.18404,24.90981,0
          67.18393,24.90944,0
          67.18328,24.90756,0
          67.18327,24.90755,0
          67.18228,24.90464,0
          67.18228,24.90463,0
          67.18227,24.90459,0
          67.18193,24.90365,0
          67.18185,24.90349,0
          67.18147,24.90229,0
          67.18117,24.90153,0
          67.181,24.90092,0
          67.18099,24.90091,0
          67.18094,24.90074,0
          67.18092,24.90071,0
          67.18078,24.90035,0
          67.18064,24.90004,0
          67.18044,24.89952,0
          67.18041,24.89946,0
          67.18035,24.89926,0
          67.18029,24.89901,0
          67.18004,24.89831,0
          67.18003,24.89829,0
          67.17983,24.8976,0
          67.1798,24.89752,0
          67.17974,24.89729,0
          67.17962,24.89694,0
          67.17948,24.89661,0
          67.179,24.89515,0
          67.17841,24.89359,0
          67.17839,24.8935,0
          67.17833,24.89332,0
          67.17803,24.89254,0
          67.17789,24.89209,0
          67.17764,24.89142,0
          67.17718,24.88978,0
          67.17717,24.88976,0
          67.17675,24.88844,0
          67.17671,24.88834,0
          67.17647,24.88761,0
          67.17593,24.88621,0
          67.17589,24.88604,0
          67.17583,24.88589,0
          67.17573,24.88559,0
          67.17559,24.88522,0
          67.17557,24.88519,0
          67.17551,24.88498,0
          67.17551,24.88494,0
          67.1755,24.88489,0
          67.17551,24.88488,0
        </coordinates>
      </LineString>
    </Placemark>
  </Document>
</kml>
