<?xml version="1.0" encoding="UTF-8"?>
<kml xmlns="http://www.opengis.net/kml/2.2">
  <Document>
    <name>Untitled layer</name>
    <Style id="line-4E342E-5000-normal">
      <LineStyle>
        <color>ff2e344e</color>
        <width>5</width>
      </LineStyle>
    </Style>
    <Style id="line-4E342E-5000-highlight">
      <LineStyle>
        <color>ff2e344e</color>
        <width>7.5</width>
      </LineStyle>
    </Style>
    <StyleMap id="line-4E342E-5000">
      <Pair>
        <key>normal</key>
        <styleUrl>#line-4E342E-5000-normal</styleUrl>
      </Pair>
      <Pair>
        <key>highlight</key>
        <styleUrl>#line-4E342E-5000-highlight</styleUrl>
      </Pair>
    </StyleMap>
    <Placemark>
      <name>EV3 (Malir Cantt to Numaish)</name>
      <description><![CDATA[description: <br>Route: <br>Direction: ]]></description>
      <styleUrl>#line-4E342E-5000</styleUrl>
      <ExtendedData>
        <Data name="description">
          <value/>
        </Data>
        <Data name="Route">
          <value/>
        </Data>
        <Data name="Direction">
          <value/>
        </Data>
      </ExtendedData>
      <LineString>
        <tessellate>1</tessellate>
        <coordinates>
          67.20478,24.93126,0
          67.20477,24.93123,0
          67.20475,24.9312,0
          67.20473,24.93116,0
          67.20471,24.93113,0
          67.20469,24.9311,0
          67.20466,24.93108,0
          67.20463,24.93106,0
          67.20458,24.93102,0
          67.20456,24.93102,0
          67.20453,24.93102,0
          67.2045,24.93102,0
          67.20445,24.93104,0
          67.20425,24.93104,0
          67.20405,24.93101,0
          67.20397,24.93101,0
          67.20363,24.93093,0
          67.20359,24.93092,0
          67.2034,24.93087,0
          67.2033,24.93085,0
          67.20326,24.93084,0
          67.20315,24.93082,0
          67.20298,24.9308,0
          67.20286,24.93078,0
          67.20261,24.93077,0
          67.20253,24.93076,0
          67.20228,24.93076,0
          67.20222,24.93076,0
          67.20203,24.93076,0
          67.20199,24.93077,0
          67.20187,24.93077,0
          67.20175,24.93078,0
          67.20154,24.9308,0
          67.20141,24.93083,0
          67.20135,24.93084,0
          67.20122,24.93086,0
          67.20094,24.9309,0
          67.20017,24.93104,0
          67.19992,24.93109,0
          67.19979,24.93111,0
          67.19915,24.93123,0
          67.19876,24.9313,0
          67.19873,24.93131,0
          67.19846,24.93136,0
          67.19824,24.93141,0
          67.19796,24.93147,0
          67.19791,24.93148,0
          67.19777,24.9315,0
          67.19771,24.9315,0
          67.19741,24.93156,0
          67.19675,24.93168,0
          67.19656,24.93172,0
          67.19544,24.93191,0
          67.19531,24.93193,0
          67.19405,24.93217,0
          67.19381,24.93222,0
          67.19304,24.93236,0
          67.19292,24.93238,0
          67.1926,24.93243,0
          67.19217,24.93251,0
          67.19207,24.93253,0
          67.19164,24.93261,0
          67.19088,24.93275,0
          67.19029,24.93286,0
          67.19024,24.93287,0
          67.19001,24.93291,0
          67.18986,24.93295,0
          67.18933,24.93306,0
          67.18925,24.93305,0
          67.18912,24.93301,0
          67.18904,24.93298,0
          67.18898,24.93297,0
          67.18896,24.93296,0
          67.18893,24.93295,0
          67.1889,24.93295,0
          67.18888,24.93296,0
          67.18886,24.93297,0
          67.18885,24.93298,0
          67.18884,24.93299,0
          67.18884,24.933,0
          67.18873,24.93307,0
          67.18867,24.9331,0
          67.18856,24.93317,0
          67.18842,24.93322,0
          67.18808,24.93338,0
          67.1878,24.93353,0
          67.18754,24.93368,0
          67.18747,24.93373,0
          67.18745,24.93374,0
          67.18735,24.9338,0
          67.18727,24.93386,0
          67.18719,24.93392,0
          67.18703,24.93403,0
          67.18687,24.93414,0
          67.18674,24.93427,0
          67.18668,24.93433,0
          67.18664,24.93438,0
          67.18657,24.93446,0
          67.18649,24.93458,0
          67.18628,24.93491,0
          67.18599,24.9355,0
          67.18577,24.93606,0
          67.18572,24.9362,0
          67.18561,24.9366,0
          67.18559,24.93669,0
          67.18557,24.93678,0
          67.18548,24.9371,0
          67.18545,24.93723,0
          67.18539,24.93745,0
          67.18536,24.93761,0
          67.18534,24.93775,0
          67.1853,24.93799,0
          67.18528,24.93866,0
          67.18528,24.93956,0
          67.18531,24.94002,0
          67.18536,24.94106,0
          67.18539,24.94163,0
          67.18539,24.94174,0
          67.1854,24.94182,0
          67.18542,24.94202,0
          67.18544,24.94225,0
          67.18547,24.94241,0
          67.18548,24.94257,0
          67.18551,24.94267,0
          67.18561,24.94375,0
          67.18568,24.94444,0
          67.18575,24.94491,0
          67.1859,24.94598,0
          67.18601,24.94669,0
          67.18603,24.94688,0
          67.18618,24.94771,0
          67.18622,24.94794,0
          67.18632,24.94849,0
          67.18643,24.9492,0
          67.18649,24.94952,0
          67.18651,24.9496,0
          67.18656,24.9497,0
          67.18656,24.94971,0
          67.18655,24.94972,0
          67.18655,24.94973,0
          67.18641,24.94985,0
          67.18635,24.9499,0
          67.18628,24.94994,0
          67.18613,24.95001,0
          67.18583,24.95008,0
          67.18575,24.9501,0
          67.18568,24.9501,0
          67.18563,24.95009,0
          67.18557,24.95007,0
          67.1855,24.95005,0
          67.18544,24.95001,0
          67.18543,24.95001,0
          67.18538,24.94997,0
          67.18531,24.94992,0
          67.18441,24.94916,0
          67.18397,24.94878,0
          67.18365,24.9485,0
          67.18343,24.94832,0
          67.18339,24.94827,0
          67.18334,24.94821,0
          67.18327,24.94815,0
          67.18305,24.94792,0
          67.18289,24.94779,0
          67.18213,24.94714,0
          67.18182,24.94695,0
          67.18176,24.94681,0
          67.18169,24.94666,0
          67.18161,24.94645,0
          67.18151,24.94617,0
          67.18142,24.94596,0
          67.1813,24.94569,0
          67.18124,24.94556,0
          67.18111,24.9456,0
          67.18115,24.94571,0
          67.18142,24.94631,0
          67.18153,24.94655,0
          67.1815,24.94655,0
          67.18148,24.94655,0
          67.18145,24.94653,0
          67.18141,24.94651,0
          67.18124,24.94639,0
          67.18113,24.94631,0
          67.18094,24.94614,0
          67.18077,24.94598,0
          67.18058,24.94581,0
          67.18042,24.94567,0
          67.18027,24.94555,0
          67.18002,24.94534,0
          67.17973,24.9451,0
          67.17937,24.94481,0
          67.17924,24.9447,0
          67.17898,24.94448,0
          67.17881,24.94433,0
          67.17849,24.94404,0
          67.17821,24.94383,0
          67.17805,24.94373,0
          67.17791,24.94366,0
          67.17776,24.94361,0
          67.1774,24.94354,0
          67.17697,24.94345,0
          67.17696,24.94345,0
          67.1761,24.94327,0
          67.17576,24.9432,0
          67.17561,24.94317,0
          67.17445,24.94292,0
          67.17348,24.94272,0
          67.1729,24.9426,0
          67.17252,24.94251,0
          67.17173,24.94234,0
          67.17088,24.94216,0
          67.17037,24.94205,0
          67.16979,24.94193,0
          67.16974,24.94192,0
          67.16962,24.9419,0
          67.16959,24.94189,0
          67.16942,24.94186,0
          67.16863,24.94169,0
          67.16814,24.94159,0
          67.16786,24.94154,0
          67.16767,24.9415,0
          67.16742,24.94145,0
          67.16638,24.94123,0
          67.16631,24.94122,0
          67.16624,24.9412,0
          67.16607,24.94117,0
          67.16564,24.94108,0
          67.16476,24.94089,0
          67.16438,24.94081,0
          67.1634,24.94061,0
          67.16286,24.94049,0
          67.16263,24.94044,0
          67.16248,24.94041,0
          67.16228,24.94037,0
          67.1617,24.94025,0
          67.16128,24.94016,0
          67.16112,24.94014,0
          67.16092,24.94012,0
          67.16061,24.94012,0
          67.16048,24.94013,0
          67.16042,24.94013,0
          67.15961,24.9402,0
          67.15925,24.94022,0
          67.15913,24.94022,0
          67.15903,24.94021,0
          67.15895,24.9402,0
          67.15892,24.9402,0
          67.15888,24.94019,0
          67.15872,24.94015,0
          67.15855,24.94008,0
          67.15797,24.9398,0
          67.15742,24.93951,0
          67.15728,24.93944,0
          67.15706,24.93917,0
          67.15685,24.9391,0
          67.15672,24.93909,0
          67.15644,24.93907,0
          67.15634,24.93907,0
          67.15618,24.93906,0
          67.15605,24.93905,0
          67.15548,24.93897,0
          67.15531,24.93894,0
          67.15496,24.93889,0
          67.15452,24.93882,0
          67.15447,24.93881,0
          67.15406,24.93874,0
          67.15354,24.93865,0
          67.15327,24.93859,0
          67.15269,24.93848,0
          67.1525,24.93844,0
          67.15188,24.93832,0
          67.15142,24.93822,0
          67.15096,24.93814,0
          67.15091,24.93813,0
          67.15062,24.93807,0
          67.15048,24.93805,0
          67.15032,24.93802,0
          67.14905,24.9378,0
          67.14878,24.93776,0
          67.14844,24.9377,0
          67.14826,24.93767,0
          67.14824,24.93767,0
          67.14818,24.93765,0
          67.14805,24.93763,0
          67.14767,24.93756,0
          67.14753,24.93754,0
          67.14728,24.93749,0
          67.14711,24.93746,0
          67.14689,24.93742,0
          67.14635,24.93732,0
          67.1462,24.93729,0
          67.14617,24.93728,0
          67.14579,24.93721,0
          67.14562,24.93717,0
          67.14544,24.93715,0
          67.14523,24.93713,0
          67.14519,24.93712,0
          67.14487,24.93707,0
          67.14425,24.93696,0
          67.14424,24.93696,0
          67.14416,24.93695,0
          67.14366,24.93687,0
          67.14326,24.93677,0
          67.14287,24.9367,0
          67.14253,24.93665,0
          67.14247,24.93664,0
          67.14229,24.93661,0
          67.14228,24.93661,0
          67.14228,24.9366,0
          67.14209,24.93657,0
          67.14205,24.93657,0
          67.14172,24.9365,0
          67.14095,24.93632,0
          67.14073,24.93628,0
          67.14054,24.93624,0
          67.1402,24.93617,0
          67.13982,24.9361,0
          67.13981,24.93609,0
          67.13971,24.93608,0
          67.13907,24.93597,0
          67.13903,24.93596,0
          67.13879,24.93592,0
          67.13851,24.93587,0
          67.13848,24.93581,0
          67.13847,24.93577,0
          67.13845,24.93574,0
          67.13843,24.93567,0
          67.13842,24.93563,0
          67.1384,24.93554,0
          67.1384,24.93544,0
          67.13841,24.93528,0
          67.13843,24.9352,0
          67.13855,24.93471,0
          67.13856,24.93464,0
          67.13857,24.93459,0
          67.13861,24.93444,0
          67.13863,24.93439,0
          67.13877,24.93389,0
          67.13885,24.93358,0
          67.1389,24.93343,0
          67.13896,24.93319,0
          67.13897,24.93318,0
          67.139,24.93304,0
          67.13903,24.93296,0
          67.13905,24.93286,0
          67.13919,24.93237,0
          67.13934,24.93183,0
          67.13941,24.93161,0
          67.13953,24.93112,0
          67.13956,24.931,0
          67.13957,24.93096,0
          67.13965,24.93057,0
          67.13965,24.93054,0
          67.13966,24.93043,0
          67.13966,24.93034,0
          67.13966,24.93028,0
          67.13965,24.93023,0
          67.13948,24.92953,0
          67.13939,24.92917,0
          67.13935,24.929,0
          67.13933,24.92893,0
          67.13932,24.92889,0
          67.13931,24.92882,0
          67.13926,24.92865,0
          67.13923,24.92852,0
          67.1391,24.9281,0
          67.13909,24.92805,0
          67.13886,24.92729,0
          67.13884,24.92722,0
          67.1388,24.92709,0
          67.13865,24.92651,0
          67.13844,24.92578,0
          67.13824,24.9251,0
          67.13814,24.92478,0
          67.13797,24.9242,0
          67.13794,24.92408,0
          67.13791,24.92394,0
          67.13786,24.92375,0
          67.13785,24.92374,0
          67.13779,24.92362,0
          67.1377,24.92351,0
          67.13752,24.92334,0
          67.13747,24.92327,0
          67.13735,24.92315,0
          67.13724,24.92304,0
          67.1371,24.92291,0
          67.13668,24.92253,0
          67.1363,24.92216,0
          67.13598,24.92184,0
          67.13589,24.92176,0
          67.13578,24.92166,0
          67.1355,24.9214,0
          67.13524,24.92117,0
          67.13494,24.92088,0
          67.13464,24.92059,0
          67.13443,24.92039,0
          67.13435,24.92032,0
          67.13414,24.92013,0
          67.13388,24.9199,0
          67.13353,24.91956,0
          67.13328,24.9193,0
          67.13286,24.9189,0
          67.13273,24.91878,0
          67.1325,24.91857,0
          67.13246,24.91853,0
          67.13233,24.9184,0
          67.13209,24.91817,0
          67.13169,24.91778,0
          67.13167,24.91776,0
          67.13065,24.91677,0
          67.13026,24.91642,0
          67.1302,24.91636,0
          67.12982,24.916,0
          67.12954,24.91574,0
          67.1294,24.91561,0
          67.12899,24.91522,0
          67.12853,24.91478,0
          67.12805,24.91433,0
          67.12746,24.91379,0
          67.12722,24.91357,0
          67.12668,24.91305,0
          67.12581,24.91222,0
          67.12575,24.91217,0
          67.12562,24.91206,0
          67.12554,24.91199,0
          67.12546,24.91193,0
          67.12514,24.91171,0
          67.12475,24.91145,0
          67.12464,24.91138,0
          67.12443,24.91123,0
          67.12395,24.91091,0
          67.12387,24.91085,0
          67.12373,24.91074,0
          67.12355,24.91063,0
          67.12355,24.91062,0
          67.12348,24.91058,0
          67.12342,24.91054,0
          67.12322,24.9104,0
          67.12309,24.91031,0
          67.12261,24.90998,0
          67.12214,24.90965,0
          67.12198,24.90955,0
          67.12182,24.90944,0
          67.12166,24.90933,0
          67.12112,24.90897,0
          67.12078,24.90873,0
          67.12023,24.90836,0
          67.12007,24.90825,0
          67.11959,24.90793,0
          67.11908,24.90758,0
          67.11868,24.9073,0
          67.11814,24.90692,0
          67.11807,24.90688,0
          67.11798,24.90682,0
          67.11789,24.90675,0
          67.11782,24.90671,0
          67.1176,24.90658,0
          67.11728,24.90641,0
          67.1167,24.90612,0
          67.11645,24.906,0
          67.11579,24.90566,0
          67.11545,24.90548,0
          67.11528,24.90539,0
          67.11518,24.90533,0
          67.1151,24.90529,0
          67.11476,24.90511,0
          67.11459,24.90502,0
          67.11442,24.90493,0
          67.11394,24.90467,0
          67.11388,24.90464,0
          67.11384,24.90461,0
          67.11382,24.90457,0
          67.1138,24.90451,0
          67.1138,24.90447,0
          67.1138,24.90445,0
          67.1138,24.90443,0
          67.11381,24.90439,0
          67.11383,24.90435,0
          67.11386,24.90428,0
          67.11431,24.90375,0
          67.1145,24.90354,0
          67.11478,24.9032,0
          67.11494,24.903,0
          67.11513,24.90277,0
          67.11522,24.90265,0
          67.11533,24.9025,0
          67.11538,24.90242,0
          67.11544,24.90234,0
          67.1155,24.90225,0
          67.11552,24.9022,0
          67.11553,24.90217,0
          67.11554,24.90215,0
          67.11555,24.90211,0
          67.11565,24.902,0
          67.11575,24.90188,0
          67.11592,24.90168,0
          67.11594,24.90165,0
          67.11603,24.90154,0
          67.11605,24.90151,0
          67.11614,24.90139,0
          67.1162,24.90131,0
          67.11624,24.90123,0
          67.11628,24.90116,0
          67.11631,24.90109,0
          67.11633,24.90098,0
          67.11635,24.90089,0
          67.11635,24.90074,0
          67.11637,24.90069,0
          67.11638,24.90062,0
          67.11635,24.90042,0
          67.11634,24.90039,0
          67.11633,24.90037,0
          67.1163,24.90035,0
          67.11628,24.90034,0
          67.11626,24.90034,0
          67.11624,24.90034,0
          67.11622,24.90035,0
          67.11619,24.90037,0
          67.11616,24.90039,0
          67.11578,24.90068,0
          67.11572,24.90071,0
          67.11563,24.90075,0
          67.11559,24.90076,0
          67.11554,24.90077,0
          67.11549,24.90077,0
          67.1153,24.90077,0
          67.1151,24.90077,0
          67.11507,24.90077,0
          67.11484,24.90077,0
          67.11439,24.90077,0
          67.1143,24.90077,0
          67.11406,24.90079,0
          67.11379,24.90082,0
          67.11342,24.90089,0
          67.11306,24.90097,0
          67.11271,24.90104,0
          67.11239,24.90111,0
          67.11211,24.90114,0
          67.11199,24.90115,0
          67.1119,24.90116,0
          67.11169,24.90115,0
          67.11151,24.90113,0
          67.11143,24.90112,0
          67.11118,24.90109,0
          67.11093,24.90102,0
          67.11086,24.90099,0
          67.11062,24.9009,0
          67.1086,24.90015,0
          67.10833,24.90006,0
          67.10731,24.89974,0
          67.10718,24.8997,0
          67.10701,24.89965,0
          67.10626,24.89941,0
          67.10612,24.89936,0
          67.10598,24.8993,0
          67.1057,24.89915,0
          67.10541,24.89895,0
          67.105,24.89867,0
          67.10489,24.89859,0
          67.10475,24.89849,0
          67.10442,24.89826,0
          67.10426,24.89815,0
          67.10407,24.89806,0
          67.10396,24.89801,0
          67.10378,24.89795,0
          67.10352,24.89787,0
          67.10337,24.89783,0
          67.1028,24.89769,0
          67.10268,24.89766,0
          67.10243,24.89759,0
          67.10152,24.89732,0
          67.10131,24.89726,0
          67.10069,24.89708,0
          67.1005,24.89703,0
          67.10048,24.89703,0
          67.10031,24.89698,0
          67.09991,24.89687,0
          67.09937,24.8967,0
          67.09868,24.89647,0
          67.09801,24.89627,0
          67.09761,24.89618,0
          67.09636,24.89596,0
          67.09488,24.89567,0
          67.09455,24.89561,0
          67.0942,24.89543,0
          67.09398,24.89535,0
          67.09371,24.89529,0
          67.09363,24.89527,0
          67.0934,24.89524,0
          67.09321,24.89523,0
          67.09295,24.89521,0
          67.09267,24.8952,0
          67.09253,24.8952,0
          67.09218,24.89518,0
          67.09214,24.89518,0
          67.09166,24.89511,0
          67.09163,24.89511,0
          67.0912,24.895,0
          67.09069,24.89489,0
          67.0905,24.89486,0
          67.09045,24.89485,0
          67.09031,24.89482,0
          67.09003,24.89475,0
          67.08967,24.89465,0
          67.08954,24.89459,0
          67.08929,24.89449,0
          67.08914,24.89444,0
          67.08906,24.89442,0
          67.08895,24.89439,0
          67.08881,24.89436,0
          67.0888,24.89435,0
          67.08819,24.89417,0
          67.08805,24.89412,0
          67.08784,24.89406,0
          67.08776,24.89403,0
          67.08749,24.89395,0
          67.08708,24.89381,0
          67.08668,24.89369,0
          67.0864,24.8936,0
          67.08492,24.89313,0
          67.08456,24.89299,0
          67.08427,24.89288,0
          67.08409,24.89281,0
          67.08364,24.89262,0
          67.08289,24.89235,0
          67.08268,24.89227,0
          67.08255,24.89222,0
          67.08247,24.89219,0
          67.08237,24.89215,0
          67.08235,24.89214,0
          67.0822,24.89209,0
          67.08215,24.89207,0
          67.08186,24.89189,0
          67.08167,24.89182,0
          67.0813,24.89167,0
          67.08122,24.89163,0
          67.08106,24.89157,0
          67.08083,24.89149,0
          67.08043,24.89133,0
          67.08031,24.89128,0
          67.08008,24.89119,0
          67.0799,24.89113,0
          67.0798,24.8911,0
          67.07971,24.89108,0
          67.0796,24.89106,0
          67.07919,24.89102,0
          67.07892,24.891,0
          67.07867,24.89098,0
          67.07774,24.8909,0
          67.07758,24.89089,0
          67.07718,24.89085,0
          67.07693,24.89083,0
          67.07625,24.89076,0
          67.07578,24.89072,0
          67.07497,24.89065,0
          67.0748,24.89064,0
          67.07371,24.89054,0
          67.0734,24.89052,0
          67.07295,24.89049,0
          67.07216,24.89037,0
          67.07173,24.89031,0
          67.07077,24.89021,0
          67.07005,24.89015,0
          67.06908,24.88995,0
          67.06879,24.88989,0
          67.06826,24.88978,0
          67.06795,24.8897,0
          67.06787,24.88968,0
          67.06775,24.88966,0
          67.06721,24.88955,0
          67.06669,24.88945,0
          67.06641,24.8894,0
          67.06634,24.88939,0
          67.0658,24.88929,0
          67.06481,24.88911,0
          67.06475,24.8891,0
          67.06381,24.88893,0
          67.06322,24.88884,0
          67.06301,24.88881,0
          67.06211,24.88865,0
          67.06196,24.88862,0
          67.06171,24.88858,0
          67.06163,24.88857,0
          67.06118,24.88848,0
          67.06105,24.88846,0
          67.06076,24.88841,0
          67.06016,24.8883,0
          67.05999,24.88828,0
          67.05956,24.88823,0
          67.05941,24.88805,0
          67.05934,24.88796,0
          67.05902,24.88751,0
          67.05896,24.88744,0
          67.05848,24.88684,0
          67.05823,24.88652,0
          67.05798,24.88621,0
          67.05778,24.88597,0
          67.05769,24.88585,0
          67.05751,24.88561,0
          67.05733,24.8854,0
          67.05715,24.88521,0
          67.05711,24.88518,0
          67.05689,24.88501,0
          67.05684,24.88497,0
          67.05677,24.88492,0
          67.05669,24.88487,0
          67.05666,24.88485,0
          67.05645,24.88474,0
          67.05634,24.88468,0
          67.0561,24.88456,0
          67.056,24.8845,0
          67.05583,24.88441,0
          67.05554,24.88424,0
          67.05484,24.88381,0
          67.05467,24.88371,0
          67.05402,24.8833,0
          67.05386,24.8832,0
          67.05369,24.8831,0
          67.05358,24.88302,0
          67.05318,24.88277,0
          67.05299,24.88266,0
          67.0528,24.88254,0
          67.05276,24.88251,0
          67.05234,24.88226,0
          67.05193,24.88201,0
          67.05151,24.88175,0
          67.05111,24.8815,0
          67.05069,24.88125,0
          67.05027,24.881,0
          67.04986,24.88076,0
          67.04944,24.8805,0
          67.04901,24.88023,0
          67.04859,24.88002,0
          67.04842,24.87991,0
          67.04809,24.87968,0
          67.04804,24.87966,0
          67.04772,24.87945,0
          67.04739,24.87925,0
          67.04722,24.87916,0
          67.04711,24.87909,0
          67.04699,24.87903,0
          67.04694,24.879,0
          67.04682,24.87894,0
          67.04679,24.87892,0
          67.04648,24.87876,0
          67.04592,24.87841,0
          67.0455,24.87816,0
          67.04528,24.87802,0
          67.04465,24.87764,0
          67.04454,24.87756,0
          67.04438,24.87744,0
          67.04432,24.87739,0
          67.04429,24.87736,0
          67.0442,24.87724,0
          67.04421,24.87722,0
          67.04421,24.8772,0
          67.04421,24.87718,0
          67.04422,24.87716,0
          67.04421,24.87713,0
          67.04421,24.87711,0
          67.04421,24.8771,0
          67.0442,24.87705,0
          67.04419,24.87703,0
          67.04419,24.87701,0
          67.04418,24.877,0
          67.04417,24.87698,0
          67.04416,24.87696,0
          67.04415,24.87694,0
          67.04413,24.87692,0
          67.04412,24.8769,0
          67.04409,24.87687,0
          67.04406,24.87685,0
          67.04403,24.87683,0
          67.044,24.87681,0
          67.04397,24.87679,0
          67.04392,24.87677,0
          67.04388,24.87675,0
          67.04385,24.87675,0
          67.04383,24.87674,0
          67.04381,24.87674,0
          67.04379,24.87674,0
          67.04377,24.87673,0
          67.04374,24.87673,0
          67.04369,24.87674,0
          67.04368,24.87674,0
          67.04366,24.87674,0
          67.04364,24.87674,0
          67.04362,24.87674,0
          67.0436,24.87675,0
          67.04358,24.87675,0
          67.04356,24.87676,0
          67.04354,24.87677,0
          67.04352,24.87678,0
          67.0435,24.87678,0
          67.04348,24.87679,0
          67.04347,24.8768,0
          67.04345,24.87681,0
          67.04343,24.87682,0
          67.04342,24.87684,0
          67.0434,24.87684,0
          67.04339,24.87685,0
          67.04338,24.87686,0
          67.04337,24.87687,0
          67.04336,24.87688,0
          67.04335,24.87689,0
          67.04334,24.8769,0
          67.04333,24.87691,0
          67.04327,24.87695,0
          67.04316,24.877,0
          67.04277,24.877,0
          67.04276,24.877,0
          67.04255,24.877,0
          67.04215,24.87702,0
          67.04213,24.87702,0
          67.04205,24.87703,0
          67.04097,24.87705,0
          67.04081,24.87704,0
          67.04054,24.87704,0
          67.04043,24.87703,0
          67.03967,24.87704,0
          67.0396,24.87704,0
          67.03888,24.87706,0
          67.03865,24.87706,0
          67.03853,24.87705,0
          67.03818,24.87703,0
          67.03804,24.87679,0
          67.03791,24.8765,0
          67.03771,24.87607,0
          67.03748,24.87557,0
          67.03741,24.87543,0
          67.03717,24.87491,0
          67.03702,24.87458,0
          67.03648,24.87342,0
          67.03638,24.87327,0
        </coordinates>
      </LineString>
    </Placemark>
  </Document>
</kml>
