<?xml version="1.0" encoding="UTF-8"?>
<kml xmlns="http://www.opengis.net/kml/2.2">
  <Document>
    <name>Untitled layer</name>
    <Style id="line-FF5252-5000-normal">
      <LineStyle>
        <color>ff5252ff</color>
        <width>5</width>
      </LineStyle>
    </Style>
    <Style id="line-FF5252-5000-highlight">
      <LineStyle>
        <color>ff5252ff</color>
        <width>7.5</width>
      </LineStyle>
    </Style>
    <StyleMap id="line-FF5252-5000">
      <Pair>
        <key>normal</key>
        <styleUrl>#line-FF5252-5000-normal</styleUrl>
      </Pair>
      <Pair>
        <key>highlight</key>
        <styleUrl>#line-FF5252-5000-highlight</styleUrl>
      </Pair>
    </StyleMap>
    <Placemark>
      <name>EV4 (Bahria Town to Ayesha Manzil)</name>
      <description><![CDATA[description: <br>Route: <br>Direction: ]]></description>
      <styleUrl>#line-FF5252-5000</styleUrl>
      <ExtendedData>
        <Data name="description">
          <value/>
        </Data>
        <Data name="Route">
          <value/>
        </Data>
        <Data name="Direction">
          <value/>
        </Data>
      </ExtendedData>
      <LineString>
        <tessellate>1</tessellate>
        <coordinates>
          67.30533,25.07122,0
          67.30528,25.0713,0
          67.30538,25.07135,0
          67.3057,25.0709,0
          67.30577,25.0708,0
          67.30582,25.07076,0
          67.30622,25.07032,0
          67.30639,25.07014,0
          67.30644,25.07006,0
          67.30653,25.06993,0
          67.30654,25.0699,0
          67.30665,25.06967,0
          67.30687,25.06928,0
          67.30845,25.06922,0
          67.30885,25.06921,0
          67.30905,25.0692,0
          67.30984,25.06918,0
          67.30995,25.06917,0
          67.31024,25.06917,0
          67.31084,25.06916,0
          67.31123,25.06915,0
          67.31203,25.06914,0
          67.31222,25.06914,0
          67.31282,25.06913,0
          67.31302,25.06913,0
          67.31342,25.06912,0
          67.31361,25.06912,0
          67.31378,25.06911,0
          67.31401,25.0691,0
          67.31421,25.06909,0
          67.31441,25.06908,0
          67.31461,25.06906,0
          67.315,25.06904,0
          67.3152,25.06903,0
          67.3156,25.069,0
          67.31579,25.06899,0
          67.31599,25.06898,0
          67.31619,25.06897,0
          67.31639,25.06896,0
          67.31655,25.06895,0
          67.31659,25.06895,0
          67.3168,25.06894,0
          67.3169,25.06896,0
          67.31698,25.069,0
          67.31702,25.06905,0
          67.31705,25.06908,0
          67.31707,25.0691,0
          67.3171,25.06912,0
          67.31713,25.06914,0
          67.31716,25.06915,0
          67.31719,25.06917,0
          67.31722,25.06917,0
          67.31725,25.06917,0
          67.31731,25.06917,0
          67.31734,25.06917,0
          67.31738,25.06916,0
          67.31744,25.06914,0
          67.31747,25.06913,0
          67.31749,25.06912,0
          67.31752,25.0691,0
          67.31754,25.06908,0
          67.31756,25.06906,0
          67.31758,25.06903,0
          67.3176,25.06897,0
          67.3176,25.06895,0
          67.31761,25.06892,0
          67.31761,25.06888,0
          67.31761,25.06885,0
          67.31761,25.06882,0
          67.3176,25.06879,0
          67.31759,25.06876,0
          67.31757,25.06874,0
          67.31756,25.06871,0
          67.31754,25.06869,0
          67.31752,25.06867,0
          67.31749,25.06865,0
          67.31747,25.06863,0
          67.31744,25.06862,0
          67.31742,25.06861,0
          67.31739,25.06859,0
          67.31734,25.06846,0
          67.31732,25.06819,0
          67.31731,25.06788,0
          67.31722,25.06519,0
          67.3172,25.06485,0
          67.31721,25.06423,0
          67.31734,25.06345,0
          67.31755,25.06269,0
          67.31761,25.06252,0
          67.31781,25.06202,0
          67.31801,25.06145,0
          67.31812,25.06095,0
          67.31815,25.06075,0
          67.31825,25.06014,0
          67.31825,25.06003,0
          67.31826,25.0595,0
          67.31824,25.05908,0
          67.31808,25.05812,0
          67.31796,25.05772,0
          67.31794,25.05766,0
          67.31783,25.05738,0
          67.31777,25.05721,0
          67.31772,25.05708,0
          67.31769,25.05698,0
          67.31766,25.05686,0
          67.31766,25.05675,0
          67.3177,25.05649,0
          67.31781,25.05639,0
          67.3179,25.05628,0
          67.31796,25.05616,0
          67.31801,25.05602,0
          67.31803,25.05589,0
          67.31802,25.05575,0
          67.31799,25.05561,0
          67.31794,25.05548,0
          67.31791,25.05543,0
          67.31788,25.05537,0
          67.31784,25.05532,0
          67.3178,25.05527,0
          67.31775,25.05523,0
          67.3177,25.05519,0
          67.31765,25.05515,0
          67.31759,25.05511,0
          67.31741,25.05503,0
          67.31722,25.05498,0
          67.31702,25.05497,0
          67.31682,25.055,0
          67.3167,25.05495,0
          67.3166,25.0549,0
          67.31653,25.05487,0
          67.31642,25.05477,0
          67.31549,25.05389,0
          67.31459,25.05318,0
          67.3138,25.05256,0
          67.31328,25.05214,0
          67.31254,25.05154,0
          67.31256,25.05132,0
          67.31221,25.05102,0
          67.31204,25.05078,0
          67.31194,25.05058,0
          67.3119,25.0504,0
          67.31189,25.05026,0
          67.31189,25.05019,0
          67.31191,25.04994,0
          67.31192,25.0499,0
          67.31197,25.04975,0
          67.31203,25.04951,0
          67.31207,25.04907,0
          67.31206,25.04894,0
          67.31205,25.0488,0
          67.31203,25.04868,0
          67.31201,25.0485,0
          67.31196,25.04834,0
          67.31171,25.04841,0
          67.31156,25.0481,0
          67.31136,25.04779,0
          67.31116,25.04756,0
          67.31109,25.0475,0
          67.31088,25.04731,0
          67.31063,25.04717,0
          67.31056,25.04713,0
          67.31023,25.04699,0
          67.30987,25.04688,0
          67.3096,25.04682,0
          67.3094,25.04669,0
          67.3093,25.0466,0
          67.30922,25.04649,0
          67.30915,25.04638,0
          67.30912,25.04626,0
          67.3091,25.04612,0
          67.30901,25.04538,0
          67.30901,25.04535,0
          67.30899,25.04517,0
          67.30891,25.04453,0
          67.30889,25.04436,0
          67.30884,25.04392,0
          67.30881,25.04364,0
          67.30882,25.04346,0
          67.30882,25.04338,0
          67.30882,25.04328,0
          67.30886,25.04302,0
          67.30886,25.043,0
          67.30891,25.04276,0
          67.30892,25.04275,0
          67.30894,25.04267,0
          67.30897,25.04257,0
          67.30903,25.0424,0
          67.30906,25.04233,0
          67.30917,25.04207,0
          67.3092,25.042,0
          67.3093,25.04183,0
          67.30943,25.0416,0
          67.3098,25.04115,0
          67.30986,25.0411,0
          67.31013,25.04087,0
          67.31016,25.04084,0
          67.31057,25.04054,0
          67.31122,25.04023,0
          67.31187,25.04002,0
          67.31232,25.03995,0
          67.31255,25.0399,0
          67.31267,25.03988,0
          67.31271,25.03988,0
          67.31282,25.03987,0
          67.31281,25.03973,0
          67.31279,25.03967,0
          67.31277,25.03962,0
          67.31274,25.03956,0
          67.3127,25.03952,0
          67.31266,25.03946,0
          67.31257,25.03938,0
          67.31251,25.03933,0
          67.31236,25.0392,0
          67.31212,25.03896,0
          67.31166,25.03843,0
          67.31152,25.03825,0
          67.31134,25.038,0
          67.31123,25.03784,0
          67.31091,25.03723,0
          67.31072,25.0368,0
          67.31054,25.03631,0
          67.31046,25.03605,0
          67.3104,25.03585,0
          67.31031,25.03541,0
          67.31028,25.03527,0
          67.31025,25.03478,0
          67.31022,25.0342,0
          67.3102,25.0336,0
          67.31016,25.03316,0
          67.31009,25.03284,0
          67.31004,25.03257,0
          67.30994,25.03222,0
          67.30983,25.03189,0
          67.30977,25.03171,0
          67.30977,25.0317,0
          67.30977,25.03168,0
          67.30977,25.03166,0
          67.30977,25.03165,0
          67.30977,25.03163,0
          67.30977,25.03161,0
          67.30977,25.03159,0
          67.30978,25.03156,0
          67.30979,25.03146,0
          67.3101,25.03123,0
          67.31014,25.0312,0
          67.31023,25.03111,0
          67.31032,25.03102,0
          67.31036,25.03098,0
          67.31037,25.03097,0
          67.31049,25.03084,0
          67.31052,25.0308,0
          67.31059,25.03069,0
          67.31059,25.03068,0
          67.31067,25.03057,0
          67.31077,25.03035,0
          67.31082,25.03019,0
          67.31083,25.03019,0
          67.31084,25.03013,0
          67.31087,25.03002,0
          67.31088,25.02998,0
          67.31091,25.02987,0
          67.31094,25.02969,0
          67.31094,25.02966,0
          67.31092,25.02947,0
          67.31091,25.02945,0
          67.31089,25.02923,0
          67.31087,25.02917,0
          67.31085,25.02908,0
          67.31078,25.02887,0
          67.31068,25.02868,0
          67.31067,25.02868,0
          67.31055,25.02851,0
          67.31043,25.02837,0
          67.31039,25.02833,0
          67.31006,25.02813,0
          67.3098,25.02801,0
          67.30954,25.02797,0
          67.30921,25.02795,0
          67.309,25.02798,0
          67.30895,25.02799,0
          67.30872,25.02806,0
          67.30845,25.02818,0
          67.30826,25.02828,0
          67.30811,25.02836,0
          67.30773,25.0286,0
          67.30757,25.02869,0
          67.30703,25.02899,0
          67.30676,25.02896,0
          67.30661,25.02894,0
          67.3065,25.02891,0
          67.30632,25.02879,0
          67.30631,25.02878,0
          67.3059,25.02845,0
          67.30554,25.02808,0
          67.30524,25.02777,0
          67.30497,25.02745,0
          67.3045,25.02684,0
          67.30431,25.02652,0
          67.30418,25.02625,0
          67.30409,25.02606,0
          67.3038,25.02533,0
          67.30367,25.0249,0
          67.30349,25.02416,0
          67.30345,25.02376,0
          67.30342,25.02278,0
          67.30348,25.02246,0
          67.30367,25.02219,0
          67.30381,25.02217,0
          67.30394,25.02211,0
          67.30405,25.02203,0
          67.30413,25.02194,0
          67.30415,25.02193,0
          67.30423,25.02182,0
          67.30429,25.0217,0
          67.30432,25.02158,0
          67.30433,25.02145,0
          67.30466,25.02127,0
          67.30534,25.02098,0
          67.30612,25.02072,0
          67.30695,25.02051,0
          67.3073,25.02045,0
          67.30765,25.02041,0
          67.30791,25.02041,0
          67.30817,25.02046,0
          67.30833,25.02055,0
          67.30849,25.02067,0
          67.30869,25.02085,0
          67.30873,25.02103,0
          67.30876,25.02116,0
          67.30881,25.02135,0
          67.30888,25.02158,0
          67.30888,25.02159,0
          67.30896,25.02174,0
          67.30906,25.02197,0
          67.30921,25.02223,0
          67.30924,25.02228,0
          67.30951,25.02269,0
          67.30951,25.0227,0
          67.30963,25.02284,0
          67.30975,25.02298,0
          67.30977,25.02299,0
          67.30989,25.02311,0
          67.31006,25.02325,0
          67.31032,25.02348,0
          67.31039,25.02354,0
          67.31062,25.02371,0
          67.31064,25.02372,0
          67.31091,25.02389,0
          67.31126,25.02407,0
          67.31157,25.0242,0
          67.31176,25.02426,0
          67.31205,25.02436,0
          67.31258,25.02449,0
          67.31271,25.02452,0
          67.31284,25.02455,0
          67.31312,25.02456,0
          67.3133,25.02454,0
          67.3134,25.02454,0
          67.3137,25.02445,0
          67.31386,25.02438,0
          67.31422,25.02424,0
          67.31439,25.02413,0
          67.31459,25.024,0
          67.31477,25.02381,0
          67.31491,25.02364,0
          67.31501,25.02347,0
          67.31509,25.02324,0
          67.31517,25.02303,0
          67.31522,25.02278,0
          67.31521,25.02255,0
          67.31518,25.02235,0
          67.31517,25.02231,0
          67.31508,25.02194,0
          67.31504,25.02178,0
          67.315,25.02162,0
          67.31493,25.02145,0
          67.31491,25.0214,0
          67.31484,25.02125,0
          67.31449,25.02063,0
          67.31448,25.02061,0
          67.31443,25.02055,0
          67.31423,25.02028,0
          67.3139,25.01993,0
          67.31377,25.01983,0
          67.31363,25.0197,0
          67.31352,25.01961,0
          67.31317,25.01935,0
          67.3131,25.0193,0
          67.31284,25.01916,0
          67.31275,25.01911,0
          67.3125,25.01897,0
          67.3124,25.01891,0
          67.31181,25.01871,0
          67.31141,25.0186,0
          67.31139,25.0186,0
          67.3109,25.01854,0
          67.3108,25.01855,0
          67.31037,25.01859,0
          67.31021,25.01854,0
          67.30998,25.0185,0
          67.30987,25.01846,0
          67.30974,25.0184,0
          67.30963,25.01835,0
          67.30957,25.0183,0
          67.30952,25.01823,0
          67.30941,25.01805,0
          67.30935,25.01797,0
          67.30934,25.01795,0
          67.30932,25.01795,0
          67.30923,25.01773,0
          67.30915,25.01748,0
          67.3091,25.01727,0
          67.30906,25.01708,0
          67.30904,25.017,0
          67.30897,25.01671,0
          67.30894,25.01658,0
          67.30892,25.01632,0
          67.3089,25.01618,0
          67.3089,25.01587,0
          67.3089,25.01581,0
          67.30888,25.0153,0
          67.3089,25.01501,0
          67.30891,25.0147,0
          67.30897,25.0143,0
          67.30912,25.01349,0
          67.30919,25.01321,0
          67.30951,25.01237,0
          67.30996,25.01128,0
          67.31006,25.01103,0
          67.31024,25.01061,0
          67.31031,25.01044,0
          67.31039,25.01028,0
          67.31089,25.0091,0
          67.31141,25.00792,0
          67.31171,25.00721,0
          67.31194,25.0067,0
          67.31239,25.00557,0
          67.3127,25.00479,0
          67.31279,25.00455,0
          67.31329,25.00329,0
          67.3136,25.0025,0
          67.31388,25.00182,0
          67.31395,25.00165,0
          67.31416,25.00115,0
          67.3145,25.00031,0
          67.31482,24.99953,0
          67.31496,24.99924,0
          67.31514,24.99874,0
          67.31516,24.9987,0
          67.31533,24.99835,0
          67.31555,24.99808,0
          67.31596,24.99768,0
          67.31631,24.99761,0
          67.3166,24.99745,0
          67.3168,24.99722,0
          67.31694,24.99694,0
          67.31703,24.99663,0
          67.31703,24.99654,0
          67.31703,24.99635,0
          67.31698,24.99609,0
          67.31697,24.99607,0
          67.31679,24.99585,0
          67.3168,24.99556,0
          67.31681,24.99533,0
          67.31684,24.99512,0
          67.31702,24.9946,0
          67.31736,24.99376,0
          67.31751,24.99342,0
          67.3176,24.99323,0
          67.31789,24.99314,0
          67.31817,24.99308,0
          67.31835,24.99309,0
          67.31857,24.99311,0
          67.3186,24.99312,0
          67.31878,24.99317,0
          67.31904,24.99328,0
          67.31911,24.9933,0
          67.31918,24.99332,0
          67.31941,24.99339,0
          67.31966,24.99347,0
          67.31968,24.99348,0
          67.31975,24.99349,0
          67.31981,24.9935,0
          67.31985,24.9935,0
          67.31987,24.9935,0
          67.31989,24.99349,0
          67.31991,24.99348,0
          67.31995,24.99346,0
          67.32,24.99343,0
          67.32003,24.99341,0
          67.32003,24.9934,0
          67.32009,24.99333,0
          67.32011,24.99329,0
          67.32015,24.99321,0
          67.32023,24.99309,0
          67.32027,24.99303,0
          67.3203,24.99298,0
          67.32032,24.99293,0
          67.32034,24.99285,0
          67.32036,24.99274,0
          67.32035,24.99268,0
          67.32034,24.99263,0
          67.32027,24.99245,0
          67.32024,24.9924,0
          67.3202,24.99235,0
          67.32014,24.99232,0
          67.32002,24.99226,0
          67.31989,24.99221,0
          67.31976,24.99217,0
          67.31973,24.99216,0
          67.31961,24.99211,0
          67.3192,24.99198,0
          67.31884,24.99186,0
          67.31833,24.99168,0
          67.31784,24.9915,0
          67.31744,24.99136,0
          67.31721,24.99128,0
          67.3165,24.99103,0
          67.31639,24.99099,0
          67.3158,24.99079,0
          67.31576,24.99078,0
          67.31549,24.99072,0
          67.31534,24.99071,0
          67.31514,24.9907,0
          67.31509,24.99069,0
          67.31475,24.99075,0
          67.31454,24.99078,0
          67.31439,24.99079,0
          67.31435,24.9908,0
          67.31416,24.99082,0
          67.31406,24.99082,0
          67.31379,24.99082,0
          67.31358,24.9908,0
          67.31335,24.99075,0
          67.31322,24.99071,0
          67.31318,24.9907,0
          67.31306,24.99066,0
          67.31294,24.99064,0
          67.31289,24.99065,0
          67.31283,24.99066,0
          67.31235,24.99049,0
          67.31027,24.98974,0
          67.30945,24.98947,0
          67.30931,24.98943,0
          67.30774,24.98888,0
          67.30742,24.98876,0
          67.30679,24.98854,0
          67.3067,24.98852,0
          67.30547,24.98809,0
          67.30231,24.987,0
          67.30157,24.98675,0
          67.29453,24.98429,0
          67.29435,24.98423,0
          67.29416,24.98416,0
          67.29361,24.98397,0
          67.29342,24.9839,0
          67.29324,24.98384,0
          67.2877,24.98191,0
          67.28414,24.98068,0
          67.28386,24.98058,0
          67.28183,24.97989,0
          67.28173,24.97985,0
          67.28035,24.97936,0
          67.27997,24.97922,0
          67.27949,24.97906,0
          67.27895,24.97887,0
          67.27786,24.97849,0
          67.27658,24.97804,0
          67.27632,24.97795,0
          67.27559,24.97771,0
          67.2748,24.97743,0
          67.27437,24.97727,0
          67.27295,24.97677,0
          67.27246,24.97658,0
          67.27198,24.97642,0
          67.27148,24.97628,0
          67.27113,24.97619,0
          67.27107,24.97618,0
          67.27061,24.97608,0
          67.27013,24.97599,0
          67.26971,24.97594,0
          67.26919,24.97588,0
          67.26917,24.97588,0
          67.26857,24.97587,0
          67.26827,24.97588,0
          67.26794,24.97588,0
          67.26731,24.9759,0
          67.26637,24.97591,0
          67.26608,24.97592,0
          67.26399,24.976,0
          67.26296,24.97605,0
          67.26193,24.97607,0
          67.25663,24.97623,0
          67.25626,24.97624,0
          67.25573,24.97626,0
          67.25541,24.97627,0
          67.25475,24.97632,0
          67.25403,24.97639,0
          67.2535,24.97648,0
          67.25292,24.97659,0
          67.25239,24.9767,0
          67.25191,24.9768,0
          67.25128,24.97697,0
          67.25076,24.97711,0
          67.24941,24.97747,0
          67.24843,24.97775,0
          67.24654,24.97829,0
          67.2439,24.97898,0
          67.24276,24.97928,0
          67.2413,24.97967,0
          67.24018,24.98,0
          67.23911,24.98029,0
          67.23828,24.98052,0
          67.23569,24.98121,0
          67.23529,24.98132,0
          67.2344,24.98154,0
          67.23415,24.9816,0
          67.23385,24.9816,0
          67.23324,24.98165,0
          67.23256,24.98169,0
          67.23223,24.9817,0
          67.231,24.98179,0
          67.23049,24.98179,0
          67.23008,24.98181,0
          67.22999,24.98182,0
          67.22979,24.98185,0
          67.2294,24.98189,0
          67.22842,24.98202,0
          67.22811,24.98206,0
          67.22763,24.98213,0
          67.22744,24.98216,0
          67.22724,24.98219,0
          67.22705,24.98222,0
          67.22656,24.98229,0
          67.22593,24.98242,0
          67.22568,24.98246,0
          67.22558,24.98247,0
          67.22522,24.98258,0
          67.22459,24.98275,0
          67.22427,24.98281,0
          67.22409,24.98291,0
          67.22381,24.98303,0
          67.22333,24.9832,0
          67.21947,24.98376,0
          67.21883,24.98386,0
          67.2185,24.98392,0
          67.2183,24.98396,0
          67.21784,24.98402,0
          67.21706,24.98413,0
          67.21632,24.98423,0
          67.21579,24.98436,0
          67.21562,24.9844,0
          67.21489,24.98454,0
          67.21356,24.98476,0
          67.21344,24.98478,0
          67.21297,24.98485,0
          67.21197,24.98498,0
          67.21158,24.98504,0
          67.20934,24.98541,0
          67.20855,24.98552,0
          67.20827,24.98556,0
          67.20745,24.98567,0
          67.20677,24.98577,0
          67.20529,24.98599,0
          67.20451,24.9861,0
          67.20442,24.98611,0
          67.20413,24.98616,0
          67.20402,24.98617,0
          67.20198,24.98646,0
          67.20046,24.98667,0
          67.19699,24.98717,0
          67.19672,24.9872,0
          67.19635,24.98726,0
          67.19572,24.98736,0
          67.19402,24.9876,0
          67.19313,24.98774,0
          67.19302,24.98775,0
          67.19214,24.98789,0
          67.19145,24.98798,0
          67.19086,24.98807,0
          67.18933,24.98829,0
          67.18777,24.98853,0
          67.18673,24.98869,0
          67.18624,24.98878,0
          67.18524,24.98892,0
          67.18355,24.98916,0
          67.18145,24.98944,0
          67.18144,24.98944,0
          67.18081,24.98955,0
          67.18066,24.98957,0
          67.17656,24.99015,0
          67.17526,24.99037,0
          67.17504,24.9904,0
          67.17183,24.99078,0
          67.17147,24.99082,0
          67.17129,24.99083,0
          67.17085,24.99087,0
          67.17065,24.99091,0
          67.17048,24.99094,0
          67.16943,24.99113,0
          67.16748,24.99149,0
          67.16434,24.99195,0
          67.16417,24.99198,0
          67.16333,24.9921,0
          67.16266,24.99223,0
          67.16236,24.99227,0
          67.16176,24.99236,0
          67.16115,24.99245,0
          67.16057,24.99253,0
          67.16005,24.99261,0
          67.15989,24.99263,0
          67.15951,24.99268,0
          67.15874,24.99278,0
          67.15789,24.99289,0
          67.15779,24.99291,0
          67.15637,24.99312,0
          67.15485,24.99336,0
          67.15396,24.99346,0
          67.15377,24.99349,0
          67.15285,24.99364,0
          67.15215,24.99375,0
          67.15153,24.99384,0
          67.15109,24.9939,0
          67.15031,24.99402,0
          67.15005,24.99406,0
          67.14954,24.99413,0
          67.14907,24.99419,0
          67.14727,24.99446,0
          67.14563,24.99471,0
          67.14549,24.99473,0
          67.14528,24.99476,0
          67.14515,24.99479,0
          67.14474,24.99483,0
          67.14452,24.99486,0
          67.14386,24.99496,0
          67.14339,24.995,0
          67.14299,24.99502,0
          67.14256,24.99502,0
          67.14212,24.995,0
          67.1417,24.99496,0
          67.14132,24.9949,0
          67.14089,24.99482,0
          67.14083,24.9948,0
          67.14032,24.99467,0
          67.13984,24.99451,0
          67.13972,24.99446,0
          67.1394,24.99433,0
          67.13915,24.99421,0
          67.13888,24.99408,0
          67.13844,24.99382,0
          67.13801,24.99354,0
          67.13775,24.99333,0
          67.13747,24.99311,0
          67.13703,24.99271,0
          67.13649,24.99216,0
          67.13629,24.99194,0
          67.13502,24.99061,0
          67.13414,24.9897,0
          67.13366,24.9892,0
          67.13276,24.98827,0
          67.13188,24.98735,0
          67.13181,24.98728,0
          67.13131,24.98677,0
          67.12985,24.98524,0
          67.12959,24.98496,0
          67.12822,24.98354,0
          67.12725,24.98254,0
          67.12687,24.98216,0
          67.12453,24.97973,0
          67.12315,24.97827,0
          67.12304,24.97815,0
          67.12206,24.97713,0
          67.12197,24.97703,0
          67.12157,24.97663,0
          67.12155,24.97661,0
          67.12146,24.97652,0
          67.12111,24.97616,0
          67.12088,24.97591,0
          67.12064,24.97566,0
          67.1199,24.97487,0
          67.11939,24.97435,0
          67.11888,24.97383,0
          67.11786,24.97277,0
          67.11768,24.97258,0
          67.11679,24.97162,0
          67.11635,24.97113,0
          67.11611,24.97088,0
          67.11599,24.97072,0
          67.11558,24.97025,0
          67.11536,24.97002,0
          67.1152,24.96987,0
          67.11468,24.96938,0
          67.11437,24.96908,0
          67.11422,24.96893,0
          67.11416,24.96886,0
          67.11408,24.96878,0
          67.11265,24.96736,0
          67.11248,24.96718,0
          67.1121,24.96681,0
          67.11206,24.96678,0
          67.11203,24.96675,0
          67.11085,24.96551,0
          67.11072,24.96539,0
          67.11066,24.96532,0
          67.10875,24.96336,0
          67.10803,24.96263,0
          67.10781,24.96242,0
          67.1075,24.96214,0
          67.1067,24.96143,0
          67.1054,24.96038,0
          67.10531,24.96031,0
          67.10335,24.95873,0
          67.10128,24.95709,0
          67.10029,24.95628,0
          67.09932,24.95554,0
          67.09877,24.95509,0
          67.09785,24.95434,0
          67.09754,24.9541,0
          67.09589,24.95278,0
          67.09439,24.95155,0
          67.09415,24.95138,0
          67.09397,24.95116,0
          67.0939,24.95108,0
          67.09381,24.95095,0
          67.09377,24.95091,0
          67.09369,24.95079,0
          67.09363,24.95066,0
          67.0933,24.95041,0
          67.09304,24.95032,0
          67.09267,24.95015,0
          67.09246,24.95003,0
          67.0911,24.94898,0
          67.09071,24.94868,0
          67.09058,24.94856,0
          67.09009,24.94814,0
          67.09006,24.94811,0
          67.08976,24.94786,0
          67.08973,24.94784,0
          67.08966,24.94778,0
          67.08917,24.94738,0
          67.08805,24.94645,0
          67.08795,24.94636,0
          67.08763,24.94611,0
          67.08757,24.94606,0
          67.08748,24.94599,0
          67.08733,24.94587,0
          67.08718,24.94575,0
          67.08674,24.94539,0
          67.08668,24.94535,0
          67.08659,24.94528,0
          67.08615,24.94493,0
          67.08556,24.9444,0
          67.08519,24.94408,0
          67.08498,24.94388,0
          67.08471,24.94362,0
          67.08444,24.9434,0
          67.08429,24.94328,0
          67.08385,24.94291,0
          67.08311,24.94232,0
          67.08295,24.94221,0
          67.08268,24.94204,0
          67.08233,24.94181,0
          67.08186,24.94145,0
          67.08162,24.94125,0
          67.08147,24.94114,0
          67.08116,24.9409,0
          67.08102,24.94078,0
          67.08063,24.94047,0
          67.08033,24.94023,0
          67.0803,24.94021,0
          67.08018,24.94012,0
          67.08003,24.94,0
          67.07929,24.9394,0
          67.07914,24.93928,0
          67.07899,24.93916,0
          67.07839,24.93868,0
          67.07755,24.93798,0
          67.07736,24.93783,0
          67.07722,24.93771,0
          67.07709,24.9376,0
          67.07694,24.93748,0
          67.0767,24.93728,0
          67.07665,24.93724,0
          67.07636,24.937,0
          67.07628,24.93694,0
          67.07621,24.93688,0
          67.07607,24.93677,0
          67.07593,24.93666,0
          67.07576,24.93653,0
          67.07569,24.93648,0
          67.07546,24.93629,0
          67.07522,24.93612,0
          67.07515,24.93607,0
          67.07507,24.936,0
          67.07496,24.93592,0
          67.07491,24.93589,0
          67.07489,24.93587,0
          67.07476,24.93578,0
          67.07476,24.93577,0
          67.07445,24.93554,0
          67.07399,24.93519,0
          67.07367,24.93496,0
          67.0736,24.9349,0
          67.07355,24.93484,0
          67.07351,24.93481,0
          67.07337,24.93468,0
          67.07312,24.93448,0
          67.0731,24.93447,0
          67.07267,24.93412,0
          67.07222,24.93377,0
          67.07201,24.93361,0
          67.07147,24.93318,0
          67.07139,24.93312,0
          67.07132,24.93306,0
          67.0707,24.93256,0
          67.07023,24.9322,0
          67.07008,24.93201,0
          67.07006,24.93199,0
          67.0696,24.93164,0
          67.06916,24.93129,0
          67.06901,24.93117,0
          67.06885,24.93104,0
          67.06841,24.93068,0
          67.06782,24.9302,0
          67.06743,24.92989,0
          67.06706,24.9296,0
          67.06672,24.92934,0
          67.06671,24.92932,0
          67.0667,24.92929,0
          67.0667,24.92928,0
          67.06668,24.92925,0
          67.06664,24.92922,0
          67.06629,24.92891,0
          67.06589,24.92857,0
          67.06518,24.92799,0
          67.06472,24.92765,0
          67.06462,24.92758,0
          67.06442,24.92744,0
          67.06441,24.92737,0
          67.0644,24.92735,0
          67.06439,24.92733,0
          67.06438,24.92731,0
          67.06436,24.92729,0
          67.06435,24.92727,0
          67.06433,24.92725,0
          67.06431,24.92724,0
          67.06429,24.92722,0
          67.06427,24.92721,0
        </coordinates>
      </LineString>
    </Placemark>
  </Document>
</kml>
