<?xml version="1.0" encoding="UTF-8"?>
<kml xmlns="http://www.opengis.net/kml/2.2">
  <Document>
    <name>Untitled layer</name>
    <Style id="line-000000-1200-normal">
      <LineStyle>
        <color>ff000000</color>
        <width>1.2</width>
      </LineStyle>
    </Style>
    <Style id="line-000000-1200-highlight">
      <LineStyle>
        <color>ff000000</color>
        <width>1.8</width>
      </LineStyle>
    </Style>
    <StyleMap id="line-000000-1200">
      <Pair>
        <key>normal</key>
        <styleUrl>#line-000000-1200-normal</styleUrl>
      </Pair>
      <Pair>
        <key>highlight</key>
        <styleUrl>#line-000000-1200-highlight</styleUrl>
      </Pair>
    </StyleMap>
    <Placemark>
      <name>EV5 (DHA City to Sohrab Goth)</name>
      <description><![CDATA[description: <br>Route: <br>Direction: ]]></description>
      <styleUrl>#line-000000-1200</styleUrl>
      <ExtendedData>
        <Data name="description">
          <value/>
        </Data>
        <Data name="Route">
          <value/>
        </Data>
        <Data name="Direction">
          <value/>
        </Data>
      </ExtendedData>
      <LineString>
        <tessellate>1</tessellate>
        <coordinates>
          67.44665,25.03787,0
          67.44648,25.03862,0
          67.44641,25.03897,0
          67.44638,25.03915,0
          67.44629,25.03952,0
          67.44612,25.04002,0
          67.44597,25.04048,0
          67.44593,25.04069,0
          67.44593,25.0408,0
          67.44595,25.0409,0
          67.44585,25.04102,0
          67.44574,25.04115,0
          67.44561,25.04126,0
          67.44543,25.04139,0
          67.44535,25.04144,0
          67.44523,25.0415,0
          67.44505,25.04158,0
          67.44486,25.04164,0
          67.44477,25.04166,0
          67.44466,25.04169,0
          67.44445,25.04172,0
          67.44427,25.04173,0
          67.44402,25.04172,0
          67.4437,25.04174,0
          67.44176,25.04129,0
          67.44117,25.04113,0
          67.44102,25.04108,0
          67.44068,25.04097,0
          67.44022,25.0408,0
          67.43978,25.04061,0
          67.43933,25.0404,0
          67.4388,25.0401,0
          67.43689,25.03896,0
          67.43634,25.03864,0
          67.43523,25.03796,0
          67.4342,25.03741,0
          67.43367,25.03719,0
          67.43277,25.03686,0
          67.43178,25.03662,0
          67.43155,25.03656,0
          67.43126,25.03649,0
          67.43105,25.03644,0
          67.43007,25.0362,0
          67.42849,25.03583,0
          67.42835,25.03579,0
          67.42607,25.03524,0
          67.42512,25.03501,0
          67.42496,25.03497,0
          67.42437,25.03483,0
          67.42426,25.0348,0
          67.42321,25.03453,0
          67.42107,25.034,0
          67.42091,25.03396,0
          67.42088,25.03395,0
          67.42002,25.03374,0
          67.41848,25.03335,0
          67.41839,25.03332,0
          67.41663,25.03288,0
          67.41487,25.03244,0
          67.41378,25.03217,0
          67.41263,25.03188,0
          67.41086,25.03143,0
          67.40945,25.03108,0
          67.40789,25.03069,0
          67.40684,25.03042,0
          67.40653,25.03034,0
          67.40356,25.02959,0
          67.4034,25.02955,0
          67.40234,25.02928,0
          67.40112,25.02897,0
          67.39949,25.02855,0
          67.39873,25.02836,0
          67.39765,25.02809,0
          67.39429,25.02725,0
          67.39288,25.02687,0
          67.39271,25.02683,0
          67.39227,25.02672,0
          67.39006,25.02615,0
          67.38929,25.02595,0
          67.38838,25.02573,0
          67.38654,25.02526,0
          67.38624,25.02518,0
          67.3846,25.02477,0
          67.38364,25.02451,0
          67.38131,25.02389,0
          67.38113,25.02384,0
          67.37997,25.02355,0
          67.37757,25.02295,0
          67.37685,25.02276,0
          67.37334,25.02186,0
          67.37292,25.02176,0
          67.37229,25.0216,0
          67.3719,25.02149,0
          67.3715,25.02137,0
          67.37098,25.02116,0
          67.37057,25.02097,0
          67.37049,25.02094,0
          67.37003,25.0207,0
          67.3696,25.02044,0
          67.36921,25.02018,0
          67.36882,25.0199,0
          67.36853,25.01965,0
          67.36817,25.01931,0
          67.36785,25.01899,0
          67.36772,25.01884,0
          67.36644,25.01745,0
          67.36627,25.01726,0
          67.36623,25.01721,0
          67.36596,25.01693,0
          67.36549,25.01642,0
          67.36484,25.01573,0
          67.36401,25.01484,0
          67.36292,25.01366,0
          67.36291,25.01365,0
          67.36218,25.01283,0
          67.36057,25.01111,0
          67.36034,25.01086,0
          67.35992,25.01041,0
          67.35913,25.00959,0
          67.35873,25.00915,0
          67.35829,25.00864,0
          67.35798,25.00829,0
          67.35765,25.00793,0
          67.35755,25.00783,0
          67.35728,25.00757,0
          67.35698,25.00731,0
          67.35664,25.00703,0
          67.35636,25.00678,0
          67.35616,25.0066,0
          67.35578,25.00631,0
          67.35559,25.00614,0
          67.35558,25.00613,0
          67.3554,25.00598,0
          67.35505,25.00576,0
          67.35472,25.00555,0
          67.35442,25.00538,0
          67.35411,25.00521,0
          67.35366,25.00498,0
          67.3533,25.00481,0
          67.35297,25.00468,0
          67.35257,25.00451,0
          67.35209,25.00434,0
          67.35145,25.00411,0
          67.34985,25.00354,0
          67.3493,25.00335,0
          67.34893,25.00322,0
          67.34773,25.0028,0
          67.3456,25.00206,0
          67.33998,25.00015,0
          67.33825,24.99956,0
          67.33457,24.99828,0
          67.33086,24.997,0
          67.32908,24.99639,0
          67.32751,24.99584,0
          67.32625,24.99539,0
          67.32535,24.99508,0
          67.32484,24.9949,0
          67.3239,24.99457,0
          67.3237,24.9945,0
          67.32204,24.99391,0
          67.32108,24.99357,0
          67.32013,24.99324,0
          67.31927,24.99296,0
          67.3191,24.99289,0
          67.31799,24.99249,0
          67.31779,24.99241,0
          67.3156,24.99164,0
          67.3132,24.99079,0
          67.31319,24.99079,0
          67.31302,24.99073,0
          67.31301,24.99072,0
          67.31283,24.99066,0
          67.31235,24.99049,0
          67.31027,24.98974,0
          67.30945,24.98947,0
          67.30931,24.98943,0
          67.30774,24.98888,0
          67.30742,24.98876,0
          67.30679,24.98854,0
          67.3067,24.98852,0
          67.30547,24.98809,0
          67.30231,24.987,0
          67.30157,24.98675,0
          67.29453,24.98429,0
          67.29435,24.98423,0
          67.29416,24.98416,0
          67.29361,24.98397,0
          67.29342,24.9839,0
          67.29324,24.98384,0
          67.2877,24.98191,0
          67.28414,24.98068,0
          67.28386,24.98058,0
          67.28183,24.97989,0
          67.28173,24.97985,0
          67.28035,24.97936,0
          67.27997,24.97922,0
          67.27949,24.97906,0
          67.27895,24.97887,0
          67.27786,24.97849,0
          67.27658,24.97804,0
          67.27632,24.97795,0
          67.27559,24.97771,0
          67.2748,24.97743,0
          67.27437,24.97727,0
          67.27295,24.97677,0
          67.27246,24.97658,0
          67.27198,24.97642,0
          67.27148,24.97628,0
          67.27113,24.97619,0
          67.27107,24.97618,0
          67.27061,24.97608,0
          67.27013,24.97599,0
          67.26971,24.97594,0
          67.26919,24.97588,0
          67.26917,24.97588,0
          67.26857,24.97587,0
          67.26827,24.97588,0
          67.26794,24.97588,0
          67.26731,24.9759,0
          67.26637,24.97591,0
          67.26608,24.97592,0
          67.26399,24.976,0
          67.26296,24.97605,0
          67.26193,24.97607,0
          67.25663,24.97623,0
          67.25626,24.97624,0
          67.25573,24.97626,0
          67.25541,24.97627,0
          67.25475,24.97632,0
          67.25403,24.97639,0
          67.2535,24.97648,0
          67.25292,24.97659,0
          67.25239,24.9767,0
          67.25191,24.9768,0
          67.25128,24.97697,0
          67.25076,24.97711,0
          67.24941,24.97747,0
          67.24843,24.97775,0
          67.24654,24.97829,0
          67.2439,24.97898,0
          67.24276,24.97928,0
          67.2413,24.97967,0
          67.24018,24.98,0
          67.23911,24.98029,0
          67.23828,24.98052,0
          67.23569,24.98121,0
          67.23529,24.98132,0
          67.2344,24.98154,0
          67.23415,24.9816,0
          67.23385,24.9816,0
          67.23324,24.98165,0
          67.23256,24.98169,0
          67.23223,24.9817,0
          67.231,24.98179,0
          67.23049,24.98179,0
          67.23008,24.98181,0
          67.22979,24.98185,0
          67.2294,24.98189,0
          67.22842,24.98202,0
          67.22811,24.98206,0
          67.22744,24.98216,0
          67.22724,24.98219,0
          67.22705,24.98222,0
          67.22656,24.98229,0
          67.22593,24.98242,0
          67.22568,24.98246,0
          67.22558,24.98247,0
          67.22522,24.98258,0
          67.22459,24.98275,0
          67.22427,24.98281,0
          67.22409,24.98291,0
          67.22381,24.98303,0
          67.22333,24.9832,0
          67.21947,24.98376,0
          67.21883,24.98386,0
          67.2185,24.98392,0
          67.2183,24.98396,0
          67.21784,24.98402,0
          67.21706,24.98413,0
          67.21632,24.98423,0
          67.21579,24.98436,0
          67.21562,24.9844,0
          67.21489,24.98454,0
          67.21356,24.98476,0
          67.21344,24.98478,0
          67.21297,24.98485,0
          67.21197,24.98498,0
          67.21158,24.98504,0
          67.20934,24.98541,0
          67.20855,24.98552,0
          67.20827,24.98556,0
          67.20745,24.98567,0
          67.20677,24.98577,0
          67.20529,24.98599,0
          67.20451,24.9861,0
          67.20442,24.98611,0
          67.20413,24.98616,0
          67.20402,24.98617,0
          67.20198,24.98646,0
          67.20046,24.98667,0
          67.19699,24.98717,0
          67.19672,24.9872,0
          67.19635,24.98726,0
          67.19572,24.98736,0
          67.19402,24.9876,0
          67.19313,24.98774,0
          67.19302,24.98775,0
          67.19214,24.98789,0
          67.19145,24.98798,0
          67.19086,24.98807,0
          67.18933,24.98829,0
          67.18777,24.98853,0
          67.18673,24.98869,0
          67.18624,24.98878,0
          67.18524,24.98892,0
          67.18355,24.98916,0
          67.18145,24.98944,0
          67.18144,24.98944,0
          67.18081,24.98955,0
          67.18066,24.98957,0
          67.17656,24.99015,0
          67.17526,24.99037,0
          67.17504,24.9904,0
          67.17183,24.99078,0
          67.17147,24.99082,0
          67.17129,24.99083,0
          67.17085,24.99087,0
          67.17065,24.99091,0
          67.17048,24.99094,0
          67.16943,24.99113,0
          67.16748,24.99149,0
          67.16434,24.99195,0
          67.16417,24.99198,0
          67.16333,24.9921,0
          67.16266,24.99223,0
          67.16236,24.99227,0
          67.16176,24.99236,0
          67.16115,24.99245,0
          67.16057,24.99253,0
          67.16005,24.99261,0
          67.15989,24.99263,0
          67.15951,24.99268,0
          67.15874,24.99278,0
          67.15789,24.99289,0
          67.15779,24.99291,0
          67.15637,24.99312,0
          67.15485,24.99336,0
          67.15396,24.99346,0
          67.15377,24.99349,0
          67.15285,24.99364,0
          67.15215,24.99375,0
          67.15153,24.99384,0
          67.15109,24.9939,0
          67.15031,24.99402,0
          67.15005,24.99406,0
          67.14954,24.99413,0
          67.14907,24.99419,0
          67.14727,24.99446,0
          67.14563,24.99471,0
          67.14549,24.99473,0
          67.14528,24.99476,0
          67.14515,24.99479,0
          67.14474,24.99483,0
          67.14452,24.99486,0
          67.14386,24.99496,0
          67.14339,24.995,0
          67.14299,24.99502,0
          67.14256,24.99502,0
          67.14212,24.995,0
          67.1417,24.99496,0
          67.14132,24.9949,0
          67.14089,24.99482,0
          67.14083,24.9948,0
          67.14032,24.99467,0
          67.13984,24.99451,0
          67.13972,24.99446,0
          67.1394,24.99433,0
          67.13915,24.99421,0
          67.13888,24.99408,0
          67.13844,24.99382,0
          67.13801,24.99354,0
          67.13775,24.99333,0
          67.13747,24.99311,0
          67.13703,24.99271,0
          67.13649,24.99216,0
          67.13629,24.99194,0
          67.13502,24.99061,0
          67.13414,24.9897,0
          67.13366,24.9892,0
          67.13276,24.98827,0
          67.13188,24.98735,0
          67.13181,24.98728,0
          67.13131,24.98677,0
          67.12985,24.98524,0
          67.12959,24.98496,0
          67.12822,24.98354,0
          67.12725,24.98254,0
          67.12687,24.98216,0
          67.12453,24.97973,0
          67.12315,24.97827,0
          67.12304,24.97815,0
          67.12206,24.97713,0
          67.12197,24.97703,0
          67.12157,24.97663,0
          67.12155,24.97661,0
          67.12146,24.97652,0
          67.12111,24.97616,0
          67.12088,24.97591,0
          67.12064,24.97566,0
          67.1199,24.97487,0
          67.11939,24.97435,0
          67.11888,24.97383,0
          67.11786,24.97277,0
          67.11768,24.97258,0
          67.11679,24.97162,0
          67.11635,24.97113,0
          67.11611,24.97088,0
          67.11599,24.97072,0
          67.11558,24.97025,0
          67.11536,24.97002,0
          67.1152,24.96987,0
          67.11468,24.96938,0
          67.11437,24.96908,0
          67.11422,24.96893,0
          67.11416,24.96886,0
          67.11408,24.96878,0
          67.11265,24.96736,0
          67.11248,24.96718,0
          67.1121,24.96681,0
          67.11206,24.96678,0
          67.11203,24.96675,0
          67.11085,24.96551,0
          67.11072,24.96539,0
          67.11066,24.96532,0
          67.10875,24.96336,0
          67.10803,24.96263,0
          67.10781,24.96242,0
          67.1075,24.96214,0
          67.1067,24.96143,0
          67.1054,24.96038,0
          67.10531,24.96031,0
          67.10335,24.95873,0
          67.10128,24.95709,0
          67.10029,24.95628,0
          67.09932,24.95554,0
          67.09877,24.95509,0
          67.09785,24.95434,0
          67.09754,24.9541,0
          67.09589,24.95278,0
          67.09439,24.95155,0
          67.09415,24.95138,0
          67.09397,24.95116,0
          67.0939,24.95108,0
          67.09381,24.95095,0
          67.09377,24.95091,0
          67.09369,24.95079,0
          67.09363,24.95066,0
          67.0933,24.95041,0
          67.09304,24.95032,0
          67.09267,24.95015,0
          67.09246,24.95003,0
          67.0911,24.94898,0
          67.09071,24.94868,0
          67.09058,24.94856,0
          67.09009,24.94814,0
          67.09006,24.94811,0
          67.08976,24.94786,0
          67.08973,24.94784,0
          67.08966,24.94778,0
          67.08917,24.94738,0
          67.08805,24.94645,0
          67.08795,24.94636,0
          67.08763,24.94611,0
          67.08757,24.94606,0
          67.08748,24.94599,0
          67.08733,24.94587,0
          67.08718,24.94575,0
          67.08674,24.94539,0
          67.08668,24.94535,0
          67.08659,24.94528,0
          67.08615,24.94493,0
          67.08556,24.9444,0
          67.08519,24.94408,0
          67.08498,24.94388,0
          67.08471,24.94362,0
        </coordinates>
      </LineString>
    </Placemark>
  </Document>
</kml>
