<?xml version="1.0" encoding="UTF-8"?>
<kml xmlns="http://www.opengis.net/kml/2.2">
  <Document>
    <name>Untitled layer</name>
    <Style id="line-000000-5000-normal">
      <LineStyle>
        <color>ff000000</color>
        <width>5</width>
      </LineStyle>
    </Style>
    <Style id="line-000000-5000-highlight">
      <LineStyle>
        <color>ff000000</color>
        <width>7.5</width>
      </LineStyle>
    </Style>
    <StyleMap id="line-000000-5000">
      <Pair>
        <key>normal</key>
        <styleUrl>#line-000000-5000-normal</styleUrl>
      </Pair>
      <Pair>
        <key>highlight</key>
        <styleUrl>#line-000000-5000-highlight</styleUrl>
      </Pair>
    </StyleMap>
    <Placemark>
      <name>R1 (Khokrapar No. 1 to Dockyard)</name>
      <description><![CDATA[description: <br>Route: <br>Direction: ]]></description>
      <styleUrl>#line-000000-5000</styleUrl>
      <ExtendedData>
        <Data name="description">
          <value/>
        </Data>
        <Data name="Route">
          <value/>
        </Data>
        <Data name="Direction">
          <value/>
        </Data>
      </ExtendedData>
      <LineString>
        <tessellate>1</tessellate>
        <coordinates>
          67.20928,24.90553,0
          67.20924,24.9055,0
          67.20917,24.90547,0
          67.2078,24.90465,0
          67.2076,24.90452,0
          67.20737,24.90439,0
          67.20489,24.90286,0
          67.20482,24.90281,0
          67.20379,24.90217,0
          67.20368,24.90209,0
          67.20252,24.90138,0
          67.20195,24.901,0
          67.20161,24.90081,0
          67.20152,24.90078,0
          67.20145,24.90077,0
          67.20139,24.90077,0
          67.20136,24.90076,0
          67.20132,24.90076,0
          67.20116,24.90084,0
          67.20112,24.90087,0
          67.20108,24.90089,0
          67.20104,24.90092,0
          67.20104,24.90095,0
          67.20105,24.90096,0
          67.20105,24.90097,0
          67.20108,24.90099,0
          67.20104,24.90104,0
          67.20101,24.9011,0
          67.20097,24.90121,0
          67.20083,24.9015,0
          67.20066,24.90189,0
          67.20037,24.90241,0
          67.20029,24.90253,0
          67.20013,24.9028,0
          67.20007,24.90287,0
          67.19999,24.90295,0
          67.19993,24.90299,0
          67.19988,24.90301,0
          67.19982,24.90302,0
          67.1997,24.90302,0
          67.19919,24.90291,0
          67.19882,24.9028,0
          67.1978,24.90257,0
          67.1977,24.90254,0
          67.19759,24.90248,0
          67.19754,24.90243,0
          67.19667,24.90138,0
          67.19636,24.90104,0
          67.19478,24.89914,0
          67.19475,24.89911,0
          67.19371,24.89784,0
          67.19328,24.89735,0
          67.19316,24.8972,0
          67.19309,24.8971,0
          67.19262,24.89654,0
          67.19237,24.89626,0
          67.19126,24.89493,0
          67.19124,24.89491,0
          67.18966,24.89301,0
          67.18964,24.89299,0
          67.18895,24.89215,0
          67.18893,24.89212,0
          67.18839,24.89146,0
          67.18784,24.89082,0
          67.18737,24.89024,0
          67.18666,24.88953,0
          67.18654,24.88939,0
          67.18647,24.88932,0
          67.18637,24.8892,0
          67.18633,24.88912,0
          67.18628,24.88904,0
          67.18625,24.88897,0
          67.18623,24.88882,0
          67.18623,24.8883,0
          67.18621,24.88781,0
          67.18619,24.88771,0
          67.18618,24.88761,0
          67.18615,24.88745,0
          67.18602,24.88695,0
          67.18587,24.88654,0
          67.18579,24.88638,0
          67.18571,24.88624,0
          67.18552,24.88597,0
          67.18501,24.88533,0
          67.18432,24.88455,0
          67.18283,24.88279,0
          67.18263,24.88258,0
          67.18253,24.88244,0
          67.18248,24.88239,0
          67.18243,24.88235,0
          67.18231,24.88221,0
          67.18291,24.88189,0
          67.18356,24.88157,0
          67.18446,24.8811,0
          67.18452,24.8812,0
          67.18572,24.88056,0
          67.18598,24.88037,0
          67.186,24.88036,0
          67.18605,24.88035,0
          67.18616,24.88031,0
          67.18675,24.87999,0
          67.18745,24.87955,0
          67.18754,24.8795,0
          67.18759,24.87946,0
          67.18762,24.87945,0
          67.18824,24.87906,0
          67.18806,24.87882,0
          67.1875,24.87913,0
          67.18711,24.87939,0
          67.18698,24.87946,0
          67.18636,24.87985,0
          67.18569,24.88023,0
          67.18552,24.88037,0
          67.18541,24.88053,0
          67.18534,24.88057,0
          67.18416,24.88113,0
          67.18388,24.88129,0
          67.18309,24.88169,0
          67.18297,24.88176,0
          67.18275,24.88186,0
          67.18275,24.88187,0
          67.18204,24.8822,0
          67.18142,24.88245,0
          67.18141,24.88245,0
          67.18089,24.88266,0
          67.17895,24.88334,0
          67.17746,24.884,0
          67.17686,24.88424,0
          67.17671,24.88429,0
          67.17639,24.88438,0
          67.17614,24.88442,0
          67.17564,24.88447,0
          67.17552,24.88449,0
          67.17544,24.88449,0
          67.17291,24.88487,0
          67.17115,24.88508,0
          67.17112,24.88509,0
          67.17092,24.88511,0
          67.17073,24.88514,0
          67.17033,24.88518,0
          67.17029,24.88519,0
          67.16935,24.88532,0
          67.16931,24.88532,0
          67.16793,24.88551,0
          67.16742,24.8856,0
          67.16732,24.88563,0
          67.16713,24.88567,0
          67.16711,24.88567,0
          67.16698,24.8857,0
          67.16695,24.88571,0
          67.16688,24.88572,0
          67.16674,24.88577,0
          67.16669,24.88578,0
          67.16642,24.88588,0
          67.16587,24.88613,0
          67.16569,24.8862,0
          67.16483,24.88658,0
          67.16462,24.88666,0
          67.16443,24.88672,0
          67.16438,24.88674,0
          67.16405,24.88682,0
          67.16363,24.88688,0
          67.16339,24.8869,0
          67.16233,24.88693,0
          67.16174,24.88693,0
          67.15858,24.88683,0
          67.15712,24.88684,0
          67.15657,24.88687,0
          67.15609,24.88685,0
          67.15573,24.88686,0
          67.155,24.88691,0
          67.15391,24.8869,0
          67.15368,24.88689,0
          67.14297,24.88684,0
          67.14224,24.88682,0
          67.14078,24.88684,0
          67.13944,24.88691,0
          67.13934,24.88691,0
          67.13378,24.88719,0
          67.13253,24.88719,0
          67.13239,24.88718,0
          67.1314,24.88718,0
          67.13097,24.88714,0
          67.12807,24.88701,0
          67.12781,24.88696,0
          67.12771,24.88696,0
          67.12666,24.8869,0
          67.1243,24.88681,0
          67.12415,24.88678,0
          67.12361,24.88661,0
          67.12355,24.8866,0
          67.12342,24.88655,0
          67.12263,24.88631,0
          67.12261,24.8863,0
          67.12203,24.88613,0
          67.12182,24.88608,0
          67.12176,24.88607,0
          67.12174,24.88607,0
          67.12132,24.88598,0
          67.12131,24.88598,0
          67.12101,24.88591,0
          67.11868,24.88513,0
          67.11799,24.88487,0
          67.11792,24.88483,0
          67.11738,24.88461,0
          67.11734,24.8846,0
          67.11659,24.88429,0
          67.11577,24.88391,0
          67.11574,24.8839,0
          67.11574,24.88389,0
          67.11557,24.88381,0
          67.11556,24.88381,0
          67.1146,24.88335,0
          67.11431,24.8832,0
          67.11417,24.88311,0
          67.1141,24.88308,0
          67.11251,24.88224,0
          67.11166,24.88173,0
          67.11094,24.88132,0
          67.11093,24.88132,0
          67.10854,24.87994,0
          67.1077,24.87949,0
          67.10767,24.87948,0
          67.1071,24.87917,0
          67.10701,24.87913,0
          67.10665,24.87894,0
          67.10664,24.87893,0
          67.10579,24.87847,0
          67.1057,24.87843,0
          67.10473,24.87793,0
          67.10346,24.87733,0
          67.10305,24.87712,0
          67.10302,24.87711,0
          67.1023,24.87673,0
          67.10207,24.87662,0
          67.10106,24.87623,0
          67.10029,24.87601,0
          67.09915,24.87576,0
          67.0985,24.87558,0
          67.09766,24.87531,0
          67.09744,24.87521,0
          67.09643,24.87491,0
          67.09553,24.87461,0
          67.09501,24.87442,0
          67.09482,24.87433,0
          67.09467,24.87427,0
          67.09443,24.87415,0
          67.09406,24.87394,0
          67.094,24.8739,0
          67.094,24.87389,0
          67.09389,24.87382,0
          67.0938,24.87375,0
          67.0937,24.87366,0
          67.09368,24.87365,0
          67.09317,24.87319,0
          67.09275,24.87284,0
          67.09237,24.87256,0
          67.09139,24.87198,0
          67.09108,24.87181,0
          67.08654,24.86906,0
          67.08588,24.86864,0
          67.08543,24.86838,0
          67.08495,24.86805,0
          67.08471,24.8679,0
          67.0841,24.86756,0
          67.08286,24.86695,0
          67.08194,24.86658,0
          67.08114,24.86629,0
          67.08108,24.86626,0
          67.08052,24.86607,0
          67.08012,24.86596,0
          67.08005,24.86593,0
          67.07955,24.86579,0
          67.07937,24.86573,0
          67.07877,24.8655,0
          67.07862,24.86546,0
          67.0777,24.8651,0
          67.07708,24.86489,0
          67.07627,24.86453,0
          67.07399,24.86337,0
          67.07384,24.86331,0
          67.07383,24.86331,0
          67.07366,24.86324,0
          67.07128,24.8625,0
          67.07123,24.86249,0
          67.07109,24.86244,0
          67.07104,24.86243,0
          67.07013,24.86214,0
          67.07004,24.86212,0
          67.06975,24.86203,0
          67.06973,24.86203,0
          67.06956,24.86198,0
          67.06954,24.86197,0
          67.06706,24.86127,0
          67.0667,24.86115,0
          67.06669,24.86115,0
          67.06667,24.86114,0
          67.06651,24.8611,0
          67.06649,24.86109,0
          67.06589,24.86092,0
          67.06588,24.86092,0
          67.0657,24.86087,0
          67.06569,24.86087,0
          67.06552,24.86082,0
          67.06385,24.86044,0
          67.06025,24.8597,0
          67.05972,24.85962,0
          67.05836,24.85962,0
          67.0581,24.85963,0
          67.05774,24.85961,0
          67.05433,24.85963,0
          67.0542,24.85962,0
          67.05397,24.85962,0
          67.05395,24.85961,0
          67.05391,24.85961,0
          67.05388,24.8596,0
          67.05366,24.85957,0
          67.05344,24.85953,0
          67.05268,24.85932,0
          67.05255,24.85926,0
          67.05227,24.85916,0
          67.05164,24.8589,0
          67.05147,24.85882,0
          67.05037,24.8584,0
          67.05027,24.85837,0
          67.05026,24.85837,0
          67.05022,24.85835,0
          67.04988,24.85822,0
          67.04904,24.85795,0
          67.04812,24.85762,0
          67.04811,24.85761,0
          67.04806,24.8576,0
          67.04736,24.85736,0
          67.04729,24.85733,0
          67.04713,24.85729,0
          67.04701,24.85727,0
          67.04688,24.85724,0
          67.04645,24.85718,0
          67.04629,24.85717,0
          67.04625,24.85716,0
          67.0462,24.85716,0
          67.04611,24.85715,0
          67.04517,24.85716,0
          67.04444,24.85711,0
          67.04418,24.85707,0
          67.04375,24.85696,0
          67.04326,24.85678,0
          67.04306,24.85673,0
          67.04254,24.85657,0
          67.04004,24.85574,0
          67.03952,24.85555,0
          67.03951,24.85555,0
          67.03888,24.85538,0
          67.03831,24.85527,0
          67.03824,24.85527,0
          67.03823,24.85526,0
          67.03803,24.85524,0
          67.0372,24.85508,0
          67.037,24.85505,0
          67.03681,24.85501,0
          67.03656,24.85497,0
          67.0365,24.85495,0
          67.03622,24.85483,0
          67.03616,24.85479,0
          67.03594,24.8546,0
          67.03586,24.85449,0
          67.03559,24.85397,0
          67.03548,24.85371,0
          67.03529,24.85342,0
          67.03512,24.8531,0
          67.03497,24.85289,0
          67.03486,24.85271,0
          67.03471,24.85256,0
          67.03456,24.85246,0
          67.0344,24.85237,0
          67.03408,24.85221,0
          67.03283,24.85166,0
          67.03241,24.85145,0
          67.03232,24.85139,0
          67.03222,24.85131,0
          67.03216,24.85123,0
          67.03208,24.85114,0
          67.03209,24.85107,0
          67.03202,24.85083,0
          67.03195,24.85066,0
          67.03175,24.85048,0
          67.03168,24.85044,0
          67.03153,24.85038,0
          67.0306,24.84985,0
          67.03059,24.84983,0
          67.03055,24.84978,0
          67.0305,24.84973,0
          67.0304,24.84967,0
          67.03034,24.84976,0
          67.02994,24.85054,0
          67.02978,24.85072,0
          67.02943,24.85133,0
          67.02926,24.85166,0
          67.02908,24.85198,0
          67.0287,24.85273,0
          67.02845,24.85314,0
          67.02836,24.85331,0
          67.02831,24.85343,0
          67.02827,24.8536,0
          67.02825,24.85363,0
          67.02802,24.85377,0
          67.02792,24.85386,0
          67.02764,24.85385,0
          67.02729,24.85382,0
          67.02724,24.85381,0
          67.02669,24.85376,0
          67.02542,24.85358,0
          67.02538,24.85357,0
          67.0224,24.85322,0
          67.02212,24.85315,0
          67.02212,24.85313,0
          67.02211,24.85312,0
          67.02211,24.8531,0
          67.02209,24.85308,0
          67.02209,24.85307,0
          67.02208,24.85307,0
          67.02205,24.85304,0
          67.02204,24.85304,0
          67.02203,24.85303,0
          67.02202,24.85303,0
          67.02201,24.85302,0
          67.02199,24.85302,0
          67.02198,24.85301,0
          67.02192,24.85301,0
          67.02191,24.85302,0
          67.02189,24.85302,0
          67.02187,24.85303,0
          67.02186,24.85304,0
          67.02171,24.85295,0
          67.02094,24.85237,0
          67.02019,24.85177,0
          67.01901,24.85087,0
          67.01891,24.85081,0
          67.01872,24.85079,0
          67.01843,24.8508,0
          67.01835,24.85082,0
          67.01789,24.85076,0
          67.01718,24.85069,0
          67.01682,24.85064,0
          67.01637,24.8506,0
          67.01614,24.8506,0
          67.0095,24.84997,0
          67.00872,24.84987,0
          67.008,24.84981,0
          67.00729,24.84973,0
          67.00721,24.84973,0
          67.00668,24.84967,0
          67.00569,24.84959,0
          67.00318,24.84932,0
          67.00314,24.84932,0
          67.00297,24.8493,0
          67.00294,24.84929,0
          67.00277,24.84928,0
          67.00274,24.84927,0
          67.00009,24.84898,0
          66.99989,24.84897,0
          66.99886,24.84885,0
          66.99879,24.84885,0
          66.99705,24.84869,0
          66.99691,24.84866,0
          66.99685,24.84866,0
          66.9968,24.84865,0
          66.99671,24.84865,0
          66.99593,24.84837,0
          66.99573,24.84828,0
          66.99562,24.84822,0
          66.99537,24.84806,0
          66.99509,24.84772,0
          66.99505,24.84766,0
          66.99503,24.84764,0
          66.99487,24.84752,0
          66.99466,24.84738,0
          66.99421,24.84716,0
          66.9938,24.84692,0
          66.99351,24.84673,0
          66.99306,24.8464,0
          66.99301,24.84635,0
          66.99298,24.84629,0
          66.99296,24.84622,0
          66.99295,24.84616,0
          66.99295,24.84609,0
          66.99296,24.84597,0
          66.99303,24.8458,0
          66.99306,24.84568,0
          66.99307,24.8456,0
          66.99307,24.84552,0
          66.99305,24.8454,0
          66.99301,24.84529,0
          66.993,24.84525,0
          66.99298,24.84521,0
          66.99293,24.84514,0
          66.9928,24.84499,0
          66.99266,24.8449,0
          66.99257,24.84485,0
          66.99249,24.84483,0
          66.99241,24.8448,0
          66.9923,24.84479,0
          66.99218,24.84479,0
          66.9921,24.8448,0
          66.99201,24.84482,0
          66.99183,24.84488,0
          66.99169,24.84496,0
          66.99154,24.84507,0
          66.99143,24.84526,0
          66.99141,24.84532,0
          66.9914,24.84537,0
          66.99139,24.8454,0
          66.99137,24.84555,0
          66.99137,24.84562,0
          66.99138,24.84571,0
          66.9914,24.84579,0
          66.99143,24.84586,0
          66.99142,24.84602,0
          66.9914,24.84619,0
          66.99139,24.84622,0
          66.99138,24.84627,0
          66.99134,24.84634,0
          66.99131,24.84638,0
          66.99093,24.84699,0
          66.99092,24.847,0
          66.99058,24.84749,0
          66.99046,24.84758,0
          66.99038,24.84766,0
          66.99002,24.84822,0
          66.98991,24.84837,0
          66.98953,24.84895,0
          66.98951,24.84899,0
          66.9892,24.84947,0
          66.98912,24.84957,0
          66.98905,24.84964,0
          66.98863,24.8496,0
          66.98855,24.84956,0
          66.98427,24.84913,0
          66.98404,24.84909,0
          66.9839,24.84905,0
          66.98385,24.84912,0
          66.9838,24.84912,0
          66.98332,24.84908,0
          66.98233,24.84897,0
          66.98137,24.84891,0
          66.97905,24.84516,0
          66.97888,24.84492,0
          66.97884,24.84485,0
          66.97878,24.84477,0
          66.97841,24.84414,0
          66.97816,24.84375,0
          66.97682,24.84152,0
          66.97649,24.84109,0
          66.97635,24.84081,0
          66.97603,24.84028,0
          66.97556,24.83955,0
          66.97471,24.83814,0
          66.97468,24.8381,0
          66.97463,24.83801,0
          66.97443,24.83771,0
          66.97418,24.83728,0
          66.97292,24.83525,0
          66.97201,24.83371,0
          66.97198,24.83367,0
          66.97187,24.83349,0
          66.97177,24.83308,0
          66.97171,24.83288,0
          66.97168,24.8328,0
          66.97166,24.83174,0
          66.97165,24.83171,0
          66.97165,24.8317,0
          66.97162,24.83162,0
          66.97111,24.83071,0
        </coordinates>
      </LineString>
    </Placemark>
  </Document>
</kml>
