<?xml version="1.0" encoding="UTF-8"?>
<kml xmlns="http://www.opengis.net/kml/2.2">
  <Document>
    <name>Untitled layer</name>
    <Style id="line-01579B-5000-normal">
      <LineStyle>
        <color>ff9b5701</color>
        <width>5</width>
      </LineStyle>
    </Style>
    <Style id="line-01579B-5000-highlight">
      <LineStyle>
        <color>ff9b5701</color>
        <width>7.5</width>
      </LineStyle>
    </Style>
    <StyleMap id="line-01579B-5000">
      <Pair>
        <key>normal</key>
        <styleUrl>#line-01579B-5000-normal</styleUrl>
      </Pair>
      <Pair>
        <key>highlight</key>
        <styleUrl>#line-01579B-5000-highlight</styleUrl>
      </Pair>
    </StyleMap>
    <Placemark>
      <name>R10 (Numaish to Ibrahim Hyderi)</name>
      <description><![CDATA[description: <br>Route: R10<br>Direction: R10_UP]]></description>
      <styleUrl>#line-01579B-5000</styleUrl>
      <ExtendedData>
        <Data name="description">
          <value/>
        </Data>
        <Data name="Route">
          <value>R10</value>
        </Data>
        <Data name="Direction">
          <value>R10_UP</value>
        </Data>
      </ExtendedData>
      <LineString>
        <tessellate>1</tessellate>
        <coordinates>
          67.03548,24.87223,0
          67.0357,24.87264,0
          67.03579,24.87277,0
          67.03601,24.8727,0
          67.03592,24.87254,0
          67.03566,24.87215,0
          67.03542,24.87179,0
          67.03534,24.87171,0
          67.03532,24.87168,0
          67.03522,24.8716,0
          67.03507,24.87149,0
          67.03483,24.87131,0
          67.03445,24.87106,0
          67.03442,24.87104,0
          67.03393,24.87074,0
          67.03347,24.87046,0
          67.03293,24.87011,0
          67.03261,24.8699,0
          67.03224,24.86968,0
          67.03188,24.86946,0
          67.03164,24.8693,0
          67.03156,24.86925,0
          67.03155,24.86924,0
          67.03108,24.86893,0
          67.031,24.86887,0
          67.03091,24.86882,0
          67.03075,24.8687,0
          67.0304,24.86844,0
          67.03032,24.86838,0
          67.02998,24.86816,0
          67.0299,24.8681,0
          67.02967,24.86798,0
          67.02934,24.86779,0
          67.02927,24.86775,0
          67.0289,24.86751,0
          67.02885,24.86748,0
          67.02868,24.86738,0
          67.02852,24.86728,0
          67.02838,24.86719,0
          67.02822,24.8671,0
          67.02816,24.86707,0
          67.02774,24.8668,0
          67.02773,24.86679,0
          67.02741,24.86659,0
          67.0274,24.86658,0
          67.02659,24.86606,0
          67.02658,24.86606,0
          67.02645,24.86598,0
          67.02593,24.86567,0
          67.02578,24.86557,0
          67.02554,24.86542,0
          67.02505,24.86512,0
          67.02521,24.86482,0
          67.02529,24.86466,0
          67.02555,24.86417,0
          67.02574,24.86379,0
          67.02577,24.86374,0
          67.02581,24.8636,0
          67.02603,24.86316,0
          67.02605,24.86311,0
          67.02614,24.86295,0
          67.02632,24.8626,0
          67.02639,24.86246,0
          67.02659,24.86211,0
          67.02663,24.86201,0
          67.02668,24.86192,0
          67.02691,24.86147,0
          67.02694,24.86142,0
          67.02717,24.86098,0
          67.02733,24.86071,0
          67.0274,24.86061,0
          67.02742,24.86055,0
          67.02749,24.86043,0
          67.02759,24.86026,0
          67.02764,24.86016,0
          67.02779,24.85989,0
          67.02794,24.85963,0
          67.02812,24.85928,0
          67.02838,24.85878,0
          67.02841,24.85871,0
          67.02877,24.85807,0
          67.02889,24.8578,0
          67.02901,24.8576,0
          67.02905,24.85752,0
          67.02922,24.85709,0
          67.02926,24.85698,0
          67.02939,24.85661,0
          67.02952,24.85623,0
          67.02954,24.85614,0
          67.02959,24.85599,0
          67.02969,24.85568,0
          67.0297,24.85566,0
          67.0297,24.85565,0
          67.02974,24.85555,0
          67.02981,24.85535,0
          67.02982,24.85531,0
          67.02983,24.85529,0
          67.02988,24.85518,0
          67.02998,24.85498,0
          67.03018,24.85459,0
          67.03019,24.85456,0
          67.0302,24.85454,0
          67.03019,24.85452,0
          67.03019,24.85451,0
          67.03017,24.85449,0
          67.03002,24.85439,0
          67.02978,24.85428,0
          67.02909,24.85396,0
          67.02907,24.85396,0
          67.02901,24.85389,0
          67.02896,24.85384,0
          67.02891,24.8538,0
          67.02885,24.85376,0
          67.02879,24.85373,0
          67.02872,24.8537,0
          67.02865,24.85368,0
          67.02864,24.85367,0
          67.02864,24.85366,0
          67.02864,24.85365,0
          67.02863,24.85364,0
          67.02863,24.85363,0
          67.02862,24.85362,0
          67.02867,24.85334,0
          67.02875,24.85304,0
          67.02887,24.85276,0
          67.02889,24.8527,0
          67.02903,24.85237,0
          67.02906,24.8523,0
          67.02931,24.85181,0
          67.02936,24.85171,0
          67.02953,24.85138,0
          67.02974,24.85108,0
          67.02985,24.85098,0
          67.02991,24.85096,0
          67.02999,24.85093,0
          67.03018,24.85091,0
          67.03053,24.85109,0
          67.03071,24.85117,0
          67.03071,24.85118,0
          67.03123,24.85144,0
          67.03136,24.8515,0
          67.0314,24.85152,0
          67.03146,24.85155,0
          67.0315,24.85156,0
          67.03153,24.85156,0
          67.03157,24.85157,0
          67.03172,24.85156,0
          67.03191,24.85145,0
          67.03198,24.85134,0
          67.03205,24.85121,0
          67.03212,24.85106,0
          67.03202,24.85083,0
          67.03195,24.85066,0
          67.03182,24.85054,0
          67.03175,24.85048,0
          67.03168,24.85044,0
          67.03153,24.85038,0
          67.03093,24.85004,0
          67.0306,24.84985,0
          67.03059,24.84983,0
          67.03055,24.84978,0
          67.03053,24.84976,0
          67.03051,24.84974,0
          67.03057,24.84964,0
          67.03065,24.84953,0
          67.03072,24.8494,0
          67.0308,24.84927,0
          67.03098,24.84895,0
          67.03104,24.84883,0
          67.03111,24.8487,0
          67.03117,24.8484,0
          67.03124,24.848,0
          67.03145,24.84715,0
          67.03153,24.84686,0
          67.03156,24.84677,0
          67.03156,24.84675,0
          67.03164,24.84641,0
          67.03174,24.846,0
          67.0318,24.84576,0
          67.03195,24.84518,0
          67.03197,24.84511,0
          67.03227,24.84392,0
          67.03229,24.84381,0
          67.03235,24.84348,0
          67.03246,24.84295,0
          67.03248,24.8428,0
          67.03249,24.84268,0
          67.03252,24.84234,0
          67.03252,24.84233,0
          67.03259,24.84171,0
          67.03261,24.8415,0
          67.03266,24.84115,0
          67.03266,24.84114,0
          67.03268,24.841,0
          67.03268,24.84099,0
          67.03269,24.84093,0
          67.03271,24.84075,0
          67.03272,24.84068,0
          67.03274,24.84057,0
          67.03274,24.84045,0
          67.03275,24.84037,0
          67.03276,24.8403,0
          67.03277,24.84013,0
          67.03281,24.83978,0
          67.03282,24.83964,0
          67.03285,24.83942,0
          67.03286,24.8393,0
          67.03287,24.83924,0
          67.03297,24.83843,0
          67.03302,24.83805,0
          67.03311,24.83735,0
          67.03314,24.83717,0
          67.0332,24.83677,0
          67.03327,24.83625,0
          67.03333,24.83588,0
          67.03334,24.83582,0
          67.03339,24.83559,0
          67.03346,24.83526,0
          67.03364,24.83445,0
          67.03372,24.834,0
          67.03373,24.834,0
          67.03375,24.83399,0
          67.03376,24.83399,0
          67.03377,24.83398,0
          67.03379,24.83397,0
          67.0338,24.83396,0
          67.03381,24.83395,0
          67.03382,24.83394,0
          67.03383,24.83393,0
          67.03383,24.83392,0
          67.03384,24.8339,0
          67.03384,24.83389,0
          67.03385,24.83388,0
          67.03385,24.83387,0
          67.03385,24.83386,0
          67.03385,24.83384,0
          67.03385,24.83383,0
          67.03385,24.83382,0
          67.03385,24.83381,0
          67.03385,24.83379,0
          67.03384,24.83378,0
          67.03384,24.83377,0
          67.03383,24.83376,0
          67.03381,24.83362,0
          67.03381,24.83352,0
          67.03381,24.83338,0
          67.03384,24.83322,0
          67.03392,24.83277,0
          67.03398,24.83249,0
          67.03405,24.83214,0
          67.03411,24.8318,0
          67.03415,24.83163,0
          67.03425,24.8311,0
          67.03425,24.83109,0
          67.03429,24.83092,0
          67.03437,24.83049,0
          67.0344,24.83037,0
          67.0344,24.83027,0
          67.0344,24.83022,0
          67.03443,24.83,0
          67.03445,24.82983,0
          67.03448,24.82966,0
          67.03454,24.82942,0
          67.03454,24.82938,0
          67.03458,24.82921,0
          67.03459,24.82919,0
          67.03467,24.82867,0
          67.03473,24.82832,0
          67.03477,24.8281,0
          67.03479,24.82796,0
          67.03484,24.82775,0
          67.03486,24.82768,0
          67.03493,24.8274,0
          67.03499,24.82705,0
          67.03503,24.82688,0
          67.03512,24.82634,0
          67.03515,24.82619,0
          67.03527,24.82553,0
          67.03528,24.82545,0
          67.03528,24.82543,0
          67.03528,24.82539,0
          67.03528,24.82521,0
          67.03528,24.82485,0
          67.03528,24.82466,0
          67.03527,24.82455,0
          67.03526,24.82431,0
          67.03525,24.82422,0
          67.03522,24.82408,0
          67.0352,24.824,0
          67.03509,24.82369,0
          67.03492,24.82317,0
          67.03488,24.82307,0
          67.03468,24.82251,0
          67.03457,24.82217,0
          67.03442,24.82169,0
          67.03439,24.82155,0
          67.03437,24.82143,0
          67.03436,24.82128,0
          67.03437,24.82127,0
          67.03438,24.82126,0
          67.03439,24.82125,0
          67.0344,24.82124,0
          67.03441,24.82123,0
          67.03442,24.82122,0
          67.03443,24.8212,0
          67.03443,24.82119,0
          67.03445,24.82117,0
          67.03446,24.82114,0
          67.03447,24.82111,0
          67.03447,24.82108,0
          67.03447,24.82106,0
          67.03448,24.82103,0
          67.03447,24.821,0
          67.03447,24.82097,0
          67.03446,24.82096,0
          67.03446,24.82094,0
          67.03445,24.82092,0
          67.03442,24.82086,0
          67.03438,24.82082,0
          67.03435,24.8208,0
          67.03434,24.82079,0
          67.03433,24.82078,0
          67.0343,24.82076,0
          67.03427,24.82075,0
          67.03424,24.82073,0
          67.03421,24.82072,0
          67.03415,24.82072,0
          67.03411,24.82072,0
          67.03405,24.82072,0
          67.03404,24.82072,0
          67.03403,24.82072,0
          67.03402,24.82073,0
          67.03401,24.82073,0
          67.03399,24.82073,0
          67.03398,24.82074,0
          67.03397,24.82074,0
          67.03396,24.82075,0
          67.03388,24.8207,0
          67.03382,24.82066,0
          67.03378,24.82062,0
          67.03371,24.82055,0
          67.03356,24.82036,0
          67.03336,24.8201,0
          67.03299,24.81962,0
          67.032492,24.819015,0
          67.03234,24.8188,0
          67.03215,24.81855,0
          67.03154,24.81772,0
          67.03128,24.81739,0
          67.03096,24.817,0
          67.030778,24.816796,0
          67.03046,24.81644,0
          67.02997,24.81588,0
          67.02951,24.81532,0
          67.02899,24.81477,0
          67.02888,24.81464,0
          67.02872,24.81444,0
          67.02868,24.81438,0
          67.02865,24.81434,0
          67.02863,24.81425,0
          67.02862,24.81416,0
          67.02863,24.8141,0
          67.02865,24.814,0
          67.02867,24.8139,0
          67.02868,24.81384,0
          67.02869,24.81382,0
          67.02869,24.81379,0
          67.0287,24.81375,0
          67.02869,24.81372,0
          67.02867,24.81369,0
          67.02865,24.81367,0
          67.02856,24.81357,0
          67.02847,24.81352,0
          67.02843,24.81349,0
          67.0284,24.81348,0
          67.02833,24.81345,0
          67.02804,24.81333,0
          67.02801,24.81332,0
          67.02799,24.81331,0
          67.02795,24.81328,0
          67.02794,24.81326,0
          67.02792,24.81324,0
          67.02792,24.81321,0
          67.02791,24.81317,0
          67.02791,24.81308,0
          67.02813,24.81286,0
          67.02818,24.81281,0
          67.02823,24.81277,0
          67.0283,24.81273,0
          67.02837,24.81268,0
          67.02855,24.8126,0
          67.02866,24.81255,0
          67.0288,24.81251,0
          67.02893,24.81247,0
          67.02904,24.81242,0
          67.02911,24.81239,0
          67.02916,24.81236,0
          67.02921,24.81233,0
          67.02942,24.81214,0
          67.02947,24.8121,0
          67.02977,24.81183,0
          67.02986,24.81176,0
          67.02999,24.81166,0
          67.03012,24.81155,0
          67.03032,24.81142,0
          67.03056,24.81126,0
          67.03085,24.81107,0
          67.03147,24.81071,0
          67.0316,24.81064,0
          67.03173,24.81056,0
          67.03183,24.81051,0
          67.03192,24.81048,0
          67.03184,24.81033,0
          67.03185,24.81031,0
          67.03185,24.81028,0
          67.03186,24.81025,0
          67.03186,24.81022,0
          67.03185,24.81019,0
          67.03183,24.81014,0
          67.03179,24.81007,0
          67.03175,24.80997,0
          67.03165,24.80982,0
          67.03123,24.80912,0
          67.03079,24.80838,0
          67.0305,24.8079,0
          67.03014,24.80728,0
          67.02964,24.80647,0
          67.02936,24.80599,0
          67.02896,24.8053,0
          67.02872,24.80491,0
          67.02854,24.80461,0
          67.0284,24.80437,0
          67.02822,24.80397,0
          67.02823,24.80396,0
          67.02824,24.80395,0
          67.02825,24.80393,0
          67.02825,24.80391,0
          67.02826,24.8039,0
          67.02826,24.80388,0
          67.02826,24.80386,0
          67.02827,24.80385,0
          67.02842,24.80377,0
          67.02925,24.80334,0
          67.02951,24.80322,0
          67.02968,24.80315,0
          67.02982,24.80308,0
          67.02999,24.80304,0
          67.03005,24.80303,0
          67.03009,24.80303,0
          67.0302,24.80301,0
          67.03043,24.80297,0
          67.03052,24.80294,0
          67.03062,24.80289,0
          67.03073,24.80283,0
          67.03083,24.80276,0
          67.0309,24.80271,0
          67.03093,24.80269,0
          67.03108,24.80258,0
          67.03122,24.80249,0
          67.03133,24.80241,0
          67.03145,24.80234,0
          67.03164,24.80223,0
          67.03166,24.80222,0
          67.03181,24.80214,0
          67.03183,24.80214,0
          67.03184,24.80215,0
          67.03185,24.80215,0
          67.03186,24.80215,0
          67.03187,24.80215,0
          67.03188,24.80215,0
          67.03189,24.80215,0
          67.0319,24.80215,0
          67.03192,24.80215,0
          67.03193,24.80215,0
          67.03194,24.80215,0
          67.03195,24.80215,0
          67.03196,24.80214,0
          67.03197,24.80214,0
          67.03198,24.80213,0
          67.03199,24.80213,0
          67.032,24.80212,0
          67.032,24.80211,0
          67.03201,24.80211,0
          67.03202,24.8021,0
          67.03203,24.80209,0
          67.03203,24.80208,0
          67.03204,24.80208,0
          67.03204,24.80207,0
          67.03205,24.80205,0
          67.03213,24.802,0
          67.03273,24.80158,0
          67.03341,24.80108,0
          67.03354,24.80099,0
          67.03424,24.80047,0
          67.03456,24.8002,0
          67.03494,24.79988,0
          67.035,24.79983,0
          67.03501,24.79983,0
          67.03502,24.79983,0
          67.03503,24.79983,0
          67.03504,24.79982,0
          67.03505,24.79982,0
          67.03506,24.79982,0
          67.03506,24.79981,0
          67.03507,24.79981,0
          67.03507,24.7998,0
          67.03508,24.7998,0
          67.03508,24.79979,0
          67.03509,24.79979,0
          67.03509,24.79978,0
          67.03509,24.79977,0
          67.0351,24.79977,0
          67.0351,24.79976,0
          67.0351,24.79975,0
          67.0351,24.79974,0
          67.03515,24.79969,0
          67.03518,24.79966,0
          67.03528,24.79956,0
          67.03575,24.79908,0
          67.03608,24.79875,0
          67.03611,24.79871,0
          67.03693,24.79786,0
          67.0384,24.79635,0
          67.03874,24.796,0
          67.0388,24.79593,0
          67.03929,24.7954,0
          67.03952,24.79518,0
          67.04067,24.79395,0
          67.041,24.79361,0
          67.04149,24.79309,0
          67.04156,24.79302,0
          67.04249,24.79198,0
          67.04283,24.7916,0
          67.04317,24.79124,0
          67.04356,24.79085,0
          67.0437,24.7907,0
          67.04408,24.79029,0
          67.04483,24.78947,0
          67.04491,24.78939,0
          67.04622,24.78793,0
          67.04679,24.7873,0
          67.04687,24.78721,0
          67.04731,24.7867,0
          67.04857,24.78533,0
          67.04864,24.78525,0
          67.05019,24.78351,0
          67.0504,24.78327,0
          67.05132,24.78226,0
          67.05145,24.78212,0
          67.05158,24.78198,0
          67.05222,24.7813,0
          67.05227,24.78123,0
          67.05265,24.7808,0
          67.05341,24.77992,0
          67.05353,24.7798,0
          67.05387,24.77943,0
          67.05394,24.77936,0
          67.05417,24.7791,0
          67.05435,24.77891,0
          67.05459,24.77862,0
          67.05531,24.77934,0
          67.05558,24.77962,0
          67.05575,24.7798,0
          67.05625,24.78031,0
          67.05631,24.78035,0
          67.05635,24.78038,0
          67.05695,24.78096,0
          67.05725,24.7813,0
          67.05788,24.78194,0
          67.05851,24.78268,0
          67.05898,24.78319,0
          67.05945,24.78368,0
          67.05994,24.78417,0
          67.05999,24.78422,0
          67.06066,24.78492,0
          67.06127,24.78558,0
          67.06183,24.78615,0
          67.06279,24.78713,0
          67.06302,24.78737,0
          67.06307,24.78743,0
          67.06355,24.78794,0
          67.06564,24.79012,0
          67.0657,24.7902,0
          67.06587,24.79035,0
          67.0665,24.79103,0
          67.06712,24.79166,0
          67.06772,24.79228,0
          67.06836,24.79294,0
          67.06856,24.79317,0
          67.06921,24.79384,0
          67.06973,24.79439,0
          67.06986,24.79452,0
          67.06988,24.79455,0
          67.06991,24.79458,0
          67.07,24.79466,0
          67.07003,24.79469,0
          67.0713,24.79602,0
          67.07204,24.79679,0
          67.0732,24.79801,0
          67.07338,24.79818,0
          67.07375,24.79856,0
          67.0739,24.79872,0
          67.074,24.79883,0
          67.07414,24.79898,0
          67.0745,24.79935,0
          67.07468,24.79955,0
          67.07475,24.79962,0
          67.07501,24.79992,0
          67.07535,24.80027,0
          67.07617,24.80112,0
          67.07625,24.8012,0
          67.07647,24.80143,0
          67.07665,24.80161,0
          67.07691,24.80188,0
          67.07716,24.80216,0
          67.07727,24.80229,0
          67.07733,24.80237,0
          67.07739,24.80248,0
          67.07743,24.80256,0
          67.07744,24.8026,0
          67.07746,24.80265,0
          67.07748,24.80273,0
          67.07752,24.80285,0
          67.07753,24.80293,0
          67.07754,24.80299,0
          67.07755,24.80306,0
          67.07755,24.80315,0
          67.07755,24.80326,0
          67.07755,24.80335,0
          67.07754,24.80345,0
          67.07752,24.80357,0
          67.07741,24.80445,0
          67.07736,24.80477,0
          67.07735,24.8049,0
          67.07727,24.80546,0
          67.07715,24.80633,0
          67.07708,24.80685,0
          67.07705,24.80707,0
          67.07704,24.8072,0
          67.07691,24.80814,0
          67.07688,24.80833,0
          67.07677,24.80913,0
          67.07668,24.81002,0
          67.07664,24.81029,0
          67.07662,24.81044,0
          67.07662,24.81047,0
          67.07658,24.81066,0
          67.07654,24.8109,0
          67.07648,24.81149,0
          67.07644,24.81176,0
          67.07644,24.81182,0
          67.07643,24.8119,0
          67.07641,24.81206,0
          67.07639,24.81218,0
          67.07637,24.81232,0
          67.07621,24.81362,0
          67.07618,24.81373,0
          67.0761,24.81444,0
          67.07588,24.81601,0
          67.07586,24.81615,0
          67.07585,24.8163,0
          67.07583,24.81641,0
          67.07582,24.81649,0
          67.07571,24.81714,0
          67.07565,24.81783,0
          67.07547,24.81918,0
          67.07528,24.82062,0
          67.07528,24.82064,0
          67.07527,24.82068,0
          67.07527,24.82069,0
          67.07526,24.82074,0
          67.07518,24.82139,0
          67.07508,24.82216,0
          67.07505,24.82241,0
          67.07504,24.82254,0
          67.07499,24.82286,0
          67.07489,24.82348,0
          67.07488,24.82355,0
          67.07487,24.82364,0
          67.07479,24.82425,0
          67.07477,24.82451,0
          67.07453,24.82638,0
          67.07453,24.82647,0
          67.0744,24.82739,0
          67.07439,24.8275,0
          67.07438,24.82764,0
          67.0743,24.82838,0
          67.07426,24.82847,0
          67.07422,24.82889,0
          67.07417,24.82929,0
          67.07413,24.82965,0
          67.07413,24.82973,0
          67.07412,24.82974,0
          67.07412,24.82978,0
          67.07411,24.82984,0
          67.074068,24.830201,0
          67.07402,24.83056,0
          67.07401,24.83062,0
          67.07394,24.83118,0
          67.07392,24.83131,0
          67.07389,24.83147,0
          67.07385,24.83175,0
          67.07379,24.83204,0
          67.07378,24.83214,0
          67.07374,24.83268,0
          67.0737,24.83309,0
          67.07369,24.83318,0
          67.07365,24.83339,0
          67.07364,24.83346,0
          67.07363,24.83356,0
          67.07363,24.83359,0
          67.07364,24.83362,0
          67.07365,24.83366,0
          67.07366,24.83369,0
          67.07367,24.83371,0
          67.07374,24.83375,0
          67.07379,24.83375,0
          67.07383,24.83375,0
          67.07387,24.83373,0
          67.07436,24.83356,0
          67.07471,24.83342,0
          67.07474,24.8334,0
          67.07535,24.83308,0
          67.07552,24.83298,0
          67.07593,24.83274,0
          67.07633,24.83251,0
          67.07701,24.8321,0
          67.07715,24.8321,0
          67.0772,24.83208,0
          67.07818,24.83153,0
          67.07824,24.8315,0
          67.07853,24.83134,0
          67.07879,24.8312,0
          67.07903,24.83106,0
          67.07918,24.831,0
          67.07922,24.83098,0
          67.07926,24.83096,0
          67.07936,24.83094,0
          67.07946,24.83092,0
          67.07949,24.83093,0
          67.07957,24.83094,0
          67.07964,24.83094,0
          67.07965,24.83094,0
          67.07968,24.83094,0
          67.0797,24.83095,0
          67.07976,24.83095,0
          67.07979,24.83095,0
          67.0798,24.83095,0
          67.07986,24.83094,0
          67.07987,24.83094,0
          67.07989,24.83094,0
          67.07996,24.83093,0
          67.08006,24.83091,0
          67.08018,24.83088,0
          67.08027,24.83084,0
          67.08037,24.83079,0
          67.08043,24.83075,0
          67.08045,24.83074,0
          67.08052,24.83069,0
          67.08053,24.83068,0
          67.08056,24.83066,0
          67.08059,24.83064,0
          67.08062,24.83062,0
          67.08066,24.83059,0
          67.08069,24.83055,0
          67.08071,24.83054,0
          67.08077,24.83048,0
          67.08084,24.8304,0
          67.08088,24.83034,0
          67.08091,24.83028,0
          67.08094,24.83021,0
          67.08097,24.83012,0
          67.08098,24.83007,0
          67.08101,24.82999,0
          67.08105,24.8299,0
          67.08107,24.82984,0
          67.0811,24.8298,0
          67.08113,24.82975,0
          67.08116,24.8297,0
          67.0812,24.82965,0
          67.08126,24.82961,0
          67.08133,24.82957,0
          67.08137,24.82954,0
          67.08186,24.82923,0
          67.08215,24.82905,0
          67.08298,24.82861,0
          67.08329,24.82833,0
          67.08342,24.82827,0
          67.0838,24.82804,0
          67.08388,24.82799,0
          67.08399,24.82792,0
          67.08413,24.82783,0
          67.0842,24.82778,0
          67.08428,24.82774,0
          67.08444,24.82763,0
          67.08552,24.82713,0
          67.08622,24.82679,0
          67.08701,24.82642,0
          67.08842,24.82573,0
          67.08868,24.82561,0
          67.089,24.82546,0
          67.08942,24.82528,0
          67.08956,24.82522,0
          67.09,24.82503,0
          67.09014,24.82496,0
          67.09052,24.82475,0
          67.0909,24.82454,0
          67.09123,24.82435,0
          67.09154,24.82419,0
          67.09164,24.82414,0
          67.09183,24.82405,0
          67.0923,24.82382,0
          67.09276,24.8236,0
          67.09303,24.82348,0
          67.09312,24.82344,0
          67.09319,24.82341,0
          67.09327,24.82338,0
          67.09335,24.82335,0
          67.09352,24.82329,0
          67.09368,24.82323,0
          67.0938,24.82319,0
          67.09403,24.82312,0
          67.09433,24.82303,0
          67.09519,24.82277,0
          67.09628,24.82244,0
          67.09801,24.82194,0
          67.09818,24.82189,0
          67.09839,24.82183,0
          67.09976,24.82141,0
          67.09981,24.8214,0
          67.10051,24.82118,0
          67.10122,24.82096,0
          67.10187,24.82074,0
          67.10236,24.82058,0
          67.10297,24.82035,0
          67.10305,24.82032,0
          67.10311,24.82029,0
          67.10316,24.82027,0
          67.10321,24.82025,0
          67.10455,24.81934,0
          67.10589,24.81843,0
          67.1059,24.81842,0
          67.106,24.81835,0
          67.1063,24.81812,0
          67.10638,24.81806,0
          67.10658,24.81791,0
          67.1067,24.81783,0
          67.10676,24.81779,0
          67.1068,24.81776,0
          67.10693,24.81769,0
          67.10709,24.81759,0
          67.1071,24.81758,0
          67.10731,24.81744,0
          67.10765,24.81721,0
          67.10782,24.8171,0
          67.10789,24.81705,0
          67.10796,24.81701,0
          67.10803,24.81696,0
          67.1081,24.81691,0
          67.10837,24.81672,0
          67.109,24.81638,0
          67.10902,24.81636,0
          67.10916,24.81628,0
          67.10935,24.81617,0
          67.1096,24.81603,0
          67.10981,24.81591,0
          67.10992,24.81586,0
          67.11003,24.8158,0
          67.11082,24.81541,0
          67.11092,24.81536,0
          67.11169,24.81497,0
          67.11238,24.81461,0
          67.1129,24.81434,0
          67.11318,24.81419,0
          67.11395,24.81379,0
          67.11448,24.81351,0
          67.11494,24.81327,0
          67.11505,24.81323,0
          67.1151,24.81321,0
          67.11534,24.81311,0
          67.11551,24.81302,0
          67.11559,24.81298,0
          67.11583,24.81286,0
          67.11613,24.8127,0
          67.11619,24.81267,0
          67.1162,24.81266,0
          67.11636,24.81258,0
          67.11652,24.81248,0
          67.11705,24.81215,0
          67.11716,24.81208,0
          67.11721,24.81204,0
          67.11729,24.812,0
          67.11744,24.81193,0
          67.11791,24.81167,0
          67.11794,24.81166,0
          67.11842,24.81139,0
          67.12047,24.81022,0
          67.122083,24.809322,0
          67.12286,24.80889,0
          67.12315,24.80872,0
          67.12331,24.80862,0
          67.12348,24.80853,0
          67.12515,24.80756,0
          67.12565,24.80727,0
          67.12581,24.80718,0
          67.1262,24.80695,0
          67.1264,24.80684,0
          67.12658,24.80674,0
          67.12729,24.80632,0
          67.12796,24.80594,0
          67.128436,24.80566,0
          67.13012,24.80466,0
          67.13228,24.80339,0
          67.13294,24.80299,0
          67.13302,24.80289,0
          67.13312,24.80277,0
          67.13317,24.80269,0
          67.13322,24.80258,0
          67.13329,24.80235,0
          67.13341,24.80189,0
          67.13354,24.80142,0
          67.13361,24.80113,0
          67.13366,24.80094,0
          67.13368,24.80088,0
          67.1337,24.8008,0
          67.13375,24.80054,0
          67.13378,24.80039,0
          67.13382,24.80025,0
          67.13391,24.80004,0
          67.13395,24.79998,0
          67.13399,24.79991,0
          67.13404,24.79985,0
          67.13425,24.7996,0
          67.13449,24.79936,0
          67.13466,24.79918,0
          67.13482,24.79901,0
          67.13492,24.79889,0
          67.13503,24.79875,0
          67.13514,24.79858,0
          67.13517,24.79852,0
          67.1352,24.79841,0
          67.1354,24.79804,0
          67.13551,24.79783,0
          67.13562,24.79753,0
          67.13565,24.79745,0
          67.13569,24.79734,0
          67.1358,24.79696,0
          67.1359,24.7966,0
          67.13596,24.79643,0
          67.13598,24.79635,0
          67.13599,24.79628,0
          67.13604,24.79605,0
          67.13606,24.79591,0
          67.13609,24.79571,0
          67.13612,24.79546,0
          67.13616,24.79506,0
          67.13618,24.79477,0
          67.13619,24.79456,0
          67.13619,24.79453,0
        </coordinates>
      </LineString>
    </Placemark>
  </Document>
</kml>
