<?xml version="1.0" encoding="UTF-8"?>
<kml xmlns="http://www.opengis.net/kml/2.2">
  <Document>
    <name>Untitled layer</name>
    <Style id="line-9C27B0-5000-normal">
      <LineStyle>
        <color>ffb0279c</color>
        <width>5</width>
      </LineStyle>
    </Style>
    <Style id="line-9C27B0-5000-highlight">
      <LineStyle>
        <color>ffb0279c</color>
        <width>7.5</width>
      </LineStyle>
    </Style>
    <StyleMap id="line-9C27B0-5000">
      <Pair>
        <key>normal</key>
        <styleUrl>#line-9C27B0-5000-normal</styleUrl>
      </Pair>
      <Pair>
        <key>highlight</key>
        <styleUrl>#line-9C27B0-5000-highlight</styleUrl>
      </Pair>
    </StyleMap>
    <Placemark>
      <name>R11 (Miran Nakka to Ziauddin Hospital)</name>
      <description><![CDATA[description: <br>Route: R11<br>Direction: R11_UP]]></description>
      <styleUrl>#line-9C27B0-5000</styleUrl>
      <ExtendedData>
        <Data name="description">
          <value/>
        </Data>
        <Data name="Route">
          <value>R11</value>
        </Data>
        <Data name="Direction">
          <value>R11_UP</value>
        </Data>
      </ExtendedData>
      <LineString>
        <tessellate>1</tessellate>
        <coordinates>
          66.995567,24.879511,0
          66.995309,24.879463,0
          66.994983,24.879321,0
          66.994392,24.879051,0
          66.993711,24.878765,0
          66.993127,24.878512,0
          66.99237,24.87821,0
          66.99219,24.87812,0
          66.99194,24.87802,0
          66.99132,24.87775,0
          66.99114,24.87767,0
          66.99096,24.8776,0
          66.9906,24.87743,0
          66.99042,24.87734,0
          66.99031,24.8773,0
          66.99024,24.87726,0
          66.99008,24.87719,0
          66.98952,24.87695,0
          66.98897,24.87672,0
          66.98872,24.8766,0
          66.98853,24.87651,0
          66.98842,24.87644,0
          66.9884,24.87642,0
          66.98835,24.87637,0
          66.98828,24.8763,0
          66.98818,24.87626,0
          66.98789,24.87615,0
          66.98771,24.87607,0
          66.98749,24.87597,0
          66.98734,24.8759,0
          66.98702,24.87576,0
          66.98671,24.87563,0
          66.9864,24.8755,0
          66.9862,24.87541,0
          66.98603,24.87534,0
          66.98533,24.87504,0
          66.98522,24.87501,0
          66.98509,24.87497,0
          66.98443,24.87469,0
          66.98388,24.87446,0
          66.98362,24.87434,0
          66.98341,24.87425,0
          66.98332,24.87421,0
          66.983,24.87407,0
          66.98287,24.87401,0
          66.98274,24.87396,0
          66.98246,24.87384,0
          66.98223,24.87373,0
          66.98206,24.87366,0
          66.98193,24.8736,0
          66.98178,24.87354,0
          66.98129,24.87332,0
          66.98118,24.87322,0
          66.98104,24.87316,0
          66.98089,24.87309,0
          66.98073,24.87303,0
          66.98057,24.87296,0
          66.98034,24.87286,0
          66.9802,24.8728,0
          66.98004,24.87273,0
          66.97987,24.87265,0
          66.97974,24.8726,0
          66.97955,24.87252,0
          66.97939,24.87245,0
          66.97924,24.87238,0
          66.9791,24.87232,0
          66.97891,24.87224,0
          66.97878,24.87216,0
          66.97862,24.87206,0
          66.97827,24.87181,0
          66.97819,24.87176,0
          66.97808,24.87169,0
          66.97787,24.87154,0
          66.97741,24.8713,0
          66.97732,24.87128,0
          66.97726,24.87122,0
          66.97699,24.87091,0
          66.97691,24.87083,0
          66.97708,24.8707,0
          66.97709,24.8707,0
          66.97718,24.87063,0
          66.97744,24.87042,0
          66.97757,24.8703,0
          66.97776,24.87014,0
          66.97779,24.87011,0
          66.97794,24.86998,0
          66.97808,24.86987,0
          66.97822,24.86978,0
          66.97835,24.8697,0
          66.97848,24.86961,0
          66.97906,24.86925,0
          66.97937,24.86906,0
          66.97962,24.86891,0
          66.97969,24.86887,0
          66.97981,24.8688,0
          66.97996,24.8687,0
          66.98021,24.86854,0
          66.98038,24.86842,0
          66.98048,24.86835,0
          66.98056,24.86831,0
          66.98069,24.86823,0
          66.98108,24.86796,0
          66.98133,24.86779,0
          66.98166,24.86755,0
          66.98225,24.86716,0
          66.98307,24.86665,0
          66.98319,24.86658,0
          66.98363,24.8663,0
          66.984,24.86607,0
          66.98404,24.86605,0
          66.98428,24.8659,0
          66.98432,24.86587,0
          66.98442,24.86582,0
          66.98462,24.86568,0
          66.98476,24.86559,0
          66.9849,24.86548,0
          66.98504,24.86537,0
          66.98514,24.86529,0
          66.98525,24.86521,0
          66.98539,24.8651,0
          66.98557,24.86493,0
          66.98561,24.86488,0
          66.98569,24.86477,0
          66.98581,24.86463,0
          66.98595,24.86444,0
          66.9861,24.86421,0
          66.98619,24.86407,0
          66.98625,24.86398,0
          66.98636,24.86377,0
          66.98645,24.86358,0
          66.98657,24.86335,0
          66.98667,24.86314,0
          66.98676,24.86291,0
          66.98686,24.86262,0
          66.98692,24.86241,0
          66.98696,24.86227,0
          66.98702,24.86203,0
          66.98708,24.86177,0
          66.98713,24.86144,0
          66.98717,24.86112,0
          66.98723,24.86059,0
          66.98723,24.86023,0
          66.98724,24.86,0
          66.98723,24.8598,0
          66.98722,24.85929,0
          66.98717,24.858,0
          66.98716,24.85783,0
          66.98715,24.8576,0
          66.98716,24.85739,0
          66.98716,24.85722,0
          66.98718,24.85705,0
          66.9872,24.85692,0
          66.98722,24.85681,0
          66.98728,24.8566,0
          66.98729,24.85657,0
          66.98734,24.85643,0
          66.98742,24.85623,0
          66.98748,24.85606,0
          66.9875,24.85603,0
          66.98759,24.8558,0
          66.98774,24.85544,0
          66.98788,24.85512,0
          66.98801,24.85483,0
          66.98814,24.85452,0
          66.98821,24.85436,0
          66.98828,24.85413,0
          66.98828,24.85411,0
          66.9883,24.85405,0
          66.9883,24.85403,0
          66.98832,24.85391,0
          66.98831,24.85382,0
          66.9883,24.85371,0
          66.98829,24.85366,0
          66.98821,24.85333,0
          66.98819,24.85327,0
          66.98818,24.85321,0
          66.98812,24.85297,0
          66.98805,24.85261,0
          66.98802,24.85249,0
          66.988,24.8524,0
          66.98799,24.8523,0
          66.98799,24.85226,0
          66.98798,24.85219,0
          66.98798,24.85215,0
          66.98798,24.8521,0
          66.988,24.85199,0
          66.98802,24.85189,0
          66.98805,24.8518,0
          66.98808,24.85171,0
          66.98812,24.85163,0
          66.98816,24.85155,0
          66.98829,24.85135,0
          66.98839,24.8512,0
          66.98848,24.85105,0
          66.98849,24.85104,0
          66.9885,24.85102,0
          66.98852,24.85099,0
          66.98866,24.85077,0
          66.98871,24.8507,0
          66.9891,24.85008,0
          66.9891,24.85007,0
          66.9893,24.84976,0
          66.98936,24.84966,0
          66.98942,24.84957,0
          66.98949,24.84946,0
          66.98974,24.84908,0
          66.98984,24.84892,0
          66.98996,24.84874,0
          66.99002,24.84866,0
          66.99013,24.84851,0
          66.99026,24.84832,0
          66.99058,24.84784,0
          66.99061,24.84779,0
          66.99081,24.84748,0
          66.99097,24.84724,0
          66.99131,24.84671,0
          66.99145,24.84649,0
          66.99148,24.84644,0
          66.99152,24.84641,0
          66.99153,24.84639,0
          66.99159,24.84635,0
          66.99165,24.84633,0
          66.99173,24.84631,0
          66.99188,24.84628,0
          66.99197,24.84632,0
          66.99206,24.84634,0
          66.99215,24.84635,0
          66.99224,24.84636,0
          66.99233,24.84635,0
          66.99241,24.84634,0
          66.99249,24.84632,0
          66.99255,24.8463,0
          66.9926,24.84627,0
          66.99266,24.84624,0
          66.99272,24.84621,0
          66.99278,24.84616,0
          66.99284,24.84611,0
          66.9929,24.84604,0
          66.99296,24.84597,0
          66.99299,24.84589,0
          66.99302,24.84582,0
          66.99304,24.84576,0
          66.99306,24.84568,0
          66.99307,24.8456,0
          66.9931,24.84554,0
          66.99313,24.84546,0
          66.99318,24.84538,0
          66.99324,24.84532,0
          66.9933,24.84529,0
          66.99339,24.84525,0
          66.99348,24.84524,0
          66.99358,24.84524,0
          66.99365,24.84525,0
          66.9937,24.84525,0
          66.99378,24.84528,0
          66.99389,24.8453,0
          66.99461,24.84549,0
          66.99462,24.84549,0
          66.99483,24.84554,0
          66.995,24.84557,0
          66.9952,24.8456,0
          66.9954,24.84562,0
          66.99561,24.84562,0
          66.99579,24.84561,0
          66.99598,24.84559,0
          66.9961,24.84558,0
          66.99625,24.84556,0
          66.99801,24.84521,0
          66.99847,24.84512,0
          66.99872,24.84507,0
          66.99956,24.84492,0
          67.00003,24.84485,0
          67.00034,24.84482,0
          67.00061,24.84479,0
          67.00093,24.84477,0
          67.0013,24.84472,0
          67.00142,24.8447,0
          67.00187,24.84461,0
          67.00221,24.84454,0
          67.00278,24.84442,0
          67.00292,24.84439,0
          67.00337,24.84427,0
          67.00349,24.84424,0
          67.00372,24.84419,0
          67.00395,24.84414,0
          67.00419,24.84409,0
          67.00466,24.84401,0
          67.00491,24.84396,0
          67.00525,24.8439,0
          67.00615,24.84372,0
          67.00625,24.8437,0
          67.00641,24.84367,0
          67.00642,24.84367,0
          67.00648,24.84366,0
          67.0068,24.84359,0
          67.00699,24.84355,0
          67.007,24.84355,0
          67.00736,24.84348,0
          67.00757,24.84344,0
          67.00758,24.84344,0
          67.00769,24.84342,0
          67.00799,24.84337,0
          67.00815,24.84334,0
          67.00816,24.84334,0
          67.00854,24.84326,0
          67.00869,24.84323,0
          67.009,24.84317,0
          67.00921,24.84314,0
          67.00931,24.84312,0
          67.00951,24.8431,0
          67.00964,24.84309,0
          67.0098,24.84309,0
          67.01003,24.8431,0
          67.01022,24.8431,0
          67.01073,24.84311,0
          67.0111,24.84312,0
          67.01164,24.84313,0
          67.01216,24.84313,0
          67.01263,24.84314,0
          67.01317,24.84315,0
          67.01375,24.84317,0
          67.01431,24.84318,0
          67.01479,24.84319,0
          67.0153,24.8432,0
          67.01557,24.8432,0
          67.01617,24.84321,0
          67.01652,24.84325,0
          67.01681,24.84329,0
          67.01689,24.84331,0
          67.01692,24.84331,0
          67.0171,24.84336,0
          67.01731,24.84342,0
          67.01752,24.84349,0
          67.01764,24.84353,0
          67.01784,24.8436,0
          67.01839,24.8438,0
          67.01858,24.84386,0
          67.01877,24.84392,0
          67.01886,24.84395,0
          67.01923,24.84409,0
          67.0195,24.84419,0
          67.01955,24.84421,0
          67.01979,24.84431,0
          67.02,24.84441,0
          67.02022,24.84451,0
          67.02039,24.8446,0
          67.0205,24.84461,0
          67.02056,24.84464,0
          67.02067,24.84469,0
          67.02075,24.84474,0
          67.02097,24.84484,0
          67.02116,24.84494,0
          67.02132,24.84501,0
          67.02146,24.84508,0
          67.02155,24.84512,0
          67.02162,24.84516,0
          67.02163,24.84517,0
          67.02172,24.84523,0
          67.02176,24.84527,0
          67.0218,24.8453,0
          67.02188,24.84539,0
          67.02198,24.8455,0
          67.0221,24.84565,0
          67.02226,24.84583,0
          67.02237,24.84594,0
          67.02241,24.84598,0
          67.02246,24.84602,0
          67.02253,24.84607,0
          67.02256,24.8461,0
          67.02262,24.84613,0
          67.02272,24.84617,0
          67.02282,24.84621,0
          67.02293,24.84624,0
          67.02294,24.84624,0
          67.02312,24.84628,0
          67.02331,24.84632,0
          67.02348,24.84635,0
          67.02386,24.84641,0
          67.0239,24.84642,0
          67.02406,24.84645,0
          67.0241,24.84646,0
          67.02421,24.84652,0
          67.02429,24.84655,0
          67.0244,24.84658,0
          67.02454,24.84661,0
          67.02466,24.84663,0
          67.02474,24.84665,0
          67.02486,24.84671,0
          67.02498,24.84662,0
          67.02548,24.84622,0
          67.02549,24.84622,0
          67.02563,24.8461,0
          67.02601,24.84582,0
          67.02657,24.8454,0
          67.02671,24.84529,0
          67.02672,24.84529,0
          67.02677,24.84525,0
          67.02703,24.84507,0
          67.02765,24.84462,0
          67.02779,24.84452,0
          67.02823,24.8442,0
          67.02899,24.84362,0
          67.0291,24.84354,0
          67.02914,24.8435,0
          67.02956,24.8432,0
          67.03007,24.84283,0
          67.03019,24.84275,0
          67.03026,24.84269,0
          67.03073,24.84235,0
          67.03092,24.84221,0
          67.03142,24.84186,0
          67.03185,24.84161,0
          67.032,24.84153,0
          67.03217,24.84141,0
          67.03218,24.84141,0
          67.03228,24.84133,0
          67.03234,24.84127,0
          67.0325,24.84111,0
          67.03255,24.84104,0
          67.03267,24.84089,0
          67.03268,24.84088,0
          67.03277,24.84077,0
          67.03286,24.84066,0
          67.03295,24.84053,0
          67.03306,24.84039,0
          67.03309,24.84037,0
          67.03332,24.84008,0
          67.03344,24.83993,0
          67.03357,24.83977,0
          67.03359,24.83974,0
          67.03366,24.83966,0
          67.03373,24.83958,0
          67.03378,24.83953,0
          67.03382,24.83947,0
          67.03407,24.83917,0
          67.03411,24.83912,0
          67.0343,24.83888,0
          67.03489,24.83815,0
          67.03514,24.83783,0
          67.03525,24.83771,0
          67.03532,24.83762,0
          67.03558,24.83735,0
          67.03558,24.83734,0
          67.0358,24.83711,0
          67.03592,24.83698,0
          67.03598,24.8369,0
          67.03604,24.83683,0
          67.03608,24.83678,0
          67.03618,24.83666,0
          67.03644,24.83638,0
          67.03655,24.83625,0
          67.03656,24.83624,0
          67.0368,24.83595,0
          67.03691,24.83581,0
          67.03702,24.83567,0
          67.03714,24.83551,0
          67.03726,24.83537,0
          67.03728,24.83534,0
          67.03731,24.83529,0
          67.03796,24.8345,0
          67.03801,24.83443,0
          67.0383,24.83408,0
          67.03861,24.83369,0
          67.03904,24.83317,0
          67.03915,24.83303,0
          67.03937,24.83272,0
          67.03966,24.83232,0
          67.0398,24.83213,0
          67.03997,24.83184,0
          67.04008,24.83165,0
          67.0403,24.83129,0
          67.04059,24.83082,0
          67.04088,24.83034,0
          67.04138,24.82949,0
          67.04154,24.82919,0
          67.04168,24.82892,0
          67.04174,24.82877,0
          67.0418,24.82863,0
          67.04189,24.82853,0
          67.04192,24.82849,0
          67.04202,24.82831,0
          67.04217,24.82807,0
          67.04219,24.82803,0
          67.04222,24.82799,0
          67.04232,24.82782,0
          67.04237,24.82773,0
          67.04257,24.82741,0
          67.04265,24.82728,0
          67.04299,24.8267,0
          67.04305,24.8266,0
          67.04333,24.82608,0
          67.04353,24.82574,0
          67.04371,24.82542,0
          67.04373,24.82538,0
          67.04375,24.82534,0
          67.04389,24.8251,0
          67.04394,24.82502,0
          67.04404,24.82484,0
          67.04413,24.8247,0
          67.04424,24.82453,0
          67.0443,24.82442,0
          67.04446,24.82418,0
          67.04453,24.82408,0
          67.04455,24.82407,0
          67.0446,24.82399,0
          67.04475,24.8238,0
          67.0451,24.82339,0
          67.04514,24.82335,0
          67.04525,24.82322,0
          67.04527,24.82321,0
          67.0455,24.82295,0
          67.04552,24.82293,0
          67.04577,24.82265,0
          67.0458,24.82261,0
          67.04592,24.82246,0
          67.04592,24.82245,0
          67.046,24.82233,0
          67.04609,24.8222,0
          67.0462,24.82202,0
          67.04621,24.82201,0
          67.04629,24.82186,0
          67.0463,24.82184,0
          67.04647,24.82154,0
          67.04668,24.82118,0
          67.04669,24.82117,0
          67.04687,24.82087,0
          67.04706,24.82059,0
          67.04706,24.82058,0
          67.04719,24.82037,0
          67.04732,24.8202,0
          67.04752,24.81995,0
          67.04774,24.81971,0
          67.04803,24.81945,0
          67.04804,24.81944,0
          67.04868,24.81891,0
          67.04982,24.81803,0
          67.05001,24.81788,0
          67.05048,24.8175,0
          67.05094,24.81714,0
          67.05126,24.81687,0
          67.05132,24.81683,0
          67.05125,24.81677,0
          67.0512,24.81672,0
          67.05114,24.81667,0
          67.05106,24.81659,0
          67.05067,24.81618,0
          67.05053,24.81603,0
          67.05024,24.81572,0
          67.04985,24.81531,0
          67.04969,24.81514,0
          67.04924,24.81467,0
          67.04891,24.81434,0
          67.04856,24.81395,0
          67.04813,24.81349,0
          67.04796,24.81333,0
          67.04756,24.81292,0
          67.04727,24.81262,0
          67.04722,24.81257,0
          67.04624,24.81154,0
          67.04494,24.81018,0
          67.04298,24.80818,0
          67.04294,24.80814,0
          67.04244,24.8076,0
          67.04156,24.80666,0
          67.04039,24.80546,0
          67.04036,24.80542,0
          67.0397,24.80591,0
          67.03961,24.80597,0
          67.03953,24.80602,0
          67.0395,24.80605,0
          67.03948,24.80607,0
          67.03891,24.80642,0
          67.03809,24.80693,0
          67.03625,24.80811,0
          67.03574,24.80844,0
          67.03569,24.80848,0
          67.03564,24.80851,0
          67.03549,24.80858,0
          67.03499,24.80883,0
          67.03463,24.809,0
          67.03391,24.80936,0
          67.0338,24.80943,0
          67.03364,24.80952,0
          67.03338,24.80965,0
          67.03303,24.80983,0
          67.03288,24.8099,0
          67.0327,24.80999,0
          67.03258,24.81005,0
          67.0322,24.81024,0
          67.03212,24.81029,0
          67.0321,24.8103,0
          67.03196,24.81037,0
          67.03194,24.81037,0
          67.03177,24.81046,0
          67.03169,24.8105,0
          67.03157,24.81056,0
          67.03138,24.81065,0
          67.03118,24.81077,0
          67.03115,24.81079,0
          67.0308,24.81101,0
          67.03046,24.81122,0
          67.03029,24.81133,0
          67.03009,24.81145,0
          67.02993,24.81156,0
          67.02974,24.81171,0
          67.02932,24.81208,0
          67.02916,24.81222,0
          67.02909,24.81228,0
          67.02904,24.81231,0
          67.02898,24.81234,0
          67.02887,24.81238,0
          67.02866,24.81244,0
          67.02838,24.81258,0
          67.02819,24.81267,0
          67.02811,24.81272,0
          67.02804,24.81277,0
          67.02797,24.81285,0
          67.02785,24.81296,0
          67.02774,24.8131,0
          67.02761,24.81323,0
          67.02749,24.81334,0
          67.02739,24.81342,0
          67.02734,24.81346,0
          67.02714,24.81359,0
          67.02709,24.81365,0
          67.02706,24.81367,0
          67.027,24.8137,0
          67.0269,24.81376,0
          67.02669,24.81387,0
          67.02643,24.81401,0
          67.02629,24.81407,0
          67.02615,24.81413,0
          67.02602,24.81417,0
          67.02593,24.81421,0
          67.02569,24.81431,0
          67.02552,24.81437,0
          67.02546,24.81439,0
          67.02537,24.8144,0
          67.02496,24.81444,0
          67.02473,24.81445,0
          67.02454,24.81445,0
          67.0244,24.81444,0
          67.0242,24.81442,0
          67.02391,24.81439,0
          67.02381,24.81439,0
          67.02374,24.81439,0
          67.02366,24.81439,0
          67.02361,24.81439,0
          67.02351,24.81441,0
          67.02328,24.81447,0
          67.0224,24.8148,0
          67.02227,24.81484,0
          67.02129,24.8152,0
          67.02124,24.81522,0
          67.0212,24.81523,0
          67.02116,24.81524,0
          67.0211,24.81524,0
          67.021,24.81525,0
          67.02093,24.81525,0
          67.02089,24.81525,0
          67.02088,24.81525,0
          67.02087,24.81525,0
          67.02085,24.81526,0
          67.02079,24.81528,0
          67.02078,24.81527,0
          67.02077,24.81527,0
          67.02076,24.81526,0
          67.02075,24.81525,0
          67.02074,24.81524,0
          67.02073,24.81524,0
          67.02071,24.81523,0
          67.0207,24.81523,0
          67.02064,24.81521,0
          67.02058,24.81519,0
          67.02051,24.81519,0
          67.02045,24.8152,0
          67.02039,24.81521,0
          67.02033,24.81524,0
          67.02028,24.81527,0
          67.02023,24.81531,0
          67.02018,24.81536,0
          67.02017,24.81538,0
          67.02016,24.8154,0
          67.02015,24.81542,0
          67.02014,24.81544,0
          67.02014,24.81546,0
          67.02013,24.81548,0
          67.02013,24.81551,0
          67.02013,24.81553,0
          67.02,24.8156,0
          67.01997,24.81563,0
          67.01992,24.81567,0
          67.01975,24.81576,0
          67.01928,24.81595,0
          67.01867,24.81619,0
          67.01794,24.81645,0
          67.01727,24.8167,0
          67.01699,24.81679,0
          67.01654,24.81693,0
          67.01614,24.81703,0
          67.0158,24.81709,0
          67.01553,24.81711,0
          67.01536,24.8171,0
          67.01522,24.81708,0
          67.01507,24.81705,0
          67.01483,24.81699,0
          67.01387,24.81671,0
          67.01316,24.81648,0
          67.01219,24.81621,0
          67.01205,24.81618,0
          67.01194,24.81617,0
          67.01184,24.81616,0
          67.01173,24.81615,0
          67.01154,24.81617,0
          67.01123,24.81622,0
          67.01035,24.81636,0
          67.00943,24.81652,0
          67.00886,24.81662,0
          67.00846,24.81667,0
          67.00701,24.81687,0
          67.0069,24.81686,0
          67.00689,24.81686,0
          67.00687,24.81684,0
          67.00686,24.81683,0
          67.00684,24.81683,0
          67.00683,24.81682,0
          67.00681,24.81681,0
          67.0068,24.81681,0
          67.00678,24.8168,0
          67.00677,24.8168,0
          67.00675,24.8168,0
          67.00674,24.8168,0
          67.00673,24.8168,0
          67.00672,24.8168,0
          67.0067,24.8168,0
          67.00669,24.8168,0
          67.00668,24.81681,0
          67.00666,24.81681,0
          67.00664,24.81682,0
          67.00663,24.81683,0
          67.00661,24.81684,0
          67.0066,24.81685,0
          67.00659,24.81686,0
          67.00658,24.81687,0
          67.00657,24.81688,0
          67.00656,24.81689,0
          67.00656,24.81691,0
          67.00655,24.81693,0
          67.00654,24.81694,0
          67.00654,24.81696,0
          67.00654,24.81697,0
          67.00654,24.81698,0
          67.00654,24.817,0
          67.00654,24.81701,0
          67.00655,24.81703,0
          67.00655,24.81704,0
          67.00656,24.81705,0
          67.00657,24.81707,0
          67.00657,24.81708,0
          67.00658,24.81709,0
          67.00659,24.8171,0
          67.0066,24.81711,0
          67.00663,24.81713,0
          67.00666,24.81714,0
          67.00669,24.81715,0
          67.00672,24.81716,0
          67.00675,24.81719,0
          67.00688,24.81729,0
          67.00693,24.81734,0
          67.00696,24.81735,0
          67.00701,24.81736,0
          67.00703,24.81736,0
          67.00705,24.81736,0
          67.00708,24.81735,0
          67.0071,24.81733,0
          67.00712,24.8173,0
          67.00714,24.81726,0
          67.00716,24.81723,0
          67.00716,24.81721,0
        </coordinates>
      </LineString>
    </Placemark>
  </Document>
</kml>
