<?xml version="1.0" encoding="UTF-8"?>
<kml xmlns="http://www.opengis.net/kml/2.2">
  <Document>
    <name>Untitled layer</name>
    <Style id="line-558B2F-5000-normal">
      <LineStyle>
        <color>ff2f8b55</color>
        <width>5</width>
      </LineStyle>
    </Style>
    <Style id="line-558B2F-5000-highlight">
      <LineStyle>
        <color>ff2f8b55</color>
        <width>7.5</width>
      </LineStyle>
    </Style>
    <StyleMap id="line-558B2F-5000">
      <Pair>
        <key>normal</key>
        <styleUrl>#line-558B2F-5000-normal</styleUrl>
      </Pair>
      <Pair>
        <key>highlight</key>
        <styleUrl>#line-558B2F-5000-highlight</styleUrl>
      </Pair>
    </StyleMap>
    <Placemark>
      <name>R12 (Memon Goth to Lucky Star)</name>
      <description><![CDATA[description: <br>Route: <br>Direction: ]]></description>
      <styleUrl>#line-558B2F-5000</styleUrl>
      <ExtendedData>
        <Data name="description">
          <value/>
        </Data>
        <Data name="Route">
          <value/>
        </Data>
        <Data name="Direction">
          <value/>
        </Data>
      </ExtendedData>
      <LineString>
        <tessellate>1</tessellate>
        <coordinates>
          67.24588,24.91351,0
          67.24444,24.9132,0
          67.24439,24.91318,0
          67.2438,24.91303,0
          67.24331,24.91293,0
          67.2423,24.91264,0
          67.2405,24.91218,0
          67.23922,24.91192,0
          67.23728,24.91163,0
          67.23719,24.91161,0
          67.23506,24.91127,0
          67.23489,24.91125,0
          67.23475,24.91125,0
          67.23429,24.91134,0
          67.23363,24.91151,0
          67.2335,24.91155,0
          67.23224,24.91182,0
          67.23223,24.91182,0
          67.23175,24.9119,0
          67.23166,24.9119,0
          67.23161,24.91189,0
          67.23157,24.91189,0
          67.23148,24.91186,0
          67.23094,24.91174,0
          67.23087,24.91173,0
          67.22823,24.91118,0
          67.22732,24.91101,0
          67.22726,24.91099,0
          67.22711,24.91096,0
          67.22522,24.91048,0
          67.2251,24.91046,0
          67.22504,24.91046,0
          67.22451,24.91039,0
          67.22445,24.91035,0
          67.22426,24.91033,0
          67.22413,24.91034,0
          67.22381,24.91034,0
          67.22321,24.91036,0
          67.22278,24.91036,0
          67.22264,24.91037,0
          67.22158,24.91037,0
          67.21964,24.91042,0
          67.21951,24.91041,0
          67.21944,24.91041,0
          67.21923,24.91038,0
          67.21889,24.9103,0
          67.21887,24.91029,0
          67.21876,24.91027,0
          67.21852,24.9102,0
          67.21714,24.90987,0
          67.21704,24.90984,0
          67.21654,24.90972,0
          67.21503,24.90929,0
          67.21492,24.90925,0
          67.21455,24.90915,0
          67.21402,24.90893,0
          67.2138,24.9088,0
          67.21337,24.90852,0
          67.21231,24.90777,0
          67.21229,24.90776,0
          67.21218,24.90768,0
          67.21185,24.90741,0
          67.21181,24.90737,0
          67.21145,24.90707,0
          67.21138,24.90702,0
          67.21115,24.90681,0
          67.21094,24.90665,0
          67.21089,24.9066,0
          67.21066,24.90642,0
          67.21038,24.90622,0
          67.21034,24.9062,0
          67.20989,24.90593,0
          67.20924,24.9055,0
          67.20917,24.90547,0
          67.2078,24.90465,0
          67.2076,24.90452,0
          67.20737,24.90439,0
          67.20489,24.90286,0
          67.20482,24.90281,0
          67.20379,24.90217,0
          67.20368,24.90209,0
          67.20252,24.90138,0
          67.20195,24.901,0
          67.20161,24.90081,0
          67.20152,24.90078,0
          67.20145,24.90077,0
          67.20139,24.90077,0
          67.20136,24.90076,0
          67.20132,24.90076,0
          67.20116,24.90084,0
          67.20112,24.90087,0
          67.20108,24.90089,0
          67.20104,24.90092,0
          67.20104,24.90095,0
          67.20105,24.90096,0
          67.20105,24.90097,0
          67.20108,24.90099,0
          67.20104,24.90104,0
          67.20101,24.9011,0
          67.20097,24.90121,0
          67.20083,24.9015,0
          67.20066,24.90189,0
          67.20037,24.90241,0
          67.20029,24.90253,0
          67.20013,24.9028,0
          67.20007,24.90287,0
          67.19999,24.90295,0
          67.19993,24.90299,0
          67.19988,24.90301,0
          67.19982,24.90302,0
          67.1997,24.90302,0
          67.19919,24.90291,0
          67.19882,24.9028,0
          67.1978,24.90257,0
          67.1977,24.90254,0
          67.19759,24.90248,0
          67.19754,24.90243,0
          67.19667,24.90138,0
          67.19636,24.90104,0
          67.19478,24.89914,0
          67.19475,24.89911,0
          67.19371,24.89784,0
          67.19328,24.89735,0
          67.19316,24.8972,0
          67.19309,24.8971,0
          67.19262,24.89654,0
          67.19237,24.89626,0
          67.18895,24.89215,0
          67.18893,24.89212,0
          67.18839,24.89146,0
          67.18784,24.89082,0
          67.18737,24.89024,0
          67.18666,24.88953,0
          67.18654,24.88939,0
          67.18647,24.88932,0
          67.18637,24.8892,0
          67.18633,24.88912,0
          67.18628,24.88904,0
          67.18625,24.88897,0
          67.18623,24.88882,0
          67.18623,24.8883,0
          67.18621,24.88781,0
          67.18619,24.88771,0
          67.18618,24.88761,0
          67.18615,24.88745,0
          67.18602,24.88695,0
          67.18587,24.88654,0
          67.18579,24.88638,0
          67.18571,24.88624,0
          67.18552,24.88597,0
          67.18501,24.88533,0
          67.18432,24.88455,0
          67.18283,24.88279,0
          67.18263,24.88258,0
          67.18253,24.88244,0
          67.18248,24.88239,0
          67.18243,24.88235,0
          67.18231,24.88221,0
          67.18588,24.88038,0
          67.18673,24.87988,0
          67.18688,24.8798,0
          67.18803,24.87905,0
          67.18804,24.87904,0
          67.1885,24.87877,0
          67.18851,24.87877,0
          67.1886,24.87871,0
          67.18938,24.87834,0
          67.18955,24.87825,0
          67.18956,24.87825,0
          67.18979,24.87814,0
          67.19031,24.87783,0
          67.19055,24.87766,0
          67.19065,24.8776,0
          67.19142,24.87701,0
          67.19276,24.8758,0
          67.19341,24.87528,0
          67.19375,24.87499,0
          67.19623,24.87299,0
          67.19694,24.87239,0
          67.19718,24.87222,0
          67.19776,24.87173,0
          67.19814,24.87143,0
          67.1982,24.87137,0
          67.19828,24.87131,0
          67.19962,24.87019,0
          67.2004,24.86958,0
          67.20054,24.86946,0
          67.20083,24.86924,0
          67.20211,24.86843,0
          67.20243,24.86817,0
          67.20243,24.86816,0
          67.20252,24.86806,0
          67.20256,24.86803,0
          67.2028,24.86773,0
          67.20322,24.86713,0
          67.20363,24.86651,0
          67.20365,24.86647,0
          67.20403,24.86588,0
          67.20405,24.86584,0
          67.20417,24.86566,0
          67.20439,24.86536,0
          67.20449,24.8652,0
          67.20457,24.86505,0
          67.20487,24.86457,0
          67.20491,24.86452,0
          67.20508,24.86427,0
          67.20522,24.86404,0
          67.20535,24.86378,0
          67.20542,24.86367,0
          67.20548,24.86356,0
          67.20584,24.86302,0
          67.20598,24.86283,0
          67.20599,24.8628,0
          67.20609,24.86265,0
          67.2061,24.86263,0
          67.2062,24.86249,0
          67.20809,24.85952,0
          67.2081,24.8595,0
          67.20849,24.8589,0
          67.2085,24.85889,0
          67.20874,24.85851,0
          67.20881,24.85838,0
          67.20883,24.85835,0
          67.20887,24.85833,0
          67.2089,24.85832,0
          67.20892,24.85829,0
          67.209,24.85821,0
          67.20911,24.85807,0
          67.20951,24.85745,0
          67.20963,24.85728,0
          67.20972,24.85712,0
          67.20989,24.85689,0
          67.21006,24.85669,0
          67.21035,24.85641,0
          67.2104,24.85637,0
          67.21051,24.85626,0
          67.21058,24.8562,0
          67.21077,24.85606,0
          67.21118,24.8558,0
          67.21153,24.85561,0
          67.21182,24.85547,0
          67.21147,24.85488,0
          67.21141,24.85479,0
          67.2113,24.85465,0
          67.21059,24.85361,0
          67.21036,24.85336,0
          67.21035,24.85334,0
          67.20974,24.85265,0
          67.20962,24.85253,0
          67.20951,24.8524,0
          67.20935,24.85223,0
          67.20927,24.85213,0
          67.20892,24.85179,0
          67.20858,24.85149,0
          67.20857,24.85149,0
          67.20849,24.85141,0
          67.20811,24.85107,0
          67.2076,24.85064,0
          67.20691,24.84993,0
          67.20682,24.84985,0
          67.20678,24.84976,0
          67.20656,24.8489,0
          67.2064,24.84838,0
          67.20632,24.84816,0
          67.20632,24.84814,0
          67.20615,24.84758,0
          67.20593,24.84676,0
          67.20585,24.84677,0
          67.20559,24.84664,0
          67.20494,24.84627,0
          67.20488,24.84625,0
          67.20298,24.84507,0
          67.20276,24.84495,0
          67.20199,24.84449,0
          67.20164,24.8443,0
          67.20135,24.84411,0
          67.20117,24.84398,0
          67.20008,24.84327,0
          67.20001,24.84323,0
          67.19982,24.84308,0
          67.19864,24.84231,0
          67.19807,24.84191,0
          67.19681,24.84109,0
          67.19653,24.84092,0
          67.19624,24.84077,0
          67.19615,24.84073,0
          67.19602,24.8407,0
          67.19372,24.84063,0
          67.1922,24.84064,0
          67.1919,24.84063,0
          67.19174,24.84064,0
          67.19155,24.84064,0
          67.19146,24.84063,0
          67.19136,24.84064,0
          67.18783,24.84069,0
          67.18744,24.84071,0
          67.18704,24.84076,0
          67.18663,24.84077,0
          67.1865,24.84076,0
          67.18639,24.84074,0
          67.18628,24.8407,0
          67.18617,24.84065,0
          67.18601,24.84056,0
          67.18593,24.8405,0
          67.18232,24.83826,0
          67.18224,24.8382,0
          67.18207,24.83803,0
          67.18207,24.838,0
          67.18206,24.83798,0
          67.18206,24.83797,0
          67.18205,24.83796,0
          67.18204,24.83794,0
          67.18204,24.83793,0
          67.18199,24.83788,0
          67.18198,24.83788,0
          67.18192,24.83785,0
          67.18189,24.83785,0
          67.18187,24.83784,0
          67.18186,24.83784,0
          67.18184,24.83785,0
          67.18181,24.83785,0
          67.18179,24.83786,0
          67.18178,24.83786,0
          67.18176,24.83787,0
          67.18175,24.83788,0
          67.18162,24.83783,0
          67.18145,24.83774,0
          67.18075,24.83732,0
          67.18016,24.83694,0
          67.18011,24.8369,0
          67.1801,24.8369,0
          67.17989,24.83678,0
          67.1796,24.83658,0
          67.17693,24.83447,0
          67.17691,24.83446,0
          67.17503,24.83299,0
          67.17445,24.83261,0
          67.17398,24.83227,0
          67.17352,24.83196,0
          67.17314,24.83166,0
          67.17313,24.83164,0
          67.17311,24.83162,0
          67.17309,24.83162,0
          67.17309,24.83161,0
          67.17307,24.83161,0
          67.17257,24.83127,0
          67.17234,24.8311,0
          67.17204,24.8309,0
          67.17183,24.83074,0
          67.17157,24.8306,0
          67.17157,24.83057,0
          67.17156,24.83055,0
          67.17154,24.83053,0
          67.1715,24.83051,0
          67.17144,24.83051,0
          67.17142,24.83052,0
          67.17044,24.82988,0
          67.16976,24.82941,0
          67.16966,24.82935,0
          67.16955,24.82931,0
          67.16946,24.82927,0
          67.16928,24.82924,0
          67.16913,24.82924,0
          67.16849,24.82929,0
          67.16806,24.82934,0
          67.16781,24.82935,0
          67.1675,24.82933,0
          67.16734,24.82931,0
          67.16427,24.82871,0
          67.16415,24.8287,0
          67.16345,24.82859,0
          67.16147,24.82821,0
          67.16146,24.82821,0
          67.15978,24.82785,0
          67.15975,24.82784,0
          67.15903,24.8277,0
          67.15877,24.82764,0
          67.15842,24.8275,0
          67.15708,24.82687,0
          67.15676,24.82674,0
          67.1565,24.82666,0
          67.15629,24.82661,0
          67.15401,24.82616,0
          67.154,24.82616,0
          67.15,24.82535,0
          67.14999,24.82535,0
          67.14971,24.82528,0
          67.14669,24.8247,0
          67.14649,24.82465,0
          67.14628,24.82461,0
          67.14626,24.82461,0
          67.14596,24.82455,0
          67.14538,24.82447,0
          67.14487,24.82436,0
          67.14478,24.82433,0
          67.14183,24.82376,0
          67.14087,24.82354,0
          67.14015,24.82343,0
          67.13575,24.82254,0
          67.13496,24.8224,0
          67.13409,24.82222,0
          67.13398,24.82221,0
          67.13369,24.82216,0
          67.13092,24.82158,0
          67.12979,24.82138,0
          67.12815,24.82104,0
          67.12813,24.82104,0
          67.12641,24.82069,0
          67.1264,24.82068,0
          67.12593,24.82059,0
          67.12481,24.82033,0
          67.11768,24.81891,0
          67.1176,24.8189,0
          67.11548,24.81846,0
          67.11274,24.81794,0
          67.10805,24.81699,0
          67.10789,24.81695,0
          67.10782,24.817,0
          67.10776,24.81703,0
          67.10763,24.81711,0
          67.10718,24.81743,0
          67.10661,24.81781,0
          67.10659,24.81782,0
          67.10606,24.8182,0
          67.10605,24.81821,0
          67.10605,24.81823,0
          67.10604,24.81824,0
          67.10604,24.81826,0
          67.10585,24.81838,0
          67.10584,24.81839,0
          67.10557,24.81855,0
          67.10321,24.82014,0
          67.10304,24.82023,0
          67.10251,24.82044,0
          67.10208,24.82059,0
          67.10207,24.82059,0
          67.10055,24.8211,0
          67.09956,24.82138,0
          67.09808,24.82183,0
          67.09724,24.82205,0
          67.09703,24.82212,0
          67.09592,24.82243,0
          67.09388,24.82306,0
          67.09343,24.82323,0
          67.09321,24.8233,0
          67.09258,24.82357,0
          67.09023,24.82472,0
          67.08999,24.82485,0
          67.08997,24.82485,0
          67.08698,24.82632,0
          67.08616,24.8267,0
          67.08431,24.82762,0
          67.08421,24.82769,0
          67.08379,24.82795,0
          67.08115,24.82942,0
          67.08107,24.82945,0
          67.081,24.82947,0
          67.08093,24.82948,0
          67.08065,24.82949,0
          67.08056,24.82947,0
          67.08035,24.82945,0
          67.08026,24.82945,0
          67.08015,24.82947,0
          67.07986,24.82956,0
          67.07965,24.82966,0
          67.07954,24.82973,0
          67.07938,24.82985,0
          67.07926,24.82996,0
          67.0792,24.83003,0
          67.07915,24.8301,0
          67.07912,24.83019,0
          67.07895,24.83056,0
          67.07892,24.8306,0
          67.0789,24.83062,0
          67.07889,24.83064,0
          67.07882,24.83071,0
          67.07873,24.83082,0
          67.07868,24.83087,0
          67.07861,24.83091,0
          67.07853,24.83097,0
          67.07817,24.83118,0
          67.07811,24.83121,0
          67.0772,24.83174,0
          67.07673,24.83212,0
          67.07624,24.83243,0
          67.07623,24.83243,0
          67.07558,24.83283,0
          67.0747,24.83329,0
          67.07367,24.83371,0
          67.07317,24.83393,0
          67.07026,24.83556,0
          67.06941,24.83601,0
          67.06906,24.83618,0
          67.06786,24.83682,0
          67.06784,24.83684,0
          67.06776,24.83689,0
          67.0676,24.83696,0
          67.06029,24.84064,0
          67.0596,24.84097,0
          67.05881,24.84143,0
          67.05824,24.84181,0
          67.05796,24.84202,0
          67.05793,24.84205,0
          67.05758,24.84234,0
          67.05661,24.84325,0
          67.05657,24.84331,0
          67.05641,24.8435,0
          67.05634,24.84361,0
          67.05631,24.84364,0
          67.05615,24.84393,0
          67.05597,24.84431,0
          67.05501,24.84675,0
          67.05462,24.84748,0
          67.05459,24.8476,0
          67.05422,24.84833,0
          67.05422,24.84834,0
          67.05409,24.84858,0
          67.05387,24.8491,0
          67.05352,24.85006,0
          67.05351,24.85008,0
          67.05339,24.85043,0
          67.05252,24.85264,0
          67.05248,24.85271,0
          67.05221,24.85334,0
          67.05217,24.85342,0
          67.05157,24.85499,0
          67.0513,24.85565,0
          67.05128,24.85573,0
          67.05055,24.85757,0
          67.05049,24.85774,0
          67.0504,24.85796,0
          67.0504,24.85797,0
          67.05024,24.85835,0
          67.05021,24.85844,0
          67.05015,24.85847,0
          67.05014,24.85848,0
          67.05012,24.85849,0
          67.05003,24.85859,0
          67.04986,24.85882,0
          67.04971,24.85899,0
          67.04944,24.85926,0
          67.04913,24.85953,0
          67.0489,24.85971,0
          67.04888,24.85973,0
          67.04886,24.85974,0
          67.04872,24.85984,0
          67.04856,24.85992,0
          67.04847,24.85995,0
          67.04817,24.85998,0
          67.04814,24.85998,0
          67.04797,24.85996,0
          67.04774,24.85991,0
          67.04756,24.85985,0
          67.0474,24.85981,0
          67.04737,24.85981,0
          67.04723,24.85984,0
          67.04645,24.86012,0
          67.04644,24.86012,0
          67.0463,24.86015,0
          67.04601,24.86023,0
          67.0448,24.86051,0
          67.04422,24.86067,0
          67.04255,24.8612,0
          67.04222,24.86127,0
          67.04215,24.86127,0
          67.04208,24.86128,0
          67.04197,24.86127,0
          67.0416,24.8612,0
          67.04147,24.86116,0
          67.04086,24.86072,0
          67.04063,24.86053,0
          67.04059,24.86049,0
          67.04054,24.86046,0
          67.04041,24.8604,0
          67.04002,24.86027,0
          67.03993,24.86027,0
          67.0398,24.86024,0
          67.03962,24.86021,0
          67.03935,24.86015,0
          67.0372,24.85976,0
          67.03682,24.85965,0
          67.03666,24.85959,0
          67.03643,24.85948,0
          67.03552,24.85895,0
          67.03546,24.85888,0
          67.03537,24.85883,0
          67.03535,24.85881,0
          67.0353,24.85879,0
          67.03448,24.85825,0
          67.03432,24.85813,0
          67.03353,24.85747,0
          67.03349,24.8574,0
          67.03348,24.85736,0
          67.03342,24.85719,0
          67.03334,24.857,0
          67.03341,24.85697,0
        </coordinates>
      </LineString>
    </Placemark>
  </Document>
</kml>
