<?xml version="1.0" encoding="UTF-8"?>
<kml xmlns="http://www.opengis.net/kml/2.2">
  <Document>
    <name>Untitled layer</name>
    <Style id="line-0F9D58-5000-normal">
      <LineStyle>
        <color>ff589d0f</color>
        <width>5</width>
      </LineStyle>
    </Style>
    <Style id="line-0F9D58-5000-highlight">
      <LineStyle>
        <color>ff589d0f</color>
        <width>7.5</width>
      </LineStyle>
    </Style>
    <StyleMap id="line-0F9D58-5000">
      <Pair>
        <key>normal</key>
        <styleUrl>#line-0F9D58-5000-normal</styleUrl>
      </Pair>
      <Pair>
        <key>highlight</key>
        <styleUrl>#line-0F9D58-5000-highlight</styleUrl>
      </Pair>
    </StyleMap>
    <Placemark>
      <name>R13 (Hawksbay to Tower )</name>
      <description><![CDATA[description: <br>Route: <br>Direction: ]]></description>
      <styleUrl>#line-0F9D58-5000</styleUrl>
      <ExtendedData>
        <Data name="description">
          <value/>
        </Data>
        <Data name="Route">
          <value/>
        </Data>
        <Data name="Direction">
          <value/>
        </Data>
      </ExtendedData>
      <LineString>
        <tessellate>1</tessellate>
        <coordinates>
          66.84951,24.86285,0
          66.84952,24.86286,0
          66.84953,24.86287,0
          66.84954,24.86287,0
          66.84955,24.86288,0
          66.84956,24.86288,0
          66.84957,24.86289,0
          66.84958,24.86289,0
          66.8496,24.86289,0
          66.84962,24.86297,0
          66.84964,24.86301,0
          66.84971,24.86309,0
          66.84998,24.86353,0
          66.85005,24.86365,0
          66.8501,24.86372,0
          66.85054,24.86443,0
          66.8506,24.86454,0
          66.85099,24.86517,0
          66.85118,24.86546,0
          66.85118,24.86547,0
          66.85139,24.86579,0
          66.8518,24.86643,0
          66.85189,24.86657,0
          66.85192,24.86662,0
          66.85218,24.86704,0
          66.85219,24.86705,0
          66.85252,24.86758,0
          66.8529,24.86819,0
          66.85306,24.86844,0
          66.85349,24.86912,0
          66.85376,24.86954,0
          66.85381,24.86961,0
          66.85405,24.86999,0
          66.85424,24.87033,0
          66.85426,24.87036,0
          66.8546,24.87088,0
          66.85475,24.8711,0
          66.8549,24.87133,0
          66.85513,24.87171,0
          66.85514,24.87173,0
          66.85532,24.87201,0
          66.85548,24.87224,0
          66.85558,24.87237,0
          66.85565,24.87246,0
          66.85577,24.87257,0
          66.85586,24.87264,0
          66.85593,24.87269,0
          66.85597,24.87271,0
          66.85603,24.87274,0
          66.85611,24.87278,0
          66.85616,24.8728,0
          66.85677,24.87305,0
          66.85702,24.87316,0
          66.85719,24.87323,0
          66.85788,24.87353,0
          66.85806,24.87361,0
          66.85888,24.87396,0
          66.85909,24.87403,0
          66.85925,24.87407,0
          66.8594,24.8741,0
          66.85969,24.87415,0
          66.8601,24.87418,0
          66.86012,24.87418,0
          66.8602,24.8742,0
          66.86046,24.87423,0
          66.86052,24.87424,0
          66.86089,24.87428,0
          66.8619,24.87441,0
          66.86197,24.87442,0
          66.86315,24.87453,0
          66.86387,24.87464,0
          66.86394,24.87465,0
          66.86528,24.87481,0
          66.86551,24.87485,0
          66.86554,24.87486,0
          66.86618,24.87504,0
          66.86665,24.87518,0
          66.86717,24.87534,0
          66.86774,24.87552,0
          66.86796,24.87558,0
          66.86811,24.87562,0
          66.86903,24.87588,0
          66.86909,24.8759,0
          66.86991,24.87616,0
          66.87064,24.87637,0
          66.8711,24.87651,0
          66.87147,24.87662,0
          66.87154,24.87664,0
          66.87203,24.87679,0
          66.87217,24.87684,0
          66.87256,24.87696,0
          66.87266,24.87699,0
          66.87291,24.87706,0
          66.87307,24.8771,0
          66.8738,24.87734,0
          66.87412,24.87743,0
          66.87436,24.87751,0
          66.87562,24.8779,0
          66.87577,24.87795,0
          66.87663,24.8782,0
          66.87696,24.87829,0
          66.87766,24.87851,0
          66.87795,24.87859,0
          66.87839,24.87872,0
          66.87864,24.87877,0
          66.87881,24.8788,0
          66.87901,24.87881,0
          66.87911,24.87883,0
          66.87999,24.87877,0
          66.88063,24.87874,0
          66.88132,24.87871,0
          66.88205,24.87868,0
          66.88247,24.87866,0
          66.88307,24.87863,0
          66.88384,24.87859,0
          66.884,24.87859,0
          66.88499,24.87855,0
          66.88716,24.87846,0
          66.88808,24.87841,0
          66.88861,24.87838,0
          66.88903,24.87836,0
          66.88927,24.87834,0
          66.88948,24.87833,0
          66.88961,24.87832,0
          66.88974,24.87831,0
          66.88988,24.87829,0
          66.89013,24.87824,0
          66.89025,24.87821,0
          66.89047,24.87815,0
          66.89085,24.87804,0
          66.89127,24.87794,0
          66.89142,24.87791,0
          66.89156,24.87787,0
          66.89198,24.87777,0
          66.89217,24.87772,0
          66.89274,24.87757,0
          66.89357,24.87735,0
          66.8937,24.87732,0
          66.89456,24.87709,0
          66.89506,24.87697,0
          66.89507,24.87697,0
          66.89665,24.87653,0
          66.89757,24.8763,0
          66.89773,24.87626,0
          66.89846,24.87607,0
          66.89979,24.87572,0
          66.90094,24.87541,0
          66.90186,24.87519,0
          66.90199,24.87515,0
          66.90248,24.87502,0
          66.9034,24.87477,0
          66.90463,24.87447,0
          66.9048,24.87443,0
          66.90502,24.87438,0
          66.9054,24.87428,0
          66.90574,24.87417,0
          66.90593,24.8741,0
          66.90606,24.87405,0
          66.90625,24.87396,0
          66.90641,24.87389,0
          66.90694,24.87364,0
          66.90775,24.8732,0
          66.90805,24.87305,0
          66.90869,24.87271,0
          66.9091,24.87248,0
          66.90976,24.87214,0
          66.91073,24.87162,0
          66.91079,24.87159,0
          66.91164,24.87114,0
          66.91322,24.87031,0
          66.91336,24.87024,0
          66.91413,24.86981,0
          66.91476,24.86948,0
          66.91497,24.86937,0
          66.91544,24.86913,0
          66.91639,24.86863,0
          66.91676,24.86843,0
          66.91696,24.86831,0
          66.91707,24.86826,0
          66.91717,24.86821,0
          66.91725,24.86819,0
          66.91731,24.86817,0
          66.91738,24.86816,0
          66.9175,24.86815,0
          66.91758,24.86816,0
          66.91768,24.86817,0
          66.91777,24.86819,0
          66.91791,24.86824,0
          66.91799,24.86828,0
          66.91813,24.86836,0
          66.91821,24.86842,0
          66.91828,24.86849,0
          66.91853,24.86878,0
          66.91862,24.86888,0
          66.91868,24.86894,0
          66.91874,24.86898,0
          66.91875,24.869,0
          66.91886,24.86908,0
          66.91895,24.86914,0
          66.91907,24.86922,0
          66.91924,24.86932,0
          66.91945,24.86942,0
          66.91952,24.86946,0
          66.91973,24.86954,0
          66.91994,24.86961,0
          66.92036,24.86973,0
          66.92112,24.86991,0
          66.92138,24.86998,0
          66.92171,24.87006,0
          66.92207,24.87015,0
          66.92224,24.8702,0
          66.92318,24.87044,0
          66.92332,24.87047,0
          66.92342,24.87049,0
          66.92351,24.8705,0
          66.92358,24.87051,0
          66.92373,24.87051,0
          66.92379,24.87051,0
          66.92394,24.87048,0
          66.92403,24.87047,0
          66.92412,24.87044,0
          66.92432,24.87038,0
          66.92464,24.87026,0
          66.92482,24.87019,0
          66.92555,24.86991,0
          66.92577,24.86983,0
          66.92595,24.86977,0
          66.92603,24.86974,0
          66.92678,24.86949,0
          66.92729,24.86931,0
          66.92737,24.86929,0
          66.92812,24.86902,0
          66.92823,24.86899,0
          66.92905,24.86871,0
          66.92937,24.86859,0
          66.92952,24.86854,0
          66.92997,24.86839,0
          66.93045,24.86824,0
          66.93095,24.86806,0
          66.93132,24.86794,0
          66.93169,24.86781,0
          66.93207,24.86768,0
          66.93242,24.86756,0
          66.93255,24.86752,0
          66.93265,24.8675,0
          66.93265,24.86749,0
          66.93273,24.86748,0
          66.93278,24.86747,0
          66.93284,24.86746,0
          66.93296,24.86745,0
          66.93303,24.86745,0
          66.93305,24.86745,0
          66.93311,24.86745,0
          66.93317,24.86745,0
          66.93328,24.86747,0
          66.93334,24.86748,0
          66.93351,24.86751,0
          66.93365,24.86754,0
          66.93402,24.86762,0
          66.9342,24.86766,0
          66.93442,24.8677,0
          66.93464,24.86774,0
          66.93488,24.86778,0
          66.93505,24.86781,0
          66.93521,24.86784,0
          66.93533,24.86785,0
          66.93558,24.86787,0
          66.93564,24.86788,0
          66.93568,24.86788,0
          66.93573,24.86788,0
          66.93585,24.86789,0
          66.93593,24.8679,0
          66.93598,24.8679,0
          66.93604,24.8679,0
          66.93612,24.86789,0
          66.93622,24.86788,0
          66.93644,24.86784,0
          66.93668,24.86781,0
          66.93694,24.86778,0
          66.93718,24.86776,0
          66.93759,24.86774,0
          66.93807,24.86771,0
          66.9381,24.86771,0
          66.93845,24.86769,0
          66.93888,24.86766,0
          66.93922,24.86764,0
          66.93926,24.86764,0
          66.9394,24.86763,0
          66.94064,24.86757,0
          66.94081,24.86757,0
          66.94154,24.86752,0
          66.94183,24.8675,0
          66.94203,24.86748,0
          66.94285,24.86743,0
          66.94288,24.86743,0
          66.94321,24.86742,0
          66.94322,24.86742,0
          66.94338,24.86742,0
          66.94351,24.86742,0
          66.94362,24.86742,0
          66.94373,24.86744,0
          66.94381,24.86745,0
          66.94391,24.86747,0
          66.94402,24.86749,0
          66.94467,24.86765,0
          66.94558,24.86787,0
          66.94571,24.8679,0
          66.9464,24.86806,0
          66.94679,24.86814,0
          66.94709,24.86821,0
          66.94747,24.8683,0
          66.94759,24.86833,0
          66.94796,24.86842,0
          66.94833,24.8685,0
          66.94867,24.86858,0
          66.94908,24.86868,0
          66.94913,24.86869,0
          66.94966,24.86881,0
          66.95021,24.86894,0
          66.95048,24.869,0
          66.95114,24.86915,0
          66.95138,24.8692,0
          66.95235,24.8694,0
          66.95244,24.86942,0
          66.9532,24.86958,0
          66.95419,24.86978,0
          66.95452,24.86984,0
          66.95506,24.86997,0
          66.95545,24.87006,0
          66.95587,24.87016,0
          66.95592,24.87017,0
          66.95756,24.87059,0
          66.9579,24.87068,0
          66.95796,24.8707,0
          66.95889,24.87093,0
          66.95928,24.87103,0
          66.95953,24.8711,0
          66.96018,24.87127,0
          66.96041,24.87133,0
          66.96062,24.87141,0
          66.96077,24.87149,0
          66.96089,24.87157,0
          66.96104,24.87167,0
          66.96119,24.87181,0
          66.96136,24.872,0
          66.96143,24.87209,0
          66.96152,24.87221,0
          66.9616,24.87235,0
          66.96166,24.87245,0
          66.96174,24.87263,0
          66.96174,24.87264,0
          66.96176,24.87266,0
          66.96178,24.87268,0
          66.96182,24.87273,0
          66.96204,24.87309,0
          66.96229,24.87357,0
          66.96257,24.87406,0
          66.9629,24.8746,0
          66.96295,24.8747,0
          66.96303,24.87483,0
          66.96308,24.87492,0
          66.96333,24.87538,0
          66.96357,24.87578,0
          66.96356,24.87588,0
          66.96392,24.87652,0
          66.9641,24.87683,0
          66.96426,24.87714,0
          66.96426,24.87715,0
          66.96427,24.87716,0
          66.96438,24.87733,0
          66.96449,24.87743,0
          66.96454,24.87746,0
          66.96457,24.87747,0
          66.96458,24.87747,0
          66.96464,24.8775,0
          66.96468,24.87752,0
          66.96469,24.87752,0
          66.96477,24.87752,0
          66.96479,24.87751,0
          66.96482,24.8775,0
          66.96497,24.87732,0
          66.96512,24.87712,0
          66.96534,24.87689,0
          66.96562,24.87661,0
          66.96578,24.87648,0
          66.96621,24.87624,0
          66.96679,24.87598,0
          66.96737,24.87578,0
          66.96736,24.8758,0
          66.96736,24.87581,0
          66.96737,24.87582,0
          66.96737,24.87583,0
          66.96738,24.87585,0
          66.96739,24.87588,0
          66.9674,24.87589,0
          66.96742,24.87591,0
          66.96743,24.87592,0
          66.96745,24.87594,0
          66.96747,24.87595,0
          66.96748,24.87596,0
          66.9675,24.87596,0
          66.96752,24.87597,0
          66.96754,24.87597,0
          66.96756,24.87598,0
          66.96758,24.87598,0
          66.96761,24.87598,0
          66.96764,24.87598,0
          66.96767,24.87598,0
          66.96769,24.87597,0
          66.96771,24.87596,0
          66.96773,24.87596,0
          66.96774,24.87595,0
          66.96777,24.87593,0
          66.96779,24.87592,0
          66.96782,24.87589,0
          66.96783,24.87587,0
          66.96785,24.87583,0
          66.96786,24.87579,0
          66.96785,24.87575,0
          66.96784,24.87572,0
          66.96784,24.8757,0
          66.968,24.87548,0
          66.96806,24.87542,0
          66.96813,24.87536,0
          66.96824,24.87528,0
          66.96849,24.87517,0
          66.96878,24.87505,0
          66.9688,24.87505,0
          66.96915,24.87491,0
          66.96969,24.87471,0
          66.96992,24.87462,0
          66.97039,24.87442,0
          66.97046,24.87439,0
          66.97052,24.87436,0
          66.97057,24.87431,0
          66.97062,24.87426,0
          66.97164,24.8738,0
          66.97248,24.8734,0
          66.97345,24.8729,0
          66.97362,24.87281,0
          66.97379,24.87272,0
          66.97386,24.87269,0
          66.97414,24.87254,0
          66.97431,24.87245,0
          66.97433,24.87244,0
          66.97435,24.87243,0
          66.97436,24.87242,0
          66.97438,24.87241,0
          66.97439,24.8724,0
          66.97448,24.87235,0
          66.97449,24.87234,0
          66.97467,24.87225,0
          66.97469,24.87224,0
          66.97485,24.87213,0
          66.97491,24.8721,0
          66.97501,24.87204,0
          66.97547,24.87175,0
          66.97576,24.87157,0
          66.97582,24.87153,0
          66.97601,24.87141,0
          66.97614,24.87134,0
          66.97656,24.87107,0
          66.97674,24.87095,0
          66.97682,24.8709,0
          66.97691,24.87083,0
          66.97708,24.8707,0
          66.97709,24.8707,0
          66.97718,24.87063,0
          66.97744,24.87042,0
          66.97757,24.8703,0
          66.97776,24.87014,0
          66.97779,24.87011,0
          66.97794,24.86998,0
          66.97808,24.86987,0
          66.97822,24.86978,0
          66.97835,24.8697,0
          66.97848,24.86961,0
          66.97906,24.86925,0
          66.97937,24.86906,0
          66.97962,24.86891,0
          66.97969,24.86887,0
          66.97981,24.8688,0
          66.97996,24.8687,0
          66.98021,24.86854,0
          66.98038,24.86842,0
          66.98048,24.86835,0
          66.98056,24.86831,0
          66.98069,24.86823,0
          66.98108,24.86796,0
          66.98133,24.86779,0
          66.98166,24.86755,0
          66.98225,24.86716,0
          66.98291,24.86675,0
          66.98307,24.86665,0
          66.98319,24.86658,0
          66.98363,24.8663,0
          66.984,24.86607,0
          66.98404,24.86605,0
          66.98428,24.8659,0
          66.98432,24.86587,0
          66.98442,24.86582,0
          66.98462,24.86568,0
          66.98476,24.86559,0
          66.9849,24.86548,0
          66.98504,24.86537,0
          66.98514,24.86529,0
          66.98525,24.86521,0
          66.98539,24.8651,0
          66.98557,24.86493,0
          66.98561,24.86488,0
          66.98569,24.86477,0
          66.98581,24.86463,0
          66.98595,24.86444,0
          66.98609,24.86423,0
          66.9861,24.86421,0
          66.98619,24.86407,0
          66.98625,24.86398,0
          66.98636,24.86377,0
          66.98645,24.86358,0
          66.98657,24.86335,0
          66.98667,24.86314,0
          66.98676,24.86291,0
          66.98686,24.86262,0
          66.98692,24.86241,0
          66.98696,24.86227,0
          66.98702,24.86203,0
          66.98708,24.86177,0
          66.98713,24.86144,0
          66.98717,24.86112,0
          66.98723,24.86059,0
          66.98723,24.86023,0
          66.98724,24.86,0
          66.98723,24.8598,0
          66.98723,24.85962,0
          66.98723,24.85944,0
          66.98722,24.85929,0
          66.98721,24.8589,0
          66.98717,24.858,0
          66.98716,24.85783,0
          66.98716,24.85782,0
          66.98715,24.8576,0
          66.98716,24.85739,0
          66.98716,24.85728,0
          66.98716,24.85722,0
          66.98718,24.85705,0
          66.9872,24.85692,0
          66.98722,24.85681,0
          66.98728,24.8566,0
          66.98729,24.85657,0
          66.98734,24.85643,0
          66.98742,24.85623,0
          66.98748,24.85606,0
          66.9875,24.85603,0
          66.98759,24.8558,0
          66.98774,24.85544,0
          66.98788,24.85512,0
          66.98801,24.85483,0
          66.98814,24.85452,0
          66.98821,24.85436,0
          66.98828,24.85413,0
          66.98828,24.85411,0
          66.9883,24.85405,0
          66.9883,24.85403,0
          66.98832,24.85391,0
          66.98831,24.85382,0
          66.9883,24.85371,0
          66.98829,24.85366,0
          66.98821,24.85333,0
          66.98819,24.85327,0
          66.98818,24.85321,0
          66.98812,24.85297,0
          66.98805,24.85261,0
          66.98802,24.85249,0
          66.988,24.8524,0
          66.98799,24.8523,0
          66.98799,24.85226,0
          66.98798,24.85219,0
          66.98798,24.85215,0
          66.98798,24.8521,0
          66.988,24.85199,0
          66.98802,24.85189,0
          66.98805,24.8518,0
          66.98808,24.85171,0
          66.9881,24.85167,0
          66.98812,24.85163,0
          66.98816,24.85155,0
          66.98829,24.85135,0
          66.98839,24.8512,0
          66.98848,24.85105,0
          66.98849,24.85104,0
          66.9885,24.85102,0
          66.98852,24.85099,0
          66.98866,24.85077,0
          66.98871,24.8507,0
          66.989,24.85023,0
          66.9891,24.85008,0
          66.9891,24.85007,0
          66.9893,24.84976,0
          66.98936,24.84966,0
          66.98942,24.84957,0
          66.98949,24.84946,0
          66.98974,24.84908,0
          66.98984,24.84892,0
          66.98996,24.84874,0
          66.99002,24.84866,0
          66.99013,24.84851,0
          66.99026,24.84832,0
          66.99051,24.84795,0
          66.99058,24.84784,0
          66.99061,24.84779,0
          66.99071,24.84764,0
          66.99081,24.84748,0
          66.99097,24.84724,0
          66.99101,24.84717,0
          66.99111,24.84702,0
          66.99131,24.84671,0
          66.99141,24.84656,0
          66.99145,24.84649,0
          66.99148,24.84644,0
          66.99152,24.84641,0
          66.99153,24.84639,0
          66.99159,24.84635,0
          66.99165,24.84633,0
          66.99173,24.84631,0
          66.99188,24.84628,0
          66.99197,24.84632,0
          66.99206,24.84634,0
          66.99215,24.84635,0
          66.99224,24.84636,0
          66.99233,24.84635,0
          66.99241,24.84634,0
          66.99252,24.84633,0
          66.99263,24.84633,0
          66.99269,24.84634,0
          66.99275,24.84636,0
          66.99281,24.84638,0
          66.99287,24.84642,0
          66.99294,24.84646,0
          66.99296,24.84648,0
          66.99328,24.84669,0
          66.99344,24.8468,0
          66.99362,24.84692,0
          66.99382,24.84704,0
          66.99409,24.8472,0
          66.99422,24.84727,0
          66.99444,24.84738,0
          66.99455,24.84743,0
          66.99461,24.84746,0
          66.99467,24.84751,0
          66.99474,24.84757,0
          66.99482,24.84767,0
          66.99491,24.84776,0
          66.99492,24.84777,0
          66.99499,24.84786,0
          66.99506,24.84792,0
          66.99522,24.84809,0
          66.99529,24.84815,0
          66.99537,24.84806,0
          66.99521,24.84787,0
        </coordinates>
      </LineString>
    </Placemark>
  </Document>
</kml>
