<?xml version="1.0" encoding="UTF-8"?>
<kml xmlns="http://www.opengis.net/kml/2.2">
  <Document>
    <name>Untitled layer</name>
    <Style id="line-F57C00-5000-normal">
      <LineStyle>
        <color>ff007cf5</color>
        <width>5</width>
      </LineStyle>
    </Style>
    <Style id="line-F57C00-5000-highlight">
      <LineStyle>
        <color>ff007cf5</color>
        <width>7.5</width>
      </LineStyle>
    </Style>
    <StyleMap id="line-F57C00-5000">
      <Pair>
        <key>normal</key>
        <styleUrl>#line-F57C00-5000-normal</styleUrl>
      </Pair>
      <Pair>
        <key>highlight</key>
        <styleUrl>#line-F57C00-5000-highlight</styleUrl>
      </Pair>
    </StyleMap>
    <Placemark>
      <name>R2 (Power House Chowrangi to Korangi Crossing)</name>
      <description><![CDATA[description: <br>Route: R2<br>Direction: R2_UP]]></description>
      <styleUrl>#line-F57C00-5000</styleUrl>
      <ExtendedData>
        <Data name="description">
          <value/>
        </Data>
        <Data name="Route">
          <value>R2</value>
        </Data>
        <Data name="Direction">
          <value>R2_UP</value>
        </Data>
      </ExtendedData>
      <LineString>
        <tessellate>1</tessellate>
        <coordinates>
          67.06588,24.98534,0
          67.06587,24.98503,0
          67.06589,24.98468,0
          67.06593,24.98412,0
          67.06593,24.98401,0
          67.06595,24.9837,0
          67.06596,24.98352,0
          67.06596,24.98345,0
          67.06598,24.98316,0
          67.06601,24.98248,0
          67.06602,24.98224,0
          67.06603,24.98213,0
          67.06606,24.98177,0
          67.06611,24.98121,0
          67.06613,24.98044,0
          67.06619,24.9796,0
          67.0662,24.97943,0
          67.06621,24.97925,0
          67.06621,24.97913,0
          67.06623,24.97877,0
          67.06626,24.97841,0
          67.06629,24.97796,0
          67.06632,24.97772,0
          67.06641,24.97666,0
          67.06645,24.97608,0
          67.06644,24.97572,0
          67.06645,24.97535,0
          67.06646,24.97518,0
          67.0665,24.97444,0
          67.06655,24.97385,0
          67.06657,24.97352,0
          67.06662,24.97291,0
          67.06662,24.9729,0
          67.06663,24.97273,0
          67.06666,24.97237,0
          67.06666,24.97226,0
          67.0667,24.97176,0
          67.06672,24.97144,0
          67.06679,24.9705,0
          67.06679,24.97006,0
          67.06687,24.9694,0
          67.06689,24.96918,0
          67.06689,24.96912,0
          67.0669,24.96899,0
          67.06691,24.96891,0
          67.06691,24.96884,0
          67.06692,24.96875,0
          67.06696,24.96826,0
          67.06699,24.96793,0
          67.067,24.96788,0
          67.06704,24.96745,0
          67.06708,24.96699,0
          67.06711,24.96658,0
          67.06713,24.96631,0
          67.06715,24.96595,0
          67.06715,24.96582,0
          67.06715,24.96568,0
          67.06715,24.96564,0
          67.06717,24.96546,0
          67.06723,24.96532,0
          67.0673,24.96517,0
          67.06733,24.9651,0
          67.06737,24.96502,0
          67.06743,24.9649,0
          67.06754,24.96469,0
          67.06758,24.96463,0
          67.06766,24.96453,0
          67.06771,24.96447,0
          67.06776,24.96442,0
          67.06781,24.96438,0
          67.06787,24.96434,0
          67.06798,24.96424,0
          67.0684,24.96393,0
          67.06906,24.96343,0
          67.06916,24.96336,0
          67.06944,24.96315,0
          67.06961,24.96304,0
          67.0697,24.963,0
          67.07087,24.96212,0
          67.07114,24.96191,0
          67.0712,24.96186,0
          67.07167,24.96152,0
          67.07191,24.96135,0
          67.07216,24.96117,0
          67.07262,24.96082,0
          67.07278,24.96071,0
          67.07323,24.96036,0
          67.07401,24.95979,0
          67.07418,24.95967,0
          67.07448,24.95944,0
          67.07471,24.95927,0
          67.07479,24.95921,0
          67.07483,24.95917,0
          67.07487,24.95913,0
          67.07491,24.95908,0
          67.07501,24.95896,0
          67.07506,24.95887,0
          67.07522,24.95861,0
          67.07538,24.95838,0
          67.07539,24.95837,0
          67.07556,24.95815,0
          67.0756,24.9581,0
          67.07571,24.95795,0
          67.07592,24.95769,0
          67.07597,24.95763,0
          67.07624,24.95723,0
          67.07632,24.95711,0
          67.07678,24.9564,0
          67.07708,24.95594,0
          67.07718,24.9558,0
          67.07745,24.95539,0
          67.07751,24.95529,0
          67.0777,24.95501,0
          67.07771,24.95499,0
          67.07803,24.9545,0
          67.07815,24.95432,0
          67.07818,24.95427,0
          67.07853,24.95379,0
          67.07884,24.95336,0
          67.07914,24.95291,0
          67.07945,24.95246,0
          67.07957,24.95228,0
          67.08037,24.95114,0
          67.08056,24.95086,0
          67.08093,24.95031,0
          67.08111,24.95006,0
          67.08126,24.94986,0
          67.0813,24.94981,0
          67.08159,24.94939,0
          67.08182,24.94905,0
          67.08205,24.94867,0
          67.08222,24.94842,0
          67.08235,24.94823,0
          67.08244,24.94808,0
          67.08259,24.94781,0
          67.08289,24.94726,0
          67.08326,24.94654,0
          67.08328,24.94648,0
          67.08336,24.94632,0
          67.08349,24.94602,0
          67.08359,24.94582,0
          67.08367,24.94565,0
          67.08377,24.94545,0
          67.08388,24.94522,0
          67.08397,24.945,0
          67.08405,24.94483,0
          67.0841,24.94469,0
          67.08423,24.94438,0
          67.08425,24.9443,0
          67.08429,24.9442,0
          67.08433,24.94411,0
          67.08447,24.94371,0
          67.0845,24.94359,0
          67.08456,24.94341,0
          67.08468,24.94301,0
          67.08475,24.94274,0
          67.08481,24.94245,0
          67.08484,24.9423,0
          67.08487,24.94215,0
          67.08491,24.94189,0
          67.08493,24.94172,0
          67.08495,24.94156,0
          67.08497,24.94129,0
          67.08497,24.94126,0
          67.08498,24.94124,0
          67.08498,24.94108,0
          67.08498,24.94096,0
          67.08498,24.94063,0
          67.08499,24.94048,0
          67.08499,24.94037,0
          67.08499,24.9403,0
          67.08503,24.94001,0
          67.08504,24.93987,0
          67.0851,24.93943,0
          67.08517,24.93887,0
          67.08519,24.93879,0
          67.08521,24.93858,0
          67.08531,24.93772,0
          67.08532,24.93766,0
          67.08538,24.93712,0
          67.08543,24.9368,0
          67.08546,24.93645,0
          67.08548,24.93633,0
          67.08561,24.93512,0
          67.08563,24.93438,0
          67.08569,24.93377,0
          67.08573,24.93339,0
          67.08575,24.9332,0
          67.08582,24.93293,0
          67.08586,24.93277,0
          67.08595,24.93242,0
          67.086,24.93216,0
          67.08605,24.93196,0
          67.0861,24.93176,0
          67.0862,24.93149,0
          67.08629,24.93126,0
          67.0863,24.93125,0
          67.08633,24.93117,0
          67.08654,24.93064,0
          67.08667,24.93028,0
          67.08668,24.93025,0
          67.08684,24.93002,0
          67.08705,24.92977,0
          67.08722,24.92959,0
          67.08734,24.92944,0
          67.0874,24.92937,0
          67.08746,24.9293,0
          67.08758,24.92916,0
          67.0877,24.92902,0
          67.08771,24.92902,0
          67.08774,24.92897,0
          67.08782,24.92888,0
          67.08794,24.92874,0
          67.08805,24.92861,0
          67.08806,24.9286,0
          67.08807,24.92859,0
          67.08818,24.92846,0
          67.08827,24.92835,0
          67.0883,24.92832,0
          67.08842,24.92818,0
          67.08854,24.92804,0
          67.08856,24.92802,0
          67.0886,24.92797,0
          67.08866,24.9279,0
          67.08879,24.92777,0
          67.08892,24.92764,0
          67.08905,24.9275,0
          67.08907,24.92747,0
          67.08917,24.92737,0
          67.08917,24.92736,0
          67.0892,24.92734,0
          67.0893,24.92723,0
          67.08935,24.92718,0
          67.08958,24.92693,0
          67.08971,24.92679,0
          67.08983,24.92665,0
          67.08993,24.92652,0
          67.08995,24.92651,0
          67.09008,24.92637,0
          67.09009,24.92636,0
          67.09022,24.92622,0
          67.09031,24.92612,0
          67.09072,24.92561,0
          67.09079,24.9255,0
          67.09094,24.92531,0
          67.09114,24.92507,0
          67.09121,24.92498,0
          67.09129,24.9249,0
          67.09144,24.92473,0
          67.09163,24.92452,0
          67.09168,24.92445,0
          67.09175,24.92435,0
          67.09208,24.9239,0
          67.09278,24.92303,0
          67.09279,24.92301,0
          67.09326,24.92246,0
          67.09338,24.92232,0
          67.09353,24.92215,0
          67.09364,24.92201,0
          67.09383,24.92182,0
          67.09409,24.92147,0
          67.09411,24.92144,0
          67.09414,24.92141,0
          67.09506,24.9203,0
          67.09534,24.91997,0
          67.09546,24.91983,0
          67.09558,24.91969,0
          67.0957,24.91955,0
          67.09578,24.91946,0
          67.09601,24.9192,0
          67.09611,24.91911,0
          67.09614,24.91907,0
          67.09618,24.91903,0
          67.09643,24.91878,0
          67.09657,24.91863,0
          67.0967,24.91849,0
          67.09696,24.9182,0
          67.09722,24.91793,0
          67.09748,24.91766,0
          67.09767,24.91747,0
          67.09785,24.9173,0
          67.09789,24.91727,0
          67.09805,24.91712,0
          67.0984,24.91681,0
          67.09841,24.9168,0
          67.09868,24.9166,0
          67.09872,24.91656,0
          67.09878,24.91652,0
          67.09883,24.91648,0
          67.09896,24.91638,0
          67.09898,24.91636,0
          67.09906,24.9163,0
          67.09916,24.91622,0
          67.09942,24.91602,0
          67.09957,24.9159,0
          67.09966,24.91584,0
          67.09975,24.91578,0
          67.09985,24.9157,0
          67.09993,24.91563,0
          67.10001,24.91557,0
          67.10031,24.91533,0
          67.10046,24.91522,0
          67.10061,24.9151,0
          67.10076,24.91498,0
          67.10166,24.91427,0
          67.10213,24.9139,0
          67.1025,24.91359,0
          67.10266,24.91348,0
          67.10289,24.91333,0
          67.10349,24.9129,0
          67.10395,24.91258,0
          67.104,24.91255,0
          67.10435,24.91233,0
          67.10438,24.91231,0
          67.10466,24.91211,0
          67.10496,24.91186,0
          67.10526,24.91158,0
          67.10527,24.91158,0
          67.10566,24.91125,0
          67.10597,24.91102,0
          67.10612,24.9109,0
          67.10613,24.9109,0
          67.10629,24.91077,0
          67.10689,24.91037,0
          67.10697,24.91031,0
          67.10751,24.90993,0
          67.10804,24.90953,0
          67.10813,24.90946,0
          67.10823,24.90937,0
          67.10876,24.9089,0
          67.10881,24.90886,0
          67.10934,24.90837,0
          67.1095,24.90824,0
          67.10968,24.90808,0
          67.10983,24.90796,0
          67.11038,24.90757,0
          67.11054,24.90745,0
          67.11086,24.90721,0
          67.11114,24.90698,0
          67.1112,24.90693,0
          67.1113,24.90684,0
          67.11135,24.90677,0
          67.11137,24.90675,0
          67.11138,24.90673,0
          67.11145,24.90667,0
          67.11158,24.90657,0
          67.11175,24.90645,0
          67.1119,24.90632,0
          67.11192,24.90631,0
          67.11204,24.90619,0
          67.11212,24.90611,0
          67.11224,24.90597,0
          67.11229,24.90592,0
          67.11241,24.90578,0
          67.11259,24.90559,0
          67.11278,24.90535,0
          67.11281,24.90533,0
          67.11303,24.90507,0
          67.11323,24.90484,0
          67.11329,24.90477,0
          67.11331,24.90474,0
          67.11334,24.90472,0
          67.11346,24.90458,0
          67.1135,24.90453,0
          67.11355,24.90447,0
          67.11359,24.90442,0
          67.11363,24.90437,0
          67.11386,24.90412,0
          67.11388,24.90409,0
          67.11414,24.90379,0
          67.11425,24.90367,0
          67.11449,24.90338,0
          67.11453,24.90334,0
          67.11473,24.9031,0
          67.11497,24.90281,0
          67.11498,24.90279,0
          67.11509,24.90266,0
          67.1153,24.90241,0
          67.11536,24.90233,0
          67.11549,24.90216,0
          67.11555,24.90211,0
          67.11565,24.902,0
          67.11575,24.90188,0
          67.11592,24.90168,0
          67.11594,24.90165,0
          67.11605,24.90151,0
          67.11614,24.90139,0
          67.1162,24.90131,0
          67.11624,24.90123,0
          67.11628,24.90116,0
          67.11631,24.90109,0
          67.11633,24.90098,0
          67.11635,24.90089,0
          67.11635,24.90074,0
          67.11637,24.90069,0
          67.11638,24.90062,0
          67.1164,24.90053,0
          67.11641,24.90051,0
          67.11643,24.90025,0
          67.11645,24.9001,0
          67.11645,24.90007,0
          67.11646,24.90002,0
          67.11648,24.89994,0
          67.11651,24.89987,0
          67.11656,24.89976,0
          67.11659,24.8997,0
          67.11662,24.89965,0
          67.11666,24.89959,0
          67.11676,24.89946,0
          67.11694,24.89921,0
          67.11712,24.89896,0
          67.11744,24.89851,0
          67.11755,24.89835,0
          67.11776,24.89807,0
          67.11786,24.89792,0
          67.11795,24.89781,0
          67.11841,24.89715,0
          67.11875,24.89668,0
          67.11883,24.89656,0
          67.11918,24.89606,0
          67.11972,24.89528,0
          67.12101,24.89343,0
          67.12148,24.89275,0
          67.1217,24.89244,0
          67.12173,24.89239,0
          67.12189,24.89218,0
          67.12193,24.89211,0
          67.12217,24.89175,0
          67.12337,24.89007,0
          67.12342,24.89,0
          67.12407,24.88909,0
          67.12468,24.8883,0
          67.12479,24.88815,0
          67.12518,24.88765,0
          67.12523,24.88759,0
          67.1255,24.88739,0
          67.1256,24.88733,0
          67.12568,24.8873,0
          67.12576,24.88727,0
          67.12598,24.88724,0
          67.12618,24.88722,0
          67.12638,24.88722,0
          67.1268,24.88723,0
          67.12687,24.88723,0
          67.12726,24.88724,0
          67.12747,24.88723,0
          67.12753,24.88722,0
          67.12757,24.8872,0
          67.12759,24.88719,0
          67.12764,24.88715,0
          67.12774,24.88715,0
          67.1278,24.88715,0
          67.12896,24.88721,0
          67.12936,24.88722,0
          67.13068,24.88728,0
          67.13125,24.88731,0
          67.13177,24.88731,0
          67.13178,24.88731,0
          67.13187,24.88731,0
          67.13231,24.88731,0
          67.13305,24.88731,0
          67.13381,24.88731,0
          67.13449,24.88728,0
          67.1347,24.88728,0
          67.1361,24.88721,0
          67.13753,24.88715,0
          67.13766,24.88714,0
          67.1378,24.88713,0
          67.13851,24.88708,0
          67.13962,24.88702,0
          67.14071,24.88696,0
          67.14116,24.88694,0
          67.14171,24.88694,0
          67.14211,24.88694,0
          67.14299,24.88698,0
          67.14319,24.88697,0
          67.14328,24.88697,0
          67.14338,24.88697,0
          67.14368,24.88696,0
          67.14398,24.88696,0
          67.14422,24.88695,0
          67.14481,24.88694,0
          67.14494,24.88694,0
          67.14519,24.88694,0
          67.14554,24.88694,0
          67.14623,24.88695,0
          67.14651,24.88696,0
          67.14665,24.88696,0
          67.14688,24.88696,0
          67.14719,24.88696,0
          67.1473,24.88696,0
          67.1481,24.88698,0
          67.1486,24.88698,0
          67.1492,24.88699,0
          67.14961,24.887,0
          67.15019,24.887,0
          67.15059,24.887,0
          67.15088,24.88707,0
          67.15099,24.8871,0
          67.15103,24.88712,0
          67.15107,24.88715,0
          67.15112,24.8872,0
          67.15118,24.88729,0
          67.15122,24.88739,0
          67.15122,24.88746,0
          67.15121,24.88753,0
          67.15118,24.88762,0
          67.15115,24.88767,0
          67.15112,24.88771,0
          67.15107,24.88776,0
          67.15098,24.88782,0
          67.1509,24.88785,0
          67.1508,24.88787,0
          67.15069,24.88786,0
          67.15066,24.88785,0
          67.1506,24.88784,0
          67.15054,24.88782,0
          67.15049,24.88778,0
          67.15043,24.88774,0
          67.15039,24.88771,0
          67.15035,24.88766,0
          67.15035,24.88765,0
          67.15032,24.8876,0
          67.15031,24.88756,0
          67.1503,24.88752,0
          67.15028,24.88712,0
          67.15027,24.887,0
          67.15026,24.88688,0
          67.15026,24.88678,0
          67.15025,24.88661,0
          67.15023,24.88613,0
          67.15023,24.88606,0
          67.15022,24.88588,0
          67.1502,24.88542,0
          67.15019,24.88534,0
          67.15018,24.88498,0
          67.15018,24.88492,0
          67.15018,24.88487,0
          67.15017,24.88473,0
          67.15017,24.8846,0
          67.15014,24.88427,0
          67.15014,24.88424,0
          67.15014,24.88418,0
          67.15012,24.88411,0
          67.15009,24.88405,0
          67.15006,24.88399,0
          67.15,24.88392,0
          67.14992,24.88385,0
          67.14979,24.88377,0
          67.14968,24.88374,0
          67.14959,24.88374,0
          67.14953,24.88374,0
          67.14944,24.88375,0
          67.14937,24.88377,0
          67.14924,24.88384,0
          67.14917,24.88392,0
          67.14914,24.88395,0
          67.14908,24.88405,0
          67.14905,24.88417,0
          67.14904,24.88426,0
          67.14903,24.88434,0
          67.14901,24.8844,0
          67.14898,24.88447,0
          67.14896,24.8845,0
          67.14891,24.88455,0
          67.14885,24.8846,0
          67.14878,24.88464,0
          67.14871,24.88467,0
          67.14861,24.8847,0
          67.14847,24.88474,0
          67.14762,24.88477,0
          67.14703,24.8848,0
          67.14702,24.8848,0
          67.14662,24.88483,0
          67.14643,24.88484,0
          67.14642,24.88484,0
          67.14591,24.88487,0
          67.14588,24.88487,0
          67.14586,24.88486,0
          67.14582,24.88484,0
          67.14581,24.88483,0
          67.1458,24.88481,0
          67.14579,24.88478,0
          67.14578,24.88474,0
          67.14577,24.88444,0
          67.14577,24.88443,0
          67.14573,24.88371,0
          67.14571,24.88339,0
          67.14569,24.88304,0
          67.14567,24.88288,0
          67.14567,24.88275,0
          67.14567,24.88268,0
          67.14568,24.88262,0
          67.14569,24.88254,0
          67.14572,24.88247,0
          67.14574,24.88239,0
          67.14576,24.88236,0
          67.14578,24.88233,0
          67.1458,24.8823,0
          67.1458,24.88228,0
          67.14581,24.88225,0
          67.14581,24.88224,0
          67.14581,24.88222,0
          67.1458,24.8822,0
          67.1458,24.88219,0
          67.14579,24.88217,0
          67.14578,24.88215,0
          67.14577,24.88214,0
          67.14576,24.88212,0
          67.14575,24.88211,0
          67.14574,24.8821,0
          67.14572,24.88209,0
          67.14572,24.88208,0
          67.14566,24.88195,0
          67.14563,24.88185,0
          67.1456,24.88175,0
          67.14559,24.88147,0
          67.14554,24.8807,0
          67.14551,24.87993,0
          67.14548,24.87947,0
          67.14548,24.87944,0
          67.14546,24.87921,0
          67.14544,24.8789,0
          67.14542,24.87866,0
          67.14541,24.87858,0
          67.14539,24.87806,0
          67.14535,24.87716,0
          67.14533,24.87662,0
          67.14531,24.8764,0
          67.1453,24.87616,0
          67.1453,24.87579,0
          67.14534,24.87554,0
          67.14561,24.87424,0
          67.14563,24.87413,0
          67.1457,24.87377,0
          67.1458,24.87331,0
          67.14581,24.87324,0
          67.14594,24.87265,0
          67.14607,24.87201,0
          67.14611,24.8718,0
          67.14626,24.87116,0
          67.1463,24.87095,0
          67.14657,24.86963,0
          67.1468,24.86851,0
          67.14685,24.86826,0
          67.14703,24.86736,0
          67.14706,24.86717,0
          67.1471,24.86702,0
          67.14714,24.86689,0
          67.14719,24.86676,0
          67.14725,24.86665,0
          67.14732,24.86651,0
          67.14737,24.86644,0
          67.14738,24.86642,0
          67.14746,24.86634,0
          67.14749,24.8663,0
          67.14754,24.86625,0
          67.14766,24.86612,0
          67.14777,24.86604,0
          67.14788,24.86597,0
          67.14804,24.86588,0
          67.1481,24.86585,0
          67.14817,24.86582,0
          67.14819,24.8658,0
          67.14828,24.86577,0
          67.14849,24.86571,0
          67.14866,24.86567,0
          67.14882,24.86566,0
          67.14889,24.86566,0
          67.14899,24.86565,0
          67.14919,24.86566,0
          67.14935,24.86568,0
          67.14944,24.8657,0
          67.14956,24.86573,0
          67.14967,24.86576,0
          67.14977,24.8658,0
          67.14985,24.86583,0
          67.15025,24.86598,0
          67.15075,24.86612,0
          67.15215,24.86654,0
          67.15249,24.86663,0
          67.15265,24.86667,0
          67.15285,24.86671,0
          67.15316,24.86673,0
          67.15329,24.86673,0
          67.15344,24.86672,0
          67.15356,24.86671,0
          67.15358,24.86671,0
          67.15376,24.86668,0
          67.15389,24.86665,0
          67.15398,24.86662,0
          67.15415,24.86657,0
          67.15425,24.86654,0
          67.15438,24.86648,0
          67.15452,24.86641,0
          67.15465,24.86633,0
          67.15479,24.86624,0
          67.15488,24.86618,0
          67.15505,24.86603,0
          67.15514,24.86595,0
          67.15526,24.86582,0
          67.15535,24.8657,0
          67.15543,24.86559,0
          67.15552,24.86545,0
          67.1556,24.86529,0
          67.15566,24.86513,0
          67.15569,24.86503,0
          67.15572,24.86491,0
          67.15577,24.86473,0
          67.1558,24.86461,0
          67.15583,24.86447,0
          67.15591,24.86404,0
          67.15606,24.86338,0
          67.15614,24.86306,0
          67.15628,24.86244,0
          67.15641,24.86186,0
          67.15648,24.86155,0
          67.15657,24.86119,0
          67.15662,24.86095,0
          67.15679,24.86022,0
          67.15687,24.85987,0
          67.15701,24.85923,0
          67.15705,24.859,0
          67.15732,24.85782,0
          67.15765,24.85638,0
          67.15787,24.85557,0
          67.15792,24.85536,0
          67.15805,24.85488,0
          67.15814,24.85454,0
          67.15818,24.85438,0
          67.15843,24.85343,0
          67.15853,24.85304,0
          67.15862,24.85265,0
          67.15865,24.85254,0
          67.1587,24.85229,0
          67.15897,24.85125,0
          67.15905,24.85093,0
          67.15911,24.8507,0
          67.15926,24.85005,0
          67.15944,24.84932,0
          67.15958,24.8488,0
          67.15973,24.84821,0
          67.1598,24.84792,0
          67.15984,24.84777,0
          67.16,24.84713,0
          67.16006,24.84702,0
          67.16019,24.84686,0
          67.16021,24.84686,0
          67.16027,24.84684,0
          67.16028,24.84683,0
          67.16029,24.84683,0
          67.16034,24.8468,0
          67.16036,24.84678,0
          67.16038,24.84677,0
          67.16043,24.84672,0
          67.16045,24.84668,0
          67.16047,24.84663,0
          67.16049,24.84658,0
          67.16049,24.84653,0
          67.16049,24.84647,0
          67.16048,24.84642,0
          67.16046,24.84637,0
          67.16045,24.84635,0
          67.16043,24.84632,0
          67.16042,24.8463,0
          67.1604,24.84628,0
          67.16038,24.84627,0
          67.16036,24.84625,0
          67.16034,24.84623,0
          67.16032,24.84622,0
          67.16031,24.84613,0
          67.16035,24.84584,0
          67.16084,24.84376,0
          67.16103,24.84298,0
          67.16106,24.84285,0
          67.16106,24.84284,0
          67.16108,24.84271,0
          67.16114,24.84244,0
          67.1613,24.84177,0
          67.16158,24.84059,0
          67.16158,24.84056,0
          67.16161,24.84045,0
          67.16162,24.84042,0
          67.16197,24.83902,0
          67.16209,24.83851,0
          67.16226,24.83779,0
          67.16228,24.83773,0
          67.16234,24.83746,0
          67.16246,24.83694,0
          67.1626,24.83636,0
          67.16276,24.83566,0
          67.16279,24.83553,0
          67.16281,24.83543,0
          67.16303,24.83455,0
          67.16304,24.83452,0
          67.16337,24.83315,0
          67.16339,24.83306,0
          67.16358,24.83227,0
          67.16369,24.83179,0
          67.16389,24.83097,0
          67.164,24.83057,0
          67.16413,24.83007,0
          67.16421,24.82972,0
          67.16435,24.82911,0
          67.1644,24.82885,0
          67.1645,24.82886,0
          67.1654,24.82903,0
          67.16571,24.82909,0
          67.16581,24.82911,0
          67.16616,24.82918,0
          67.16658,24.82926,0
          67.16704,24.82934,0
          67.16717,24.82937,0
          67.16729,24.82939,0
          67.16744,24.82941,0
          67.16755,24.82943,0
          67.16767,24.82944,0
          67.1678,24.82944,0
          67.16781,24.82935,0
          67.16763,24.82934,0
          67.1675,24.82933,0
          67.16734,24.82931,0
          67.16708,24.82926,0
          67.16534,24.82892,0
          67.16452,24.82876,0
          67.16441,24.82874,0
          67.16427,24.82871,0
          67.16415,24.8287,0
          67.16403,24.82868,0
          67.16345,24.82859,0
          67.16224,24.82836,0
          67.16218,24.82835,0
          67.16147,24.82821,0
          67.16146,24.82821,0
          67.16108,24.82813,0
          67.16063,24.82804,0
          67.15978,24.82785,0
          67.15975,24.82784,0
          67.15903,24.8277,0
          67.1589,24.82767,0
          67.15877,24.82764,0
          67.15864,24.82759,0
          67.15842,24.8275,0
          67.15807,24.82734,0
          67.15794,24.82728,0
          67.15774,24.82719,0
          67.1576,24.82712,0
          67.15708,24.82687,0
          67.15694,24.82681,0
          67.15691,24.8268,0
          67.15676,24.82674,0
          67.15672,24.82673,0
          67.15657,24.82668,0
          67.1565,24.82666,0
          67.15629,24.82661,0
          67.15608,24.82657,0
          67.15583,24.82652,0
          67.15552,24.82646,0
          67.1549,24.82634,0
          67.15445,24.82625,0
          67.15413,24.82618,0
          67.15401,24.82616,0
          67.154,24.82616,0
          67.15302,24.82595,0
          67.15252,24.82586,0
          67.15011,24.82537,0
          67.15,24.82535,0
          67.14999,24.82535,0
          67.14971,24.82528,0
          67.14796,24.82494,0
          67.14669,24.8247,0
          67.14649,24.82465,0
          67.14628,24.82461,0
          67.14626,24.82461,0
          67.14607,24.82457,0
          67.14596,24.82455,0
          67.14538,24.82447,0
          67.14487,24.82436,0
          67.14478,24.82433,0
          67.14379,24.82413,0
          67.14325,24.82403,0
          67.14293,24.82397,0
          67.1428,24.82395,0
          67.14276,24.82394,0
          67.14262,24.82391,0
          67.14183,24.82376,0
          67.14087,24.82354,0
          67.14015,24.82343,0
          67.13942,24.82328,0
          67.13869,24.82313,0
          67.13793,24.82298,0
          67.13714,24.82283,0
          67.13643,24.82268,0
          67.13575,24.82254,0
          67.13496,24.8224,0
          67.13423,24.82225,0
          67.13409,24.82222,0
          67.13398,24.82221,0
          67.13369,24.82216,0
          67.13343,24.8221,0
          67.13278,24.82196,0
          67.13143,24.82168,0
          67.13092,24.82158,0
          67.13017,24.82145,0
          67.12979,24.82138,0
          67.12815,24.82104,0
          67.12813,24.82104,0
          67.12641,24.82069,0
          67.1264,24.82068,0
          67.12593,24.82059,0
          67.12525,24.82043,0
          67.12503,24.82038,0
          67.12495,24.82036,0
          67.12481,24.82033,0
          67.12433,24.82024,0
          67.12328,24.82002,0
          67.12235,24.81984,0
          67.12071,24.81952,0
          67.11916,24.81921,0
          67.11768,24.81891,0
          67.11548,24.81846,0
          67.11503,24.81838,0
          67.11274,24.81794,0
          67.11168,24.81772,0
          67.11096,24.81758,0
          67.10922,24.81722,0
          67.10907,24.81719,0
          67.10869,24.81711,0
          67.108124,24.817002,0
        </coordinates>
      </LineString>
    </Placemark>
  </Document>
</kml>
