<?xml version="1.0" encoding="UTF-8"?>
<kml xmlns="http://www.opengis.net/kml/2.2">
  <Document>
    <name>Untitled layer</name>
    <Style id="line-1A237E-5000-normal">
      <LineStyle>
        <color>ff7e231a</color>
        <width>5</width>
      </LineStyle>
    </Style>
    <Style id="line-1A237E-5000-highlight">
      <LineStyle>
        <color>ff7e231a</color>
        <width>7.5</width>
      </LineStyle>
    </Style>
    <StyleMap id="line-1A237E-5000">
      <Pair>
        <key>normal</key>
        <styleUrl>#line-1A237E-5000-normal</styleUrl>
      </Pair>
      <Pair>
        <key>highlight</key>
        <styleUrl>#line-1A237E-5000-highlight</styleUrl>
      </Pair>
    </StyleMap>
    <Placemark>
      <name>R3 (Power House Chowrangi to Nasir Jump)</name>
      <description><![CDATA[description: <br>Route: R3<br>Direction: R3_UP]]></description>
      <styleUrl>#line-1A237E-5000</styleUrl>
      <ExtendedData>
        <Data name="description">
          <value/>
        </Data>
        <Data name="Route">
          <value>R3</value>
        </Data>
        <Data name="Direction">
          <value>R3_UP</value>
        </Data>
      </ExtendedData>
      <LineString>
        <tessellate>1</tessellate>
        <coordinates>
          67.06588,24.98534,0
          67.06587,24.98503,0
          67.06602,24.98224,0
          67.06611,24.98121,0
          67.06613,24.98044,0
          67.06621,24.97925,0
          67.06621,24.97913,0
          67.06629,24.97796,0
          67.06632,24.97772,0
          67.06645,24.97608,0
          67.06644,24.97572,0
          67.0665,24.97444,0
          67.06666,24.97237,0
          67.06666,24.97226,0
          67.06679,24.9705,0
          67.06679,24.97006,0
          67.06689,24.96918,0
          67.06689,24.96912,0
          67.06691,24.96891,0
          67.06691,24.96884,0
          67.06699,24.96793,0
          67.067,24.96788,0
          67.06715,24.96595,0
          67.06715,24.96564,0
          67.06717,24.96546,0
          67.06715,24.9654,0
          67.06714,24.96505,0
          67.06711,24.96489,0
          67.06707,24.96477,0
          67.06693,24.96449,0
          67.0668,24.96426,0
          67.06667,24.96415,0
          67.0662,24.96365,0
          67.06605,24.96347,0
          67.066,24.96342,0
          67.06571,24.96307,0
          67.06341,24.96051,0
          67.06207,24.95894,0
          67.06204,24.95889,0
          67.06126,24.95799,0
          67.0612,24.95793,0
          67.05999,24.95655,0
          67.05986,24.95633,0
          67.05946,24.95582,0
          67.0589,24.95524,0
          67.05878,24.95513,0
          67.05847,24.95477,0
          67.05842,24.9547,0
          67.0584,24.95468,0
          67.05836,24.95465,0
          67.05819,24.95447,0
          67.05805,24.95429,0
          67.05801,24.95422,0
          67.05801,24.95413,0
          67.058,24.95408,0
          67.05798,24.95403,0
          67.05793,24.95394,0
          67.05787,24.95386,0
          67.05774,24.95374,0
          67.05758,24.95365,0
          67.05748,24.95361,0
          67.05747,24.95359,0
          67.05737,24.95346,0
          67.05621,24.95212,0
          67.05614,24.95202,0
          67.05561,24.9514,0
          67.05528,24.95108,0
          67.05333,24.949,0
          67.0532,24.94884,0
          67.05188,24.94737,0
          67.05135,24.94675,0
          67.05111,24.94649,0
          67.0511,24.94647,0
          67.0506,24.94591,0
          67.04966,24.94476,0
          67.04902,24.94405,0
          67.04881,24.9438,0
          67.04879,24.94377,0
          67.04837,24.94332,0
          67.04832,24.94325,0
          67.04827,24.94321,0
          67.04811,24.94302,0
          67.04794,24.94279,0
          67.04792,24.94278,0
          67.0479,24.94276,0
          67.04779,24.94274,0
          67.04779,24.94267,0
          67.04778,24.94266,0
          67.04778,24.94265,0
          67.04775,24.9426,0
          67.04772,24.94257,0
          67.0477,24.94256,0
          67.04768,24.94254,0
          67.04765,24.94254,0
          67.04763,24.94253,0
          67.04758,24.94253,0
          67.04746,24.94231,0
          67.04737,24.9422,0
          67.0473,24.94213,0
          67.04717,24.94198,0
          67.04711,24.94192,0
          67.04699,24.94178,0
          67.04666,24.94135,0
          67.04623,24.94088,0
          67.04603,24.94068,0
          67.04587,24.94054,0
          67.0452,24.93976,0
          67.04497,24.93952,0
          67.04434,24.93881,0
          67.0433,24.93772,0
          67.04131,24.93542,0
          67.04035,24.9344,0
          67.03997,24.93397,0
          67.03995,24.9339,0
          67.03991,24.93382,0
          67.0396,24.93344,0
          67.03849,24.93223,0
          67.03807,24.9317,0
          67.03799,24.93155,0
          67.03789,24.93132,0
          67.03787,24.9313,0
          67.03783,24.93124,0
          67.03778,24.93119,0
          67.03776,24.93116,0
          67.03773,24.93114,0
          67.03768,24.93109,0
          67.03762,24.93105,0
          67.0376,24.93103,0
          67.03754,24.93099,0
          67.03753,24.93098,0
          67.03751,24.93098,0
          67.0375,24.93097,0
          67.03747,24.93097,0
          67.03746,24.93096,0
          67.03743,24.93096,0
          67.03706,24.93059,0
          67.03456,24.92781,0
          67.03302,24.92626,0
          67.03297,24.92615,0
          67.03285,24.92606,0
          67.0325,24.9257,0
          67.03227,24.92544,0
          67.03207,24.92518,0
          67.03195,24.92496,0
          67.0318,24.92458,0
          67.03175,24.92442,0
          67.0317,24.92401,0
          67.03165,24.92263,0
          67.03164,24.92253,0
          67.03154,24.91947,0
          67.03148,24.91897,0
          67.03147,24.91836,0
          67.03148,24.91795,0
          67.03145,24.91754,0
          67.03144,24.9175,0
          67.03144,24.91722,0
          67.03143,24.91704,0
          67.03143,24.9166,0
          67.03139,24.91596,0
          67.03131,24.91377,0
          67.03137,24.91372,0
          67.0314,24.91368,0
          67.03143,24.91361,0
          67.03144,24.91356,0
          67.03137,24.91236,0
          67.03134,24.91142,0
          67.03161,24.91091,0
          67.03161,24.9109,0
          67.03166,24.91084,0
          67.03172,24.91078,0
          67.03228,24.91075,0
          67.03285,24.91066,0
          67.03287,24.91066,0
          67.03292,24.91065,0
          67.03488,24.91051,0
          67.03589,24.91038,0
          67.03626,24.91035,0
          67.03718,24.91022,0
          67.03817,24.91017,0
          67.04532,24.90964,0
          67.04836,24.90937,0
          67.04907,24.90929,0
          67.049474,24.909264,0
          67.049827,24.909239,0
          67.04991,24.90924,0
          67.04996,24.90923,0
          67.05005,24.90923,0
          67.05011,24.90922,0
          67.05149,24.90914,0
          67.05285,24.90901,0
          67.05326,24.90899,0
          67.05331,24.90897,0
          67.05636,24.90878,0
          67.05918,24.90845,0
          67.05966,24.90842,0
          67.06168,24.90816,0
          67.06175,24.90814,0
          67.06178,24.90814,0
          67.062,24.90808,0
          67.06202,24.90807,0
          67.06222,24.90801,0
          67.06232,24.90796,0
          67.06264,24.90776,0
          67.06268,24.90774,0
          67.06363,24.90714,0
          67.06364,24.90713,0
          67.06546,24.90592,0
          67.06808,24.90426,0
          67.06854,24.90394,0
          67.0695,24.90333,0
          67.06962,24.90327,0
          67.06991,24.90308,0
          67.06992,24.90307,0
          67.06997,24.90304,0
          67.07064,24.90254,0
          67.07248,24.90138,0
          67.07256,24.90132,0
          67.0739,24.90049,0
          67.07452,24.90001,0
          67.07495,24.89972,0
          67.07599,24.89895,0
          67.07604,24.89892,0
          67.07705,24.89821,0
          67.07709,24.89819,0
          67.07884,24.89698,0
          67.07931,24.89668,0
          67.07933,24.89666,0
          67.07935,24.89665,0
          67.0794,24.8966,0
          67.07942,24.89659,0
          67.07944,24.89657,0
          67.07945,24.89654,0
          67.07947,24.89653,0
          67.07949,24.89649,0
          67.0795,24.89646,0
          67.07984,24.8957,0
          67.07985,24.89567,0
          67.07986,24.89557,0
          67.08061,24.8939,0
          67.08109,24.89291,0
          67.0812,24.89276,0
          67.08131,24.89267,0
          67.08147,24.89257,0
          67.08152,24.89256,0
          67.08153,24.89255,0
          67.08375,24.89207,0
          67.08405,24.89198,0
          67.08421,24.89192,0
          67.08438,24.89184,0
          67.08451,24.89175,0
          67.08453,24.89173,0
          67.08463,24.89166,0
          67.08482,24.89146,0
          67.08504,24.89119,0
          67.08734,24.88814,0
          67.08932,24.88525,0
          67.09087,24.88308,0
          67.0916,24.88199,0
          67.09201,24.88143,0
          67.09306,24.87991,0
          67.09316,24.87978,0
          67.09483,24.87736,0
          67.09489,24.8772,0
          67.09572,24.87599,0
          67.09586,24.87575,0
          67.09594,24.87557,0
          67.09605,24.87526,0
          67.09632,24.87396,0
          67.09636,24.87385,0
          67.09639,24.8738,0
          67.09649,24.8737,0
          67.09655,24.87367,0
          67.09662,24.87365,0
          67.09673,24.87363,0
          67.09679,24.87363,0
          67.09689,24.87365,0
          67.0969,24.87365,0
          67.09701,24.8737,0
          67.09706,24.87374,0
          67.09711,24.87379,0
          67.09715,24.87384,0
          67.09717,24.87388,0
          67.09719,24.87401,0
          67.09719,24.87407,0
          67.09717,24.87413,0
          67.09713,24.8742,0
          67.09687,24.87456,0
          67.09679,24.87464,0
          67.09676,24.87466,0
          67.09675,24.87466,0
          67.09674,24.87467,0
          67.09665,24.87471,0
          67.09658,24.87472,0
          67.09652,24.87472,0
          67.09644,24.87471,0
          67.09637,24.87469,0
          67.09631,24.87468,0
          67.09599,24.8746,0
          67.09518,24.87443,0
          67.09482,24.87433,0
          67.09467,24.87427,0
          67.09443,24.87415,0
          67.09406,24.87394,0
          67.094,24.8739,0
          67.094,24.87389,0
          67.09389,24.87382,0
          67.09368,24.87365,0
          67.09317,24.87319,0
          67.09253,24.87265,0
          67.08956,24.87088,0
          67.08935,24.87074,0
          67.08471,24.8679,0
          67.0841,24.86756,0
          67.08286,24.86695,0
          67.08242,24.86678,0
          67.08224,24.8667,0
          67.08108,24.86626,0
          67.08052,24.86607,0
          67.08012,24.86596,0
          67.08005,24.86593,0
          67.07955,24.86579,0
          67.07877,24.8655,0
          67.07862,24.86546,0
          67.0777,24.8651,0
          67.07708,24.86489,0
          67.07627,24.86453,0
          67.07399,24.86337,0
          67.07384,24.86331,0
          67.07383,24.86331,0
          67.07366,24.86324,0
          67.07128,24.8625,0
          67.07123,24.86249,0
          67.07109,24.86244,0
          67.07104,24.86243,0
          67.07013,24.86214,0
          67.07004,24.86212,0
          67.06975,24.86203,0
          67.06973,24.86203,0
          67.06956,24.86198,0
          67.06954,24.86197,0
          67.06706,24.86127,0
          67.0667,24.86115,0
          67.06669,24.86115,0
          67.06667,24.86114,0
          67.06651,24.8611,0
          67.06649,24.86109,0
          67.06589,24.86092,0
          67.06588,24.86092,0
          67.0657,24.86087,0
          67.06569,24.86087,0
          67.06552,24.86082,0
          67.06385,24.86044,0
          67.06025,24.8597,0
          67.05972,24.85962,0
          67.05836,24.85962,0
          67.0581,24.85963,0
          67.05774,24.85961,0
          67.05433,24.85963,0
          67.0542,24.85962,0
          67.05397,24.85962,0
          67.05395,24.85961,0
          67.05391,24.85961,0
          67.05388,24.8596,0
          67.05344,24.85953,0
          67.05268,24.85932,0
          67.05255,24.85926,0
          67.05227,24.85916,0
          67.05164,24.8589,0
          67.05147,24.85882,0
          67.0513,24.8587,0
          67.05124,24.85865,0
          67.05107,24.85853,0
          67.05099,24.85845,0
          67.05083,24.85816,0
          67.05077,24.85791,0
          67.05078,24.85758,0
          67.0508,24.85745,0
          67.05083,24.85733,0
          67.05088,24.8572,0
          67.05092,24.85707,0
          67.05116,24.85643,0
          67.05119,24.85631,0
          67.05129,24.85603,0
          67.05147,24.85567,0
          67.05164,24.85524,0
          67.05176,24.85488,0
          67.05226,24.85356,0
          67.05271,24.85257,0
          67.0531,24.85161,0
          67.05403,24.84911,0
          67.05418,24.84876,0
          67.05434,24.84845,0
          67.05437,24.84838,0
          67.05465,24.84785,0
          67.05494,24.84719,0
          67.05501,24.84706,0
          67.05514,24.84672,0
          67.05515,24.84671,0
          67.05615,24.84431,0
          67.05619,24.84424,0
          67.0563,24.84401,0
          67.05644,24.84375,0
          67.05663,24.84347,0
          67.05667,24.84343,0
          67.05677,24.84331,0
          67.05766,24.84248,0
          67.05795,24.84224,0
          67.05847,24.84184,0
          67.05853,24.84181,0
          67.05906,24.84148,0
          67.05971,24.84115,0
          67.05972,24.84114,0
          67.06043,24.84078,0
          67.06044,24.84077,0
          67.06045,24.84077,0
          67.06046,24.84076,0
          67.06047,24.84076,0
          67.06048,24.84075,0
          67.06049,24.84075,0
          67.06049,24.84074,0
          67.06051,24.84074,0
          67.06052,24.84073,0
          67.06053,24.84073,0
          67.06055,24.84071,0
          67.06057,24.84071,0
          67.06057,24.8407,0
          67.06059,24.8407,0
          67.06061,24.84068,0
          67.06062,24.84068,0
          67.06063,24.84067,0
          67.06065,24.84067,0
          67.06065,24.84066,0
          67.06067,24.84066,0
          67.06067,24.84065,0
          67.06068,24.84065,0
          67.06069,24.84064,0
          67.0607,24.84064,0
          67.06071,24.84063,0
          67.06073,24.84063,0
          67.06073,24.84062,0
          67.06074,24.84062,0
          67.06075,24.84061,0
          67.06076,24.84061,0
          67.06077,24.8406,0
          67.06078,24.8406,0
          67.06079,24.84059,0
          67.0608,24.84059,0
          67.06081,24.84058,0
          67.06082,24.84058,0
          67.06083,24.84057,0
          67.06084,24.84057,0
          67.06085,24.84056,0
          67.06086,24.84056,0
          67.06087,24.84055,0
          67.06088,24.84055,0
          67.06088,24.84054,0
          67.0609,24.84054,0
          67.06091,24.84053,0
          67.06092,24.84053,0
          67.06093,24.84052,0
          67.06094,24.84052,0
          67.06095,24.84051,0
          67.06096,24.84051,0
          67.06096,24.8405,0
          67.06098,24.8405,0
          67.06098,24.84049,0
          67.061,24.84049,0
          67.06102,24.84047,0
          67.06103,24.84047,0
          67.06104,24.84046,0
          67.06106,24.84046,0
          67.06106,24.84045,0
          67.06108,24.84045,0
          67.0611,24.84043,0
          67.06111,24.84043,0
          67.06112,24.84042,0
          67.06114,24.84042,0
          67.06114,24.84041,0
          67.06115,24.84041,0
          67.06448,24.83869,0
          67.06709,24.8374,0
          67.06953,24.83613,0
          67.06954,24.83613,0
          67.06988,24.83594,0
          67.06997,24.8359,0
          67.07292,24.83423,0
          67.07316,24.83416,0
          67.07407,24.8338,0
          67.07423,24.83372,0
          67.07429,24.83366,0
          67.07436,24.83356,0
          67.07471,24.83342,0
          67.07474,24.8334,0
          67.07535,24.83308,0
          67.07701,24.8321,0
          67.07903,24.83092,0
          67.07926,24.83082,0
          67.07936,24.83079,0
          67.07948,24.83074,0
          67.07951,24.83074,0
          67.07951,24.83073,0
          67.07959,24.83071,0
          67.07968,24.8307,0
          67.0797,24.83069,0
          67.0799,24.83066,0
          67.07994,24.83065,0
          67.08025,24.83065,0
          67.08029,24.83066,0
          67.08046,24.83067,0
          67.08053,24.83068,0
          67.0822,24.83115,0
          67.08302,24.83132,0
          67.08372,24.8314,0
          67.08802,24.83225,0
          67.08804,24.83225,0
          67.08898,24.83244,0
          67.08899,24.83244,0
          67.08937,24.83252,0
          67.08938,24.83252,0
          67.09034,24.83271,0
          67.0905,24.83275,0
          67.09093,24.83282,0
          67.09131,24.8329,0
          67.0914,24.83291,0
          67.09279,24.83319,0
          67.09414,24.8335,0
          67.09543,24.83374,0
          67.09614,24.83395,0
          67.09887,24.83451,0
          67.09913,24.83461,0
          67.09924,24.83467,0
          67.09927,24.83471,0
          67.09932,24.83476,0
          67.09948,24.83483,0
          67.09959,24.83483,0
          67.09962,24.83482,0
          67.09964,24.83482,0
          67.09968,24.8348,0
          67.09969,24.83479,0
          67.0997,24.83479,0
          67.09974,24.83477,0
          67.09976,24.83475,0
          67.09985,24.83476,0
          67.0999,24.83476,0
          67.10003,24.83479,0
          67.10128,24.835,0
          67.10219,24.83518,0
          67.10234,24.8352,0
          67.105738,24.835872,0
          67.115856,24.837879,0
          67.11969,24.83865,0
          67.1202,24.83878,0
          67.12054,24.83889,0
          67.12054,24.83891,0
          67.12055,24.83892,0
          67.12055,24.83894,0
          67.12056,24.83895,0
          67.12056,24.83896,0
          67.12058,24.83898,0
          67.12059,24.839,0
          67.12063,24.83904,0
          67.12065,24.83905,0
          67.12066,24.83906,0
          67.1207,24.83908,0
          67.12072,24.8391,0
          67.12074,24.83911,0
          67.12076,24.83911,0
          67.12081,24.83913,0
          67.12083,24.83913,0
          67.12088,24.83914,0
          67.12092,24.83914,0
          67.12105,24.83911,0
          67.12109,24.83909,0
          67.12112,24.83907,0
          67.12116,24.83905,0
          67.12118,24.83901,0
          67.12121,24.83897,0
          67.12123,24.83893,0
          67.12126,24.8388,0
          67.12126,24.83875,0
          67.12125,24.83871,0
          67.12125,24.83869,0
          67.12124,24.83867,0
          67.12124,24.83865,0
          67.12123,24.83863,0
          67.12122,24.83862,0
          67.1212,24.83858,0
          67.12119,24.83857,0
          67.12118,24.83855,0
          67.12116,24.83853,0
          67.12111,24.8385,0
          67.12109,24.83848,0
          67.12101,24.83845,0
          67.12106,24.83803,0
          67.1218,24.83504,0
          67.1222,24.83329,0
          67.12226,24.83307,0
          67.12253,24.83185,0
          67.12255,24.8318,0
          67.12269,24.83115,0
          67.12274,24.83107,0
          67.123324,24.828579,0
          67.124003,24.825704,0
          67.12444,24.8239,0
          67.12453,24.82343,0
          67.12496,24.8216,0
          67.12496,24.82156,0
          67.12521,24.82055,0
          67.12525,24.82043,0
          67.1251,24.82039,0
        </coordinates>
      </LineString>
    </Placemark>
  </Document>
</kml>
