<?xml version="1.0" encoding="UTF-8"?>
<kml xmlns="http://www.opengis.net/kml/2.2">
  <Document>
    <name>Untitled layer</name>
    <Style id="line-0288D1-5000-normal">
      <LineStyle>
        <color>ffd18802</color>
        <width>5</width>
      </LineStyle>
    </Style>
    <Style id="line-0288D1-5000-highlight">
      <LineStyle>
        <color>ffd18802</color>
        <width>7.5</width>
      </LineStyle>
    </Style>
    <StyleMap id="line-0288D1-5000">
      <Pair>
        <key>normal</key>
        <styleUrl>#line-0288D1-5000-normal</styleUrl>
      </Pair>
      <Pair>
        <key>highlight</key>
        <styleUrl>#line-0288D1-5000-highlight</styleUrl>
      </Pair>
    </StyleMap>
    <Placemark>
      <name>R4 (Power House Chowrangi to Keamari)</name>
      <description><![CDATA[description: <br>Route: R4<br>Direction: R4_UP]]></description>
      <styleUrl>#line-0288D1-5000</styleUrl>
      <ExtendedData>
        <Data name="description">
          <value/>
        </Data>
        <Data name="Route">
          <value>R4</value>
        </Data>
        <Data name="Direction">
          <value>R4_UP</value>
        </Data>
      </ExtendedData>
      <LineString>
        <tessellate>1</tessellate>
        <coordinates>
          67.06588,24.98534,0
          67.06587,24.98503,0
          67.06589,24.98468,0
          67.06593,24.98412,0
          67.06593,24.98401,0
          67.06595,24.9837,0
          67.06596,24.98352,0
          67.06596,24.98345,0
          67.06598,24.98316,0
          67.06601,24.98248,0
          67.06602,24.98224,0
          67.06603,24.98213,0
          67.06606,24.98177,0
          67.06611,24.98121,0
          67.06613,24.98044,0
          67.06619,24.9796,0
          67.0662,24.97943,0
          67.06621,24.97925,0
          67.06621,24.97913,0
          67.06623,24.97877,0
          67.06626,24.97841,0
          67.06629,24.97796,0
          67.06632,24.97772,0
          67.06641,24.97666,0
          67.06645,24.97608,0
          67.06644,24.97572,0
          67.06645,24.97535,0
          67.06646,24.97518,0
          67.0665,24.97444,0
          67.06655,24.97385,0
          67.06657,24.97352,0
          67.06662,24.97291,0
          67.06662,24.9729,0
          67.06663,24.97273,0
          67.06666,24.97237,0
          67.06666,24.97226,0
          67.0667,24.97176,0
          67.06672,24.97144,0
          67.06679,24.9705,0
          67.06679,24.97006,0
          67.06687,24.9694,0
          67.06689,24.96918,0
          67.06689,24.96912,0
          67.0669,24.96899,0
          67.06691,24.96891,0
          67.06691,24.96884,0
          67.06692,24.96875,0
          67.06696,24.96826,0
          67.06699,24.96793,0
          67.067,24.96788,0
          67.06704,24.96745,0
          67.06708,24.96699,0
          67.06711,24.96658,0
          67.06713,24.96631,0
          67.06715,24.96595,0
          67.06715,24.96582,0
          67.06715,24.96568,0
          67.06715,24.96564,0
          67.06717,24.96546,0
          67.06723,24.96532,0
          67.0673,24.96517,0
          67.06733,24.9651,0
          67.06737,24.96502,0
          67.06743,24.9649,0
          67.06754,24.96469,0
          67.06758,24.96463,0
          67.06766,24.96453,0
          67.06771,24.96447,0
          67.06776,24.96442,0
          67.06781,24.96438,0
          67.06787,24.96434,0
          67.06798,24.96424,0
          67.0684,24.96393,0
          67.06906,24.96343,0
          67.06916,24.96336,0
          67.06944,24.96315,0
          67.06961,24.96304,0
          67.0697,24.963,0
          67.07087,24.96212,0
          67.07114,24.96191,0
          67.0712,24.96186,0
          67.07167,24.96152,0
          67.07191,24.96135,0
          67.07216,24.96117,0
          67.07262,24.96082,0
          67.07278,24.96071,0
          67.07323,24.96036,0
          67.07401,24.95979,0
          67.07418,24.95967,0
          67.07448,24.95944,0
          67.07471,24.95927,0
          67.07479,24.95921,0
          67.07483,24.95917,0
          67.07487,24.95913,0
          67.07491,24.95908,0
          67.07501,24.95896,0
          67.07506,24.95887,0
          67.07522,24.95861,0
          67.07538,24.95838,0
          67.07539,24.95837,0
          67.07556,24.95815,0
          67.0756,24.9581,0
          67.07571,24.95795,0
          67.07592,24.95769,0
          67.07597,24.95763,0
          67.07624,24.95723,0
          67.07632,24.95711,0
          67.07678,24.9564,0
          67.07708,24.95594,0
          67.07718,24.9558,0
          67.07745,24.95539,0
          67.07751,24.95529,0
          67.0777,24.95501,0
          67.07771,24.95499,0
          67.07803,24.9545,0
          67.07815,24.95432,0
          67.07818,24.95427,0
          67.07853,24.95379,0
          67.07884,24.95336,0
          67.07914,24.95291,0
          67.07945,24.95246,0
          67.07957,24.95228,0
          67.08037,24.95114,0
          67.08056,24.95086,0
          67.08093,24.95031,0
          67.08111,24.95006,0
          67.08126,24.94986,0
          67.0813,24.94981,0
          67.08159,24.94939,0
          67.08182,24.94905,0
          67.08205,24.94867,0
          67.08222,24.94842,0
          67.08235,24.94823,0
          67.08244,24.94808,0
          67.08259,24.94781,0
          67.08289,24.94726,0
          67.08326,24.94654,0
          67.08328,24.94648,0
          67.08331,24.94647,0
          67.08332,24.94646,0
          67.08334,24.94644,0
          67.0834,24.94634,0
          67.08343,24.9463,0
          67.0835,24.94619,0
          67.08355,24.94611,0
          67.0836,24.94602,0
          67.08366,24.9459,0
          67.08371,24.94581,0
          67.08377,24.94571,0
          67.08383,24.94559,0
          67.08389,24.94545,0
          67.08395,24.94536,0
          67.08402,24.94526,0
          67.08406,24.94521,0
          67.0842,24.945,0
          67.08437,24.94473,0
          67.08442,24.94465,0
          67.08447,24.94457,0
          67.08466,24.94426,0
          67.08473,24.94414,0
          67.08475,24.94411,0
          67.08476,24.94408,0
          67.08476,24.94402,0
          67.08475,24.94392,0
          67.08475,24.94391,0
          67.08473,24.94382,0
          67.08469,24.94376,0
          67.08464,24.94369,0
          67.08456,24.94362,0
          67.08444,24.94354,0
          67.084,24.94318,0
          67.08368,24.94291,0
          67.08355,24.94283,0
          67.08286,24.94226,0
          67.0828,24.94221,0
          67.08268,24.94204,0
          67.08233,24.94181,0
          67.08186,24.94145,0
          67.08147,24.94114,0
          67.08116,24.9409,0
          67.08102,24.94078,0
          67.08063,24.94047,0
          67.08033,24.94023,0
          67.0803,24.94021,0
          67.08018,24.94012,0
          67.07914,24.93928,0
          67.07839,24.93868,0
          67.07843,24.93864,0
          67.07846,24.9386,0
          67.07728,24.93764,0
          67.07701,24.93741,0
          67.07661,24.93708,0
          67.07645,24.93695,0
          67.07631,24.93685,0
          67.07631,24.93682,0
          67.0763,24.9368,0
          67.0763,24.93678,0
          67.07629,24.93676,0
          67.07628,24.93674,0
          67.07628,24.93672,0
          67.07626,24.9367,0
          67.07625,24.93668,0
          67.07624,24.93667,0
          67.07623,24.93666,0
          67.07622,24.93665,0
          67.0762,24.93664,0
          67.07619,24.93662,0
          67.07617,24.93662,0
          67.07616,24.93661,0
          67.07615,24.9366,0
          67.07612,24.93659,0
          67.0761,24.93658,0
          67.07607,24.93658,0
          67.07605,24.93657,0
          67.07603,24.93657,0
          67.076,24.93657,0
          67.07598,24.93657,0
          67.07595,24.93657,0
          67.07583,24.93645,0
          67.07582,24.93645,0
          67.07581,24.93644,0
          67.0758,24.93643,0
          67.07579,24.93643,0
          67.07579,24.93642,0
          67.07578,24.93642,0
          67.07578,24.93641,0
          67.07577,24.93641,0
          67.07576,24.9364,0
          67.07575,24.93639,0
          67.07574,24.93639,0
          67.07573,24.93638,0
          67.07572,24.93637,0
          67.07571,24.93637,0
          67.07571,24.93636,0
          67.0757,24.93636,0
          67.0757,24.93635,0
          67.07569,24.93635,0
          67.07568,24.93634,0
          67.07567,24.93633,0
          67.07566,24.93633,0
          67.07565,24.93632,0
          67.07564,24.93631,0
          67.07563,24.93631,0
          67.07563,24.9363,0
          67.07562,24.9363,0
          67.07562,24.93629,0
          67.07561,24.93629,0
          67.0756,24.93628,0
          67.07559,24.93628,0
          67.07558,24.93627,0
          67.07557,24.93626,0
          67.07556,24.93626,0
          67.07556,24.93625,0
          67.07555,24.93625,0
          67.07555,24.93624,0
          67.07554,24.93624,0
          67.07553,24.93623,0
          67.07552,24.93622,0
          67.07551,24.93622,0
          67.07551,24.93621,0
          67.0755,24.93621,0
          67.07549,24.9362,0
          67.07548,24.9362,0
          67.07547,24.93619,0
          67.07546,24.93619,0
          67.07546,24.93618,0
          67.07545,24.93618,0
          67.07544,24.93617,0
          67.07543,24.93617,0
          67.07542,24.93616,0
          67.07541,24.93616,0
          67.07541,24.93615,0
          67.0754,24.93615,0
          67.07539,24.93614,0
          67.07538,24.93614,0
          67.07538,24.93613,0
          67.07537,24.93613,0
          67.07536,24.93612,0
          67.07535,24.93612,0
          67.07534,24.93611,0
          67.07533,24.93611,0
          67.07533,24.9361,0
          67.07532,24.9361,0
          67.07532,24.93609,0
          67.07531,24.93609,0
          67.0753,24.93608,0
          67.07529,24.93608,0
          67.07528,24.93607,0
          67.07498,24.93583,0
          67.07471,24.93562,0
          67.07416,24.93519,0
          67.07385,24.93494,0
          67.07383,24.93493,0
          67.07375,24.93491,0
          67.07366,24.93487,0
          67.07355,24.93484,0
          67.07337,24.93468,0
          67.07312,24.93448,0
          67.07267,24.93412,0
          67.07222,24.93377,0
          67.07201,24.93361,0
          67.07139,24.93312,0
          67.07132,24.93306,0
          67.0707,24.93256,0
          67.07023,24.9322,0
          67.07008,24.93201,0
          67.0696,24.93164,0
          67.06901,24.93117,0
          67.06885,24.93104,0
          67.06841,24.93068,0
          67.06782,24.9302,0
          67.06743,24.92989,0
          67.06706,24.9296,0
          67.06672,24.92934,0
          67.06671,24.92932,0
          67.0667,24.92929,0
          67.0667,24.92928,0
          67.06668,24.92925,0
          67.06664,24.92922,0
          67.06629,24.92891,0
          67.06589,24.92857,0
          67.06518,24.92799,0
          67.06472,24.92765,0
          67.06442,24.92744,0
          67.06441,24.92737,0
          67.0644,24.92735,0
          67.06439,24.92733,0
          67.06438,24.92731,0
          67.06436,24.92729,0
          67.06435,24.92727,0
          67.06433,24.92725,0
          67.06431,24.92724,0
          67.06429,24.92722,0
          67.06427,24.92721,0
          67.06425,24.92721,0
          67.06424,24.9272,0
          67.06423,24.9272,0
          67.06421,24.92719,0
          67.0642,24.92719,0
          67.06418,24.92719,0
          67.06417,24.92719,0
          67.06416,24.92718,0
          67.06389,24.92696,0
          67.06369,24.9268,0
          67.06347,24.92661,0
          67.06293,24.9262,0
          67.06235,24.92576,0
          67.06219,24.92564,0
          67.06199,24.92551,0
          67.06195,24.92549,0
          67.06187,24.92549,0
          67.06144,24.92516,0
          67.06098,24.92476,0
          67.06072,24.92452,0
          67.06057,24.9244,0
          67.06002,24.92397,0
          67.05952,24.92358,0
          67.05909,24.92324,0
          67.05885,24.92305,0
          67.05796,24.92234,0
          67.05751,24.92198,0
          67.05676,24.9214,0
          67.05633,24.92106,0
          67.05631,24.92104,0
          67.05589,24.92069,0
          67.05575,24.92057,0
          67.05561,24.92044,0
          67.05505,24.91995,0
          67.05504,24.91993,0
          67.05457,24.91945,0
          67.05452,24.91939,0
          67.05415,24.91897,0
          67.0539,24.91869,0
          67.05381,24.91859,0
          67.05366,24.91841,0
          67.05359,24.91833,0
          67.05354,24.91826,0
          67.0533,24.91798,0
          67.05326,24.91793,0
          67.05305,24.91766,0
          67.05295,24.91754,0
          67.0528,24.91736,0
          67.05259,24.91712,0
          67.05259,24.91711,0
          67.05228,24.91676,0
          67.05201,24.91645,0
          67.05192,24.91632,0
          67.05181,24.91613,0
          67.05164,24.91574,0
          67.05147,24.91535,0
          67.05148,24.91531,0
          67.05149,24.91528,0
          67.05149,24.91525,0
          67.05149,24.91522,0
          67.05149,24.9152,0
          67.0514,24.9147,0
          67.05137,24.91454,0
          67.05131,24.91432,0
          67.05126,24.91414,0
          67.05117,24.91387,0
          67.05104,24.91345,0
          67.05088,24.91293,0
          67.05057,24.91189,0
          67.05051,24.91172,0
          67.05039,24.91137,0
          67.05022,24.91086,0
          67.05017,24.9107,0
          67.05004,24.91017,0
          67.04999,24.91,0
          67.04995,24.90982,0
          67.04989,24.9096,0
          67.04986,24.90942,0
          67.04983,24.90928,0
          67.049827,24.909239,0
          67.04981,24.90903,0
          67.04979,24.90899,0
          67.04977,24.90887,0
          67.04974,24.90868,0
          67.04967,24.90842,0
          67.04957,24.90818,0
          67.04953,24.90807,0
          67.0495,24.90801,0
          67.04932,24.90759,0
          67.049,24.9071,0
          67.0488,24.90675,0
          67.0484,24.90611,0
          67.04825,24.90585,0
          67.04801,24.90545,0
          67.04779,24.90512,0
          67.0475,24.90467,0
          67.04749,24.90465,0
          67.04731,24.90436,0
          67.04714,24.90408,0
          67.04686,24.90361,0
          67.04648,24.90293,0
          67.04634,24.9027,0
          67.04624,24.90254,0
          67.04615,24.90239,0
          67.04587,24.90192,0
          67.04542,24.90117,0
          67.04515,24.9008,0
          67.04496,24.90048,0
          67.04493,24.90046,0
          67.04489,24.90041,0
          67.0449,24.90041,0
          67.0449,24.9004,0
          67.0449,24.90039,0
          67.04491,24.90038,0
          67.04491,24.90037,0
          67.04491,24.90036,0
          67.04491,24.90035,0
          67.04492,24.90034,0
          67.04492,24.90033,0
          67.04492,24.90032,0
          67.04492,24.9003,0
          67.04492,24.90029,0
          67.04492,24.90028,0
          67.04491,24.90027,0
          67.04491,24.90025,0
          67.0449,24.90023,0
          67.0449,24.90021,0
          67.04489,24.9002,0
          67.04488,24.90018,0
          67.04487,24.90016,0
          67.04486,24.90015,0
          67.04484,24.90013,0
          67.04484,24.90007,0
          67.04483,24.89996,0
          67.04481,24.89977,0
          67.04473,24.89906,0
          67.04472,24.89902,0
          67.04462,24.89819,0
          67.04462,24.89816,0
          67.04456,24.8977,0
          67.04454,24.89768,0
          67.04451,24.89766,0
          67.04448,24.89763,0
          67.04446,24.89762,0
          67.04439,24.89759,0
          67.04431,24.89705,0
          67.04429,24.89687,0
          67.04425,24.89663,0
          67.04423,24.89645,0
          67.04413,24.89559,0
          67.04407,24.89506,0
          67.04403,24.89475,0
          67.04401,24.89464,0
          67.04395,24.89424,0
          67.0439,24.89393,0
          67.04387,24.89372,0
          67.04384,24.89355,0
          67.04382,24.89337,0
          67.04379,24.89317,0
          67.04376,24.89298,0
          67.04375,24.89296,0
          67.04372,24.89276,0
          67.0437,24.89258,0
          67.04368,24.89242,0
          67.04367,24.8924,0
          67.04366,24.89232,0
          67.04364,24.89225,0
          67.04363,24.89222,0
          67.04362,24.89218,0
          67.04361,24.89213,0
          67.04355,24.89194,0
          67.04347,24.89178,0
          67.04341,24.89163,0
          67.0434,24.89161,0
          67.04322,24.89118,0
          67.04317,24.89104,0
          67.04311,24.89089,0
          67.04302,24.89065,0
          67.0428,24.89006,0
          67.04275,24.88993,0
          67.04263,24.88965,0
          67.04257,24.88949,0
          67.04252,24.88935,0
          67.04246,24.88918,0
          67.04245,24.88912,0
          67.04241,24.88902,0
          67.04236,24.88887,0
          67.04227,24.88862,0
          67.04224,24.88855,0
          67.04186,24.88751,0
          67.04179,24.88732,0
          67.04172,24.88714,0
          67.04167,24.88701,0
          67.04162,24.88687,0
          67.04149,24.88656,0
          67.04138,24.88625,0
          67.04122,24.88584,0
          67.04114,24.88561,0
          67.04108,24.88544,0
          67.04099,24.88523,0
          67.04085,24.88485,0
          67.04077,24.88464,0
          67.04076,24.88463,0
          67.04068,24.8844,0
          67.04051,24.88398,0
          67.04042,24.88375,0
          67.04036,24.88359,0
          67.04028,24.88337,0
          67.04021,24.88317,0
          67.04013,24.88297,0
          67.0401,24.88289,0
          67.04005,24.88277,0
          67.03998,24.88257,0
          67.03993,24.88246,0
          67.03976,24.88198,0
          67.03959,24.88152,0
          67.03941,24.88105,0
          67.0394,24.88102,0
          67.0394,24.881,0
          67.0394,24.88098,0
          67.0394,24.88097,0
          67.03941,24.88095,0
          67.03942,24.88093,0
          67.03946,24.88089,0
          67.0396,24.88081,0
          67.03985,24.88071,0
          67.04006,24.88062,0
          67.04024,24.88053,0
          67.04028,24.8805,0
          67.0403,24.88048,0
          67.04032,24.88045,0
          67.04034,24.88042,0
          67.04035,24.88039,0
          67.04035,24.88038,0
          67.04035,24.88035,0
          67.04033,24.88027,0
          67.04031,24.88014,0
          67.0402,24.88009,0
          67.03995,24.87997,0
          67.03984,24.87992,0
          67.03971,24.87986,0
          67.03959,24.87981,0
          67.03958,24.87976,0
          67.03957,24.87972,0
          67.03954,24.87969,0
          67.03951,24.87967,0
          67.03947,24.87964,0
          67.03942,24.87961,0
          67.03935,24.87956,0
          67.03932,24.87953,0
          67.03929,24.8795,0
          67.03925,24.87944,0
          67.0392,24.87937,0
          67.03914,24.87925,0
          67.03903,24.87902,0
          67.03897,24.87889,0
          67.03854,24.87796,0
          67.03844,24.87773,0
          67.03839,24.87759,0
          67.03834,24.87746,0
          67.03826,24.87726,0
          67.0382,24.87708,0
          67.03818,24.87703,0
          67.03804,24.87679,0
          67.03791,24.8765,0
          67.03748,24.87557,0
          67.03741,24.87543,0
          67.03648,24.87342,0
          67.03628,24.87312,0
          67.03601,24.8727,0
          67.03592,24.87254,0
          67.03566,24.87215,0
          67.03542,24.87179,0
          67.03534,24.87171,0
          67.03532,24.87168,0
          67.03522,24.8716,0
          67.03507,24.87149,0
          67.03483,24.87131,0
          67.03445,24.87106,0
          67.03442,24.87104,0
          67.03393,24.87074,0
          67.03347,24.87046,0
          67.03293,24.87011,0
          67.03261,24.8699,0
          67.03224,24.86968,0
          67.03188,24.86946,0
          67.03164,24.8693,0
          67.03156,24.86925,0
          67.03155,24.86924,0
          67.03108,24.86893,0
          67.031,24.86887,0
          67.03091,24.86882,0
          67.03075,24.8687,0
          67.0304,24.86844,0
          67.03032,24.86838,0
          67.02998,24.86816,0
          67.0299,24.8681,0
          67.02967,24.86798,0
          67.02934,24.86779,0
          67.02927,24.86775,0
          67.0289,24.86751,0
          67.02885,24.86748,0
          67.02868,24.86738,0
          67.02852,24.86728,0
          67.02838,24.86719,0
          67.02822,24.8671,0
          67.02816,24.86707,0
          67.02774,24.8668,0
          67.02773,24.86679,0
          67.02741,24.86659,0
          67.0274,24.86658,0
          67.02659,24.86606,0
          67.02658,24.86606,0
          67.02645,24.86598,0
          67.02593,24.86567,0
          67.02578,24.86557,0
          67.02554,24.86542,0
          67.02505,24.86512,0
          67.02495,24.86505,0
          67.02405,24.86449,0
          67.02346,24.86412,0
          67.02312,24.86392,0
          67.02272,24.86367,0
          67.02222,24.86337,0
          67.02189,24.86317,0
          67.02181,24.86312,0
          67.02178,24.8631,0
          67.02151,24.86293,0
          67.02145,24.8629,0
          67.02135,24.86284,0
          67.02121,24.86276,0
          67.0204,24.86231,0
          67.02016,24.86217,0
          67.01995,24.86203,0
          67.01961,24.86185,0
          67.01932,24.86168,0
          67.01897,24.86146,0
          67.01853,24.8612,0
          67.01786,24.86079,0
          67.01775,24.86073,0
          67.01765,24.86066,0
          67.0169,24.86022,0
          67.01655,24.86003,0
          67.01631,24.85991,0
          67.01607,24.85978,0
          67.01606,24.85978,0
          67.01594,24.85972,0
          67.01586,24.85968,0
          67.0158,24.85966,0
          67.01571,24.85963,0
          67.01548,24.85952,0
          67.01513,24.85931,0
          67.01432,24.85884,0
          67.014,24.85865,0
          67.01344,24.85831,0
          67.01303,24.85809,0
          67.01286,24.858,0
          67.01264,24.85786,0
          67.01257,24.85782,0
          67.01233,24.85766,0
          67.01146,24.85718,0
          67.01135,24.85711,0
          67.01102,24.8569,0
          67.01093,24.85685,0
          67.01046,24.85657,0
          67.01013,24.85638,0
          67.00996,24.85628,0
          67.00984,24.85621,0
          67.00974,24.85615,0
          67.00954,24.85603,0
          67.00918,24.85583,0
          67.00909,24.85578,0
          67.00887,24.85565,0
          67.00867,24.85554,0
          67.00859,24.8555,0
          67.00855,24.85549,0
          67.00844,24.8554,0
          67.00815,24.85522,0
          67.00759,24.85488,0
          67.00751,24.85482,0
          67.00717,24.85462,0
          67.00665,24.85434,0
          67.00649,24.85425,0
          67.00639,24.85421,0
          67.00615,24.85405,0
          67.00553,24.85367,0
          67.0047,24.85318,0
          67.00409,24.85283,0
          67.00402,24.8528,0
          67.00324,24.85237,0
          67.00286,24.85216,0
          67.00254,24.85197,0
          67.00218,24.85176,0
          67.00177,24.85155,0
          67.00164,24.85147,0
          67.00126,24.85125,0
          67.00105,24.85112,0
          67.0009,24.85104,0
          67.00063,24.85088,0
          67.00034,24.85071,0
          67.0002,24.85062,0
          66.9997,24.85031,0
          66.99968,24.8503,0
          66.99951,24.8502,0
          66.99918,24.85001,0
          66.99866,24.84975,0
          66.99783,24.84935,0
          66.99758,24.84924,0
          66.9975,24.84921,0
          66.99676,24.84876,0
          66.99675,24.84872,0
          66.99674,24.8487,0
          66.99673,24.84867,0
          66.99671,24.84865,0
          66.996324,24.848516,0
          66.99593,24.84837,0
          66.99582,24.84832,0
          66.99573,24.84828,0
          66.99562,24.84822,0
          66.99537,24.84806,0
          66.99509,24.84772,0
          66.99505,24.84766,0
          66.99503,24.84764,0
          66.99487,24.84752,0
          66.99475,24.84744,0
          66.99466,24.84738,0
          66.99447,24.84729,0
          66.99439,24.84725,0
          66.99421,24.84716,0
          66.99409,24.84709,0
          66.9938,24.84692,0
          66.99351,24.84673,0
          66.99311,24.84644,0
          66.99306,24.8464,0
          66.99301,24.84635,0
          66.99298,24.84629,0
          66.99296,24.84622,0
          66.99295,24.84616,0
          66.99295,24.84609,0
          66.99296,24.84597,0
          66.99299,24.84589,0
          66.99302,24.84582,0
          66.99304,24.84576,0
          66.99306,24.84568,0
          66.99307,24.8456,0
          66.99307,24.84552,0
          66.99306,24.84545,0
          66.99305,24.8454,0
          66.99304,24.84537,0
          66.99301,24.84529,0
          66.993,24.84525,0
          66.99299,24.84523,0
          66.99298,24.84521,0
          66.99293,24.84514,0
          66.99288,24.84508,0
          66.99287,24.84507,0
          66.9928,24.84499,0
          66.99274,24.84495,0
          66.99266,24.8449,0
          66.99257,24.84485,0
          66.99249,24.84483,0
          66.99241,24.8448,0
          66.9923,24.84479,0
          66.99211,24.8447,0
          66.99203,24.84465,0
          66.99193,24.84459,0
          66.99185,24.84452,0
          66.99184,24.84452,0
          66.99175,24.84443,0
          66.99172,24.84439,0
          66.99168,24.84434,0
          66.99165,24.8443,0
          66.99155,24.84419,0
          66.99146,24.84409,0
          66.99143,24.84406,0
          66.99125,24.84383,0
          66.9912,24.84377,0
          66.99115,24.8437,0
          66.99089,24.84337,0
          66.99075,24.8432,0
          66.99074,24.84318,0
          66.9905,24.84286,0
          66.99017,24.84244,0
          66.99006,24.8423,0
          66.99005,24.84229,0
          66.98982,24.842,0
          66.98961,24.84174,0
          66.98948,24.84156,0
          66.98924,24.84128,0
          66.98918,24.84121,0
          66.98909,24.84109,0
          66.98891,24.84092,0
          66.98882,24.84083,0
          66.9887,24.84072,0
          66.98854,24.84054,0
          66.98826,24.84005,0
          66.98802,24.83961,0
          66.98772,24.83908,0
          66.9875,24.83873,0
          66.98733,24.83844,0
          66.98703,24.838,0
          66.98694,24.83786,0
          66.98682,24.83769,0
          66.98669,24.83743,0
          66.98654,24.8372,0
          66.98635,24.83688,0
          66.98613,24.83654,0
          66.98593,24.83625,0
          66.9858,24.83606,0
          66.9857,24.83585,0
          66.98544,24.83544,0
          66.98504,24.83477,0
          66.98485,24.83448,0
          66.98445,24.83384,0
          66.98437,24.83369,0
          66.98403,24.83313,0
          66.98381,24.83276,0
          66.98361,24.83245,0
          66.98352,24.83231,0
          66.98332,24.83198,0
          66.98325,24.83187,0
          66.98323,24.83184,0
          66.98322,24.83182,0
          66.98316,24.83172,0
          66.98289,24.83127,0
          66.98193,24.82974,0
          66.98168,24.82934,0
          66.9812,24.82856,0
          66.98086,24.82797,0
          66.98075,24.8278,0
          66.98068,24.82768,0
          66.98041,24.82729,0
          66.98028,24.82708,0
          66.98019,24.82695,0
          66.97997,24.82662,0
          66.97986,24.82645,0
          66.97973,24.82621,0
          66.97963,24.82604,0
          66.9796,24.82598,0
          66.97951,24.82583,0
          66.9793,24.8255,0
          66.97929,24.82548,0
          66.97926,24.82544,0
          66.979,24.82503,0
          66.97893,24.82493,0
          66.9787,24.82461,0
          66.97864,24.82453,0
          66.97848,24.82432,0
          66.97835,24.82414,0
          66.97813,24.82384,0
          66.97793,24.82358,0
          66.97788,24.82351,0
          66.97781,24.8234,0
          66.9777,24.82323,0
          66.97762,24.82309,0
          66.9775,24.82277,0
          66.97745,24.82266,0
          66.97737,24.82248,0
          66.97733,24.82238,0
          66.97721,24.82212,0
          66.97714,24.82197,0
          66.97704,24.82176,0
          66.97697,24.82163,0
          66.9769,24.82152,0
          66.9768,24.82133,0
          66.97677,24.82129,0
          66.97656,24.82094,0
          66.97646,24.82079,0
          66.97631,24.82055,0
          66.97623,24.82043,0
          66.97602,24.82008,0
          66.97597,24.82,0
          66.97583,24.81979,0
          66.97558,24.81941,0
          66.97553,24.81932,0
          66.97544,24.81919,0
          66.97529,24.81896,0
          66.97524,24.81888,0
          66.97522,24.81885,0
          66.97518,24.8188,0
          66.97511,24.8187,0
          66.97507,24.81858,0
          66.97506,24.8185,0
          66.97506,24.81844,0
          66.97509,24.81842,0
          66.97511,24.8184,0
          66.97512,24.81838,0
          66.97513,24.81836,0
          66.97513,24.81833,0
          66.97513,24.8183,0
          66.97511,24.81827,0
          66.97511,24.81826,0
          66.9751,24.81826,0
          66.97509,24.81825,0
          66.97508,24.81824,0
          66.97507,24.81824,0
          66.97507,24.81823,0
          66.97506,24.81823,0
          66.97505,24.81823,0
          66.97504,24.81822,0
          66.97503,24.81822,0
          66.97502,24.81822,0
          66.97501,24.81822,0
          66.975,24.81822,0
          66.97499,24.81822,0
          66.97498,24.81822,0
          66.97497,24.81822,0
          66.97496,24.81823,0
          66.97495,24.81823,0
          66.97494,24.81824,0
          66.97493,24.81824,0
          66.97492,24.81825,0
          66.97491,24.81826,0
          66.9749,24.81827,0
          66.9749,24.81828,0
          66.97489,24.81828,0
          66.97489,24.81829,0
          66.97489,24.8183,0
          66.97488,24.8183,0
          66.97488,24.81833,0
          66.97488,24.81836,0
          66.97489,24.81837,0
        </coordinates>
      </LineString>
    </Placemark>
  </Document>
</kml>
