<?xml version="1.0" encoding="UTF-8"?>
<kml xmlns="http://www.opengis.net/kml/2.2">
  <Document>
    <name>Untitled layer</name>
    <Style id="line-FBC02D-5000-normal">
      <LineStyle>
        <color>ff2dc0fb</color>
        <width>5</width>
      </LineStyle>
    </Style>
    <Style id="line-FBC02D-5000-highlight">
      <LineStyle>
        <color>ff2dc0fb</color>
        <width>7.5</width>
      </LineStyle>
    </Style>
    <StyleMap id="line-FBC02D-5000">
      <Pair>
        <key>normal</key>
        <styleUrl>#line-FBC02D-5000-normal</styleUrl>
      </Pair>
      <Pair>
        <key>highlight</key>
        <styleUrl>#line-FBC02D-5000-highlight</styleUrl>
      </Pair>
    </StyleMap>
    <Placemark>
      <name>R8 (Yousuf Goth to Tower)</name>
      <description><![CDATA[description: <br>Route: <br>Direction: ]]></description>
      <styleUrl>#line-FBC02D-5000</styleUrl>
      <ExtendedData>
        <Data name="description">
          <value/>
        </Data>
        <Data name="Route">
          <value/>
        </Data>
        <Data name="Direction">
          <value/>
        </Data>
      </ExtendedData>
      <LineString>
        <tessellate>1</tessellate>
        <coordinates>
          66.92394,24.95853,0
          66.92398,24.95857,0
          66.92405,24.95849,0
          66.92442,24.95808,0
          66.9246,24.95787,0
          66.92475,24.95769,0
          66.92493,24.95749,0
          66.92506,24.95733,0
          66.92519,24.95718,0
          66.92532,24.95704,0
          66.92541,24.95693,0
          66.92547,24.95686,0
          66.92562,24.95668,0
          66.92572,24.95658,0
          66.92578,24.9565,0
          66.92585,24.95641,0
          66.92591,24.95632,0
          66.92602,24.95615,0
          66.9261,24.95599,0
          66.92612,24.95596,0
          66.92616,24.95588,0
          66.92619,24.95582,0
          66.92627,24.95566,0
          66.9264,24.95538,0
          66.92645,24.95526,0
          66.92652,24.95514,0
          66.92666,24.95493,0
          66.92682,24.95471,0
          66.92701,24.95446,0
          66.92737,24.95401,0
          66.92746,24.95391,0
          66.92759,24.95374,0
          66.92766,24.95365,0
          66.92798,24.95323,0
          66.92823,24.95291,0
          66.9284,24.95266,0
          66.92858,24.9524,0
          66.92863,24.9523,0
          66.92891,24.95184,0
          66.92919,24.95137,0
          66.92938,24.95108,0
          66.92975,24.95044,0
          66.92984,24.95028,0
          66.9301,24.94979,0
          66.93019,24.94963,0
          66.93051,24.94907,0
          66.93069,24.94874,0
          66.93098,24.9482,0
          66.93125,24.94773,0
          66.9313,24.94763,0
          66.93181,24.94676,0
          66.93188,24.94665,0
          66.9319,24.94663,0
          66.93196,24.94655,0
          66.93205,24.94645,0
          66.93225,24.94625,0
          66.93239,24.9461,0
          66.9325,24.94596,0
          66.93268,24.94569,0
          66.93274,24.94558,0
          66.93292,24.94526,0
          66.93315,24.94483,0
          66.93327,24.94461,0
          66.93345,24.94429,0
          66.93348,24.94422,0
          66.93392,24.94341,0
          66.93446,24.94247,0
          66.93454,24.94228,0
          66.93456,24.9422,0
          66.93457,24.94215,0
          66.93459,24.94204,0
          66.93462,24.94182,0
          66.93463,24.94179,0
          66.93465,24.94173,0
          66.93469,24.94167,0
          66.93503,24.94106,0
          66.93525,24.94068,0
          66.9354,24.94042,0
          66.93562,24.94005,0
          66.93567,24.93997,0
          66.93592,24.93954,0
          66.93614,24.93917,0
          66.93635,24.93883,0
          66.93661,24.93839,0
          66.93673,24.93821,0
          66.93713,24.93752,0
          66.9374,24.93711,0
          66.93761,24.93675,0
          66.93802,24.93611,0
          66.93818,24.93585,0
          66.93831,24.93566,0
          66.9384,24.93553,0
          66.9383,24.93548,0
          66.93801,24.93532,0
          66.93806,24.93524,0
          66.93842,24.93475,0
          66.93844,24.93472,0
          66.93909,24.93381,0
          66.93961,24.93307,0
          66.93975,24.93287,0
          66.93989,24.93266,0
          66.93994,24.9326,0
          66.94029,24.93207,0
          66.94129,24.93049,0
          66.94154,24.93011,0
          66.94181,24.92974,0
          66.94192,24.92959,0
          66.94224,24.92913,0
          66.94245,24.92894,0
          66.9436,24.92716,0
          66.94361,24.92713,0
          66.94368,24.92704,0
          66.9437,24.927,0
          66.94443,24.92589,0
          66.94518,24.92472,0
          66.9452,24.92467,0
          66.9452,24.92464,0
          66.94519,24.9246,0
          66.94598,24.9232,0
          66.94676,24.9218,0
          66.94677,24.92178,0
          66.94678,24.92176,0
          66.94702,24.92134,0
          66.94734,24.92076,0
          66.9479,24.91957,0
          66.9481,24.91913,0
          66.94819,24.91898,0
          66.94833,24.9187,0
          66.94842,24.91854,0
          66.94848,24.91841,0
          66.94887,24.91765,0
          66.94902,24.91737,0
          66.94917,24.91706,0
          66.94927,24.91688,0
          66.94933,24.91676,0
          66.94939,24.91665,0
          66.94948,24.91649,0
          66.94957,24.91636,0
          66.94967,24.91621,0
          66.94976,24.91609,0
          66.94988,24.91593,0
          66.95004,24.91573,0
          66.95019,24.91558,0
          66.95032,24.91545,0
          66.95044,24.91533,0
          66.95051,24.91527,0
          66.95065,24.91515,0
          66.95071,24.9151,0
          66.95094,24.9149,0
          66.95136,24.91452,0
          66.95184,24.91408,0
          66.95193,24.91401,0
          66.95234,24.91366,0
          66.95293,24.91313,0
          66.95336,24.91277,0
          66.9538,24.91241,0
          66.9544,24.91188,0
          66.95493,24.91144,0
          66.95532,24.91111,0
          66.95594,24.91058,0
          66.95595,24.91058,0
          66.95653,24.91007,0
          66.95717,24.90953,0
          66.95738,24.90935,0
          66.95817,24.90867,0
          66.95825,24.90861,0
          66.95864,24.90828,0
          66.95912,24.90788,0
          66.95956,24.90751,0
          66.95998,24.90714,0
          66.96044,24.90674,0
          66.96065,24.90656,0
          66.961,24.90627,0
          66.96168,24.90572,0
          66.96202,24.90542,0
          66.96234,24.90515,0
          66.96254,24.90498,0
          66.96281,24.90475,0
          66.96288,24.90469,0
          66.96292,24.90466,0
          66.96337,24.90433,0
          66.96385,24.90396,0
          66.96388,24.90394,0
          66.96389,24.90393,0
          66.96474,24.90332,0
          66.96496,24.90315,0
          66.96565,24.90264,0
          66.96648,24.90201,0
          66.96649,24.90201,0
          66.96679,24.90178,0
          66.9677,24.90109,0
          66.96816,24.90075,0
          66.96907,24.90006,0
          66.96913,24.90002,0
          66.9694,24.89981,0
          66.96964,24.89964,0
          66.96971,24.89957,0
          66.96994,24.89936,0
          66.96996,24.89934,0
          66.97003,24.89927,0
          66.97011,24.89918,0
          66.97027,24.89899,0
          66.97031,24.89893,0
          66.97043,24.89877,0
          66.97054,24.89862,0
          66.97064,24.89848,0
          66.97068,24.89841,0
          66.97083,24.89821,0
          66.97103,24.89794,0
          66.97113,24.89778,0
          66.97134,24.8975,0
          66.97189,24.89675,0
          66.97192,24.8967,0
          66.97242,24.89599,0
          66.97243,24.89599,0
          66.97267,24.89567,0
          66.97283,24.89548,0
          66.97299,24.89536,0
          66.97317,24.89525,0
          66.97336,24.89516,0
          66.97341,24.89514,0
          66.97359,24.89506,0
          66.97373,24.89499,0
          66.97408,24.89482,0
          66.97445,24.89463,0
          66.9748,24.89445,0
          66.97524,24.89422,0
          66.97549,24.89409,0
          66.97565,24.89401,0
          66.97571,24.89398,0
          66.97606,24.89379,0
          66.97649,24.89355,0
          66.97666,24.89347,0
          66.97687,24.89336,0
          66.97759,24.89299,0
          66.97796,24.8928,0
          66.97805,24.89276,0
          66.97814,24.89271,0
          66.97824,24.89265,0
          66.9783,24.89261,0
          66.97832,24.89259,0
          66.97839,24.89254,0
          66.97845,24.89249,0
          66.97846,24.89248,0
          66.97852,24.89241,0
          66.97858,24.89234,0
          66.97863,24.89226,0
          66.97868,24.89219,0
          66.97873,24.8921,0
          66.97885,24.89186,0
          66.97889,24.89179,0
          66.97894,24.89171,0
          66.97899,24.89163,0
          66.97905,24.89155,0
          66.97911,24.89148,0
          66.97915,24.89145,0
          66.97918,24.89141,0
          66.97921,24.89139,0
          66.97925,24.89135,0
          66.97925,24.89134,0
          66.97931,24.8913,0
          66.97936,24.89127,0
          66.97941,24.89123,0
          66.97947,24.89119,0
          66.9797,24.89106,0
          66.97987,24.89097,0
          66.98016,24.8908,0
          66.98023,24.89076,0
          66.98045,24.89064,0
          66.98057,24.89057,0
          66.98091,24.8904,0
          66.98105,24.89032,0
          66.98181,24.88993,0
          66.98191,24.88989,0
          66.98195,24.88987,0
          66.982,24.88984,0
          66.98208,24.8898,0
          66.98216,24.88977,0
          66.98228,24.88967,0
          66.98233,24.88961,0
          66.98237,24.88955,0
          66.9824,24.88949,0
          66.98241,24.88946,0
          66.98242,24.88944,0
          66.98246,24.88935,0
          66.98247,24.88929,0
          66.98248,24.88924,0
          66.98247,24.88913,0
          66.98247,24.88911,0
          66.98247,24.88904,0
          66.98247,24.88897,0
          66.98245,24.8889,0
          66.98243,24.88884,0
          66.98239,24.88876,0
          66.98238,24.88875,0
          66.98233,24.88868,0
          66.98227,24.88858,0
          66.98219,24.8885,0
          66.98211,24.88842,0
          66.98202,24.88835,0
          66.98161,24.88804,0
          66.9813,24.88782,0
          66.98115,24.8877,0
          66.98054,24.88724,0
          66.97993,24.88679,0
          66.97983,24.88671,0
          66.97947,24.88644,0
          66.97917,24.8862,0
          66.97857,24.88573,0
          66.97797,24.88526,0
          66.97783,24.88515,0
          66.97752,24.88491,0
          66.97706,24.88457,0
          66.97676,24.88433,0
          66.97615,24.88387,0
          66.97585,24.88364,0
          66.97555,24.88341,0
          66.97494,24.88294,0
          66.97479,24.88283,0
          66.97477,24.88282,0
          66.97448,24.8826,0
          66.97433,24.88248,0
          66.97357,24.8819,0
          66.97342,24.88179,0
          66.97331,24.8817,0
          66.97312,24.88155,0
          66.97221,24.88085,0
          66.9718,24.88053,0
          66.97112,24.88001,0
          66.97051,24.87955,0
          66.97036,24.87944,0
          66.97005,24.87921,0
          66.9696,24.87888,0
          66.96859,24.87812,0
          66.9681,24.87775,0
          66.96799,24.87766,0
          66.96789,24.87757,0
          66.9678,24.87748,0
          66.96772,24.87738,0
          66.96763,24.87725,0
          66.9676,24.87721,0
          66.96756,24.87713,0
          66.96751,24.87702,0
          66.96748,24.87692,0
          66.96748,24.87691,0
          66.96746,24.8768,0
          66.96745,24.87674,0
          66.96743,24.87663,0
          66.96742,24.87656,0
          66.96742,24.87653,0
          66.96743,24.8763,0
          66.96746,24.87614,0
          66.9675,24.87603,0
          66.96751,24.87598,0
          66.96758,24.87585,0
          66.96764,24.87573,0
          66.96767,24.8757,0
          66.96772,24.87562,0
          66.96775,24.87559,0
          66.96779,24.87554,0
          66.96791,24.87542,0
          66.96799,24.87535,0
          66.96806,24.8753,0
          66.96816,24.87524,0
          66.96825,24.87519,0
          66.96826,24.87518,0
          66.96836,24.87514,0
          66.96844,24.8751,0
          66.96849,24.87508,0
          66.96883,24.87494,0
          66.96898,24.87488,0
          66.96916,24.87481,0
          66.96971,24.8746,0
          66.97035,24.87436,0
          66.97062,24.87426,0
          66.97164,24.8738,0
          66.97248,24.8734,0
          66.97345,24.8729,0
          66.97362,24.87281,0
          66.97379,24.87272,0
          66.97386,24.87269,0
          66.97414,24.87254,0
          66.97431,24.87245,0
          66.97433,24.87244,0
          66.97435,24.87243,0
          66.97436,24.87242,0
          66.97438,24.87241,0
          66.97439,24.8724,0
          66.97448,24.87235,0
          66.97449,24.87234,0
          66.97467,24.87225,0
          66.97469,24.87224,0
          66.97485,24.87213,0
          66.97491,24.8721,0
          66.97501,24.87204,0
          66.97547,24.87175,0
          66.97576,24.87157,0
          66.97582,24.87153,0
          66.97601,24.87141,0
          66.97614,24.87134,0
          66.97656,24.87107,0
          66.97674,24.87095,0
          66.97682,24.8709,0
          66.97691,24.87083,0
          66.97708,24.8707,0
          66.97709,24.8707,0
          66.97718,24.87063,0
          66.97744,24.87042,0
          66.97757,24.8703,0
          66.97776,24.87014,0
          66.97779,24.87011,0
          66.97794,24.86998,0
          66.97808,24.86987,0
          66.97822,24.86978,0
          66.97835,24.8697,0
          66.97848,24.86961,0
          66.97906,24.86925,0
          66.97937,24.86906,0
          66.97962,24.86891,0
          66.97969,24.86887,0
          66.97981,24.8688,0
          66.97996,24.8687,0
          66.98021,24.86854,0
          66.98038,24.86842,0
          66.98048,24.86835,0
          66.98056,24.86831,0
          66.98069,24.86823,0
          66.98108,24.86796,0
          66.98133,24.86779,0
          66.98166,24.86755,0
          66.98225,24.86716,0
          66.98291,24.86675,0
          66.98307,24.86665,0
          66.98319,24.86658,0
          66.98363,24.8663,0
          66.984,24.86607,0
          66.98404,24.86605,0
          66.98428,24.8659,0
          66.98432,24.86587,0
          66.98442,24.86582,0
          66.98462,24.86568,0
          66.98476,24.86559,0
          66.9849,24.86548,0
          66.98504,24.86537,0
          66.98514,24.86529,0
          66.98525,24.86521,0
          66.98539,24.8651,0
          66.98557,24.86493,0
          66.98561,24.86488,0
          66.98569,24.86477,0
          66.98581,24.86463,0
          66.98595,24.86444,0
          66.98609,24.86423,0
          66.9861,24.86421,0
          66.98619,24.86407,0
          66.98625,24.86398,0
          66.98636,24.86377,0
          66.98645,24.86358,0
          66.98657,24.86335,0
          66.98667,24.86314,0
          66.98676,24.86291,0
          66.98686,24.86262,0
          66.98692,24.86241,0
          66.98696,24.86227,0
          66.98702,24.86203,0
          66.98708,24.86177,0
          66.98713,24.86144,0
          66.98717,24.86112,0
          66.98723,24.86059,0
          66.98723,24.86023,0
          66.98724,24.86,0
          66.98723,24.8598,0
          66.98723,24.85962,0
          66.98723,24.85944,0
          66.98722,24.85929,0
          66.98721,24.8589,0
          66.98717,24.858,0
          66.98716,24.85783,0
          66.98716,24.85782,0
          66.98715,24.8576,0
          66.98716,24.85739,0
          66.98716,24.85728,0
          66.98716,24.85722,0
          66.98718,24.85705,0
          66.9872,24.85692,0
          66.98722,24.85681,0
          66.98728,24.8566,0
          66.98729,24.85657,0
          66.98734,24.85643,0
          66.98742,24.85623,0
          66.98748,24.85606,0
          66.9875,24.85603,0
          66.98759,24.8558,0
          66.98774,24.85544,0
          66.98788,24.85512,0
          66.98801,24.85483,0
          66.98814,24.85452,0
          66.98821,24.85436,0
          66.98828,24.85413,0
          66.98828,24.85411,0
          66.9883,24.85405,0
          66.9883,24.85403,0
          66.98832,24.85391,0
          66.98831,24.85382,0
          66.9883,24.85371,0
          66.98829,24.85366,0
          66.98821,24.85333,0
          66.98819,24.85327,0
          66.98818,24.85321,0
          66.98812,24.85297,0
          66.98805,24.85261,0
          66.98802,24.85249,0
          66.988,24.8524,0
          66.98799,24.8523,0
          66.98799,24.85226,0
          66.98798,24.85219,0
          66.98798,24.85215,0
          66.98798,24.8521,0
          66.988,24.85199,0
          66.98802,24.85189,0
          66.98805,24.8518,0
          66.98808,24.85171,0
          66.9881,24.85167,0
          66.98812,24.85163,0
          66.98816,24.85155,0
          66.98829,24.85135,0
          66.98839,24.8512,0
          66.98848,24.85105,0
          66.98849,24.85104,0
          66.9885,24.85102,0
          66.98852,24.85099,0
          66.98866,24.85077,0
          66.98871,24.8507,0
          66.989,24.85023,0
          66.9891,24.85008,0
          66.9891,24.85007,0
          66.9893,24.84976,0
          66.98936,24.84966,0
          66.98942,24.84957,0
          66.98949,24.84946,0
          66.98974,24.84908,0
          66.98984,24.84892,0
          66.98996,24.84874,0
          66.99002,24.84866,0
          66.99013,24.84851,0
          66.99026,24.84832,0
          66.99051,24.84795,0
          66.99058,24.84784,0
          66.99061,24.84779,0
          66.99071,24.84764,0
          66.99081,24.84748,0
          66.99097,24.84724,0
          66.99101,24.84717,0
          66.99111,24.84702,0
          66.99131,24.84671,0
          66.99141,24.84656,0
          66.99145,24.84649,0
          66.99148,24.84644,0
          66.99152,24.84641,0
          66.99153,24.84639,0
          66.99159,24.84635,0
          66.99165,24.84633,0
          66.99173,24.84631,0
          66.99188,24.84628,0
          66.99197,24.84632,0
          66.99206,24.84634,0
          66.99215,24.84635,0
          66.99224,24.84636,0
          66.99233,24.84635,0
          66.99241,24.84634,0
          66.99252,24.84633,0
          66.99263,24.84633,0
          66.99269,24.84634,0
          66.99275,24.84636,0
          66.99281,24.84638,0
          66.99287,24.84642,0
          66.99294,24.84646,0
          66.99296,24.84648,0
          66.99328,24.84669,0
          66.99344,24.8468,0
          66.99362,24.84692,0
          66.99382,24.84704,0
          66.99409,24.8472,0
          66.99422,24.84727,0
          66.99444,24.84738,0
          66.99455,24.84743,0
          66.99461,24.84746,0
          66.99467,24.84751,0
          66.99474,24.84757,0
          66.99482,24.84767,0
          66.99491,24.84776,0
          66.99492,24.84777,0
          66.99499,24.84786,0
          66.99506,24.84792,0
          66.99522,24.84809,0
          66.99529,24.84815,0
          66.99538,24.84822,0
          66.99555,24.84832,0
          66.99568,24.84839,0
          66.99579,24.84844,0
          66.9959,24.84848,0
          66.99593,24.84849,0
          66.9966,24.84874,0
        </coordinates>
      </LineString>
    </Placemark>
  </Document>
</kml>
