<?xml version="1.0" encoding="UTF-8"?>
<kml xmlns="http://www.opengis.net/kml/2.2">
  <Document>
    <name>Untitled layer</name>
    <Style id="line-A52714-5583-normal">
      <LineStyle>
        <color>ff1427a5</color>
        <width>5.583</width>
      </LineStyle>
    </Style>
    <Style id="line-A52714-5583-highlight">
      <LineStyle>
        <color>ff1427a5</color>
        <width>8.3745</width>
      </LineStyle>
    </Style>
    <StyleMap id="line-A52714-5583">
      <Pair>
        <key>normal</key>
        <styleUrl>#line-A52714-5583-normal</styleUrl>
      </Pair>
      <Pair>
        <key>highlight</key>
        <styleUrl>#line-A52714-5583-highlight</styleUrl>
      </Pair>
    </StyleMap>
    <Placemark>
      <name>R9 (Al Khidmat Hadeed to Tower)</name>
      <description><![CDATA[description: <br>Route: R9<br>Direction: R9_UP]]></description>
      <styleUrl>#line-A52714-5583</styleUrl>
      <ExtendedData>
        <Data name="description">
          <value/>
        </Data>
        <Data name="Route">
          <value>R9</value>
        </Data>
        <Data name="Direction">
          <value>R9_UP</value>
        </Data>
      </ExtendedData>
      <LineString>
        <tessellate>1</tessellate>
        <coordinates>
          67.37219,24.87104,0
          67.37221,24.87099,0
          67.35875,24.86697,0
          67.35849,24.8669,0
          67.35008,24.86439,0
          67.34996,24.86434,0
          67.34996,24.86433,0
          67.34995,24.86432,0
          67.34995,24.8643,0
          67.34994,24.8643,0
          67.34994,24.86429,0
          67.35003,24.86415,0
          67.35021,24.86371,0
          67.35086,24.8618,0
          67.3509,24.86173,0
          67.351,24.8615,0
          67.35102,24.86141,0
          67.35103,24.8614,0
          67.35092,24.86136,0
          67.35033,24.8612,0
          67.34441,24.8594,0
          67.34405,24.85928,0
          67.34393,24.85925,0
          67.34361,24.85915,0
          67.34314,24.85903,0
          67.34262,24.85895,0
          67.34255,24.85895,0
          67.34239,24.85894,0
          67.34213,24.85894,0
          67.34109,24.85909,0
          67.34084,24.85914,0
          67.33959,24.85933,0
          67.33883,24.85947,0
          67.33758,24.85966,0
          67.33754,24.85967,0
          67.33295,24.8604,0
          67.33257,24.86045,0
          67.33019,24.86084,0
          67.32819,24.86112,0
          67.32759,24.86122,0
          67.32519,24.86155,0
          67.32488,24.86157,0
          67.32484,24.86153,0
          67.32482,24.86153,0
          67.32481,24.86152,0
          67.32479,24.86151,0
          67.32476,24.86151,0
          67.32474,24.8615,0
          67.3247,24.8615,0
          67.32468,24.86151,0
          67.32466,24.86151,0
          67.32465,24.86152,0
          67.32464,24.86152,0
          67.32462,24.86153,0
          67.32461,24.86154,0
          67.32459,24.86155,0
          67.32455,24.86159,0
          67.32455,24.8616,0
          67.32432,24.86168,0
          67.32385,24.86179,0
          67.32271,24.86202,0
          67.32038,24.86237,0
          67.32007,24.86243,0
          67.31731,24.86288,0
          67.31663,24.86301,0
          67.31639,24.86307,0
          67.31452,24.86368,0
          67.31086,24.86493,0
          67.30954,24.86536,0
          67.3051,24.86687,0
          67.30473,24.86697,0
          67.30449,24.86701,0
          67.30436,24.86702,0
          67.30423,24.86702,0
          67.30407,24.86701,0
          67.30391,24.86699,0
          67.30369,24.86694,0
          67.30343,24.86687,0
          67.3009,24.86629,0
          67.30047,24.8661,0
          67.30045,24.86607,0
          67.30044,24.86606,0
          67.30043,24.86604,0
          67.30041,24.86602,0
          67.30039,24.86601,0
          67.30038,24.866,0
          67.30034,24.86599,0
          67.30033,24.86598,0
          67.30027,24.86597,0
          67.30023,24.86597,0
          67.30022,24.86598,0
          67.3002,24.86598,0
          67.30016,24.866,0
          67.30015,24.866,0
          67.30013,24.86601,0
          67.30012,24.86602,0
          67.30011,24.86604,0
          67.2995,24.86593,0
          67.29742,24.86545,0
          67.29274,24.86431,0
          67.29264,24.86429,0
          67.28871,24.86328,0
          67.28466,24.8623,0
          67.28359,24.86202,0
          67.27732,24.86048,0
          67.27722,24.86046,0
          67.27714,24.86045,0
          67.27524,24.85998,0
          67.27514,24.85996,0
          67.27508,24.85994,0
          67.26949,24.85864,0
          67.26881,24.8585,0
          67.2668,24.85805,0
          67.2658,24.85781,0
          67.26405,24.85743,0
          67.26317,24.85722,0
          67.26227,24.85703,0
          67.26221,24.85701,0
          67.26218,24.85701,0
          67.26159,24.85686,0
          67.26019,24.8564,0
          67.25995,24.85631,0
          67.25943,24.85615,0
          67.2592,24.85609,0
          67.25907,24.85605,0
          67.25861,24.85595,0
          67.25852,24.85594,0
          67.25764,24.85574,0
          67.25657,24.85552,0
          67.25386,24.8549,0
          67.25378,24.85487,0
          67.25356,24.85481,0
          67.25143,24.85401,0
          67.25043,24.85361,0
          67.2497,24.85334,0
          67.24961,24.8533,0
          67.2493,24.8532,0
          67.24895,24.85313,0
          67.24826,24.85311,0
          67.24786,24.85314,0
          67.24761,24.85317,0
          67.24746,24.85318,0
          67.24714,24.85324,0
          67.24615,24.85355,0
          67.24559,24.85369,0
          67.24394,24.85419,0
          67.24374,24.85424,0
          67.2436,24.85426,0
          67.24345,24.85427,0
          67.2401,24.85407,0
          67.23992,24.85407,0
          67.23898,24.85413,0
          67.23861,24.85417,0
          67.23795,24.85422,0
          67.23745,24.85427,0
          67.23698,24.8543,0
          67.23624,24.85437,0
          67.23243,24.85467,0
          67.2324,24.85467,0
          67.23227,24.85464,0
          67.23196,24.8546,0
          67.23128,24.85465,0
          67.23036,24.85469,0
          67.22986,24.8547,0
          67.22834,24.8547,0
          67.2281,24.85469,0
          67.22651,24.85468,0
          67.22633,24.85471,0
          67.22629,24.85472,0
          67.22626,24.85475,0
          67.22549,24.85476,0
          67.22533,24.85475,0
          67.22481,24.85474,0
          67.22255,24.85475,0
          67.22234,24.85476,0
          67.21512,24.85483,0
          67.21492,24.85482,0
          67.21425,24.85482,0
          67.21373,24.85485,0
          67.21359,24.85487,0
          67.21327,24.8549,0
          67.21296,24.85495,0
          67.21253,24.85504,0
          67.21214,24.85516,0
          67.21174,24.85531,0
          67.21173,24.85532,0
          67.21141,24.85546,0
          67.21108,24.85564,0
          67.21095,24.85572,0
          67.21095,24.85573,0
          67.21067,24.85591,0
          67.21026,24.85627,0
          67.20983,24.85669,0
          67.20971,24.85684,0
          67.20932,24.85739,0
          67.20931,24.85741,0
          67.20913,24.85768,0
          67.20876,24.85827,0
          67.20873,24.85833,0
          67.20856,24.85858,0
          67.20781,24.8598,0
          67.20774,24.8599,0
          67.20723,24.86071,0
          67.20718,24.86077,0
          67.20706,24.86096,0
          67.20689,24.86127,0
          67.20666,24.86165,0
          67.20613,24.86247,0
          67.2061,24.86251,0
          67.20591,24.86283,0
          67.20571,24.86313,0
          67.20542,24.86354,0
          67.20509,24.86414,0
          67.20495,24.86436,0
          67.20492,24.86439,0
          67.20471,24.8647,0
          67.20442,24.86518,0
          67.20438,24.86526,0
          67.20413,24.8656,0
          67.20315,24.8671,0
          67.20269,24.86773,0
          67.20254,24.86792,0
          67.20239,24.86808,0
          67.20223,24.86823,0
          67.20206,24.86836,0
          67.20091,24.86908,0
          67.20053,24.86934,0
          67.20037,24.86947,0
          67.20013,24.86965,0
          67.19967,24.87002,0
          67.19902,24.87057,0
          67.19877,24.87077,0
          67.19834,24.87114,0
          67.19792,24.87148,0
          67.19776,24.87162,0
          67.19743,24.87189,0
          67.19692,24.87228,0
          67.19607,24.87299,0
          67.19463,24.87415,0
          67.19459,24.87419,0
          67.19332,24.87522,0
          67.19314,24.87535,0
          67.19241,24.87595,0
          67.19212,24.87626,0
          67.19115,24.87713,0
          67.19091,24.87733,0
          67.19058,24.87756,0
          67.19042,24.87768,0
          67.19018,24.87783,0
          67.18964,24.87814,0
          67.18895,24.87846,0
          67.18846,24.87871,0
          67.18843,24.87873,0
          67.18828,24.8788,0
          67.18742,24.87934,0
          67.18731,24.87942,0
          67.1869,24.87968,0
          67.1869,24.87969,0
          67.18607,24.88018,0
          67.18534,24.88057,0
          67.18416,24.88113,0
          67.18408,24.88118,0
          67.18297,24.88176,0
          67.18275,24.88186,0
          67.18275,24.88187,0
          67.18204,24.8822,0
          67.18142,24.88245,0
          67.18141,24.88245,0
          67.18089,24.88266,0
          67.17895,24.88334,0
          67.17746,24.884,0
          67.17686,24.88424,0
          67.17671,24.88429,0
          67.17639,24.88438,0
          67.17614,24.88442,0
          67.17564,24.88447,0
          67.17552,24.88449,0
          67.17544,24.88449,0
          67.17291,24.88487,0
          67.1727,24.88489,0
          67.17163,24.88503,0
          67.17115,24.88508,0
          67.16935,24.88532,0
          67.16931,24.88532,0
          67.16793,24.88551,0
          67.16742,24.8856,0
          67.16732,24.88563,0
          67.16713,24.88567,0
          67.16711,24.88567,0
          67.16698,24.8857,0
          67.16695,24.88571,0
          67.16688,24.88572,0
          67.16674,24.88577,0
          67.16669,24.88578,0
          67.16642,24.88588,0
          67.16634,24.88592,0
          67.16483,24.88658,0
          67.16462,24.88666,0
          67.16443,24.88672,0
          67.16438,24.88674,0
          67.16405,24.88682,0
          67.16363,24.88688,0
          67.16332,24.8869,0
          67.16233,24.88693,0
          67.16174,24.88693,0
          67.15858,24.88683,0
          67.15712,24.88684,0
          67.15657,24.88687,0
          67.15609,24.88685,0
          67.15588,24.88686,0
          67.15573,24.88686,0
          67.155,24.88691,0
          67.1547,24.88691,0
          67.1544,24.8869,0
          67.15391,24.8869,0
          67.15368,24.88689,0
          67.14297,24.88684,0
          67.14224,24.88682,0
          67.14168,24.88682,0
          67.14078,24.88684,0
          67.13786,24.88699,0
          67.1376,24.88701,0
          67.13378,24.88719,0
          67.13253,24.88719,0
          67.13233,24.88718,0
          67.1314,24.88718,0
          67.13097,24.88714,0
          67.12807,24.88701,0
          67.12781,24.88696,0
          67.12771,24.88696,0
          67.12666,24.8869,0
          67.1249,24.88686,0
          67.1245,24.88684,0
          67.12431,24.88682,0
          67.12415,24.88678,0
          67.12355,24.8866,0
          67.12333,24.88652,0
          67.12263,24.88631,0
          67.12261,24.8863,0
          67.12203,24.88613,0
          67.12182,24.88608,0
          67.12176,24.88607,0
          67.12174,24.88607,0
          67.12132,24.88598,0
          67.12131,24.88598,0
          67.12101,24.88591,0
          67.11868,24.88513,0
          67.11799,24.88487,0
          67.11792,24.88483,0
          67.11738,24.88461,0
          67.11734,24.8846,0
          67.11662,24.8843,0
          67.11659,24.88429,0
          67.11577,24.88391,0
          67.11574,24.8839,0
          67.11574,24.88389,0
          67.1146,24.88335,0
          67.11431,24.8832,0
          67.11417,24.88311,0
          67.1141,24.88308,0
          67.11365,24.88284,0
          67.11327,24.88265,0
          67.11251,24.88224,0
          67.11166,24.88173,0
          67.11094,24.88132,0
          67.11093,24.88132,0
          67.10854,24.87994,0
          67.1071,24.87917,0
          67.10701,24.87913,0
          67.10665,24.87894,0
          67.10664,24.87893,0
          67.10579,24.87847,0
          67.1057,24.87843,0
          67.10473,24.87793,0
          67.1039,24.87753,0
          67.10346,24.87733,0
          67.10305,24.87712,0
          67.10302,24.87711,0
          67.1023,24.87673,0
          67.10207,24.87662,0
          67.10106,24.87623,0
          67.10029,24.87601,0
          67.09915,24.87576,0
          67.0985,24.87558,0
          67.09766,24.87531,0
          67.09744,24.87521,0
          67.09643,24.87491,0
          67.09553,24.87461,0
          67.09501,24.87442,0
          67.09482,24.87433,0
          67.09467,24.87427,0
          67.09443,24.87415,0
          67.09406,24.87394,0
          67.094,24.8739,0
          67.094,24.87389,0
          67.09389,24.87382,0
          67.09368,24.87365,0
          67.09317,24.87319,0
          67.09253,24.87265,0
          67.09218,24.87243,0
          67.08956,24.87088,0
          67.08935,24.87074,0
          67.0882,24.87005,0
          67.08656,24.86902,0
          67.08471,24.8679,0
          67.0841,24.86756,0
          67.08314,24.86708,0
          67.08286,24.86695,0
          67.08242,24.86678,0
          67.08224,24.8667,0
          67.08108,24.86626,0
          67.08077,24.86616,0
          67.08052,24.86607,0
          67.08012,24.86596,0
          67.08005,24.86593,0
          67.07955,24.86579,0
          67.07937,24.86573,0
          67.07877,24.8655,0
          67.07862,24.86546,0
          67.0777,24.8651,0
          67.07708,24.86489,0
          67.07627,24.86453,0
          67.07529,24.86404,0
          67.07414,24.86344,0
          67.07399,24.86337,0
          67.07384,24.86331,0
          67.07383,24.86331,0
          67.07366,24.86324,0
          67.07128,24.8625,0
          67.07123,24.86249,0
          67.07109,24.86244,0
          67.07104,24.86243,0
          67.07013,24.86214,0
          67.07004,24.86212,0
          67.06975,24.86203,0
          67.06973,24.86203,0
          67.06956,24.86198,0
          67.06954,24.86197,0
          67.06706,24.86127,0
          67.0667,24.86115,0
          67.06669,24.86115,0
          67.06667,24.86114,0
          67.06651,24.8611,0
          67.06649,24.86109,0
          67.06589,24.86092,0
          67.06588,24.86092,0
          67.0657,24.86087,0
          67.06569,24.86087,0
          67.06552,24.86082,0
          67.06385,24.86044,0
          67.06373,24.86042,0
          67.06025,24.8597,0
          67.05995,24.85965,0
          67.05972,24.85962,0
          67.05836,24.85962,0
          67.0581,24.85963,0
          67.05774,24.85961,0
          67.05433,24.85963,0
          67.0542,24.85962,0
          67.05397,24.85962,0
          67.05395,24.85961,0
          67.05391,24.85961,0
          67.05388,24.8596,0
          67.05366,24.85957,0
          67.05344,24.85953,0
          67.0532,24.85947,0
          67.05268,24.85932,0
          67.05255,24.85926,0
          67.05227,24.85916,0
          67.05164,24.8589,0
          67.05147,24.85882,0
          67.05037,24.8584,0
          67.05027,24.85837,0
          67.05026,24.85837,0
          67.05022,24.85835,0
          67.04988,24.85822,0
          67.04904,24.85795,0
          67.04812,24.85762,0
          67.04811,24.85761,0
          67.04806,24.8576,0
          67.04743,24.85738,0
          67.04736,24.85736,0
          67.04729,24.85733,0
          67.04713,24.85729,0
          67.04701,24.85727,0
          67.04688,24.85724,0
          67.04645,24.85718,0
          67.04629,24.85717,0
          67.04625,24.85716,0
          67.0462,24.85716,0
          67.04611,24.85715,0
          67.04517,24.85716,0
          67.04444,24.85711,0
          67.04418,24.85707,0
          67.04375,24.85696,0
          67.04326,24.85678,0
          67.04306,24.85673,0
          67.04254,24.85657,0
          67.04004,24.85574,0
          67.03967,24.8556,0
          67.03952,24.85555,0
          67.03951,24.85555,0
          67.03934,24.8555,0
          67.03929,24.85549,0
          67.03888,24.85538,0
          67.03831,24.85527,0
          67.03824,24.85527,0
          67.03823,24.85526,0
          67.03803,24.85524,0
          67.03656,24.85497,0
          67.0365,24.85495,0
          67.03622,24.85483,0
          67.03616,24.85479,0
          67.03596,24.85462,0
          67.03594,24.8546,0
          67.03586,24.85449,0
          67.03559,24.85397,0
          67.03548,24.85371,0
          67.03529,24.85342,0
          67.03512,24.8531,0
          67.03497,24.85289,0
          67.0349,24.85277,0
          67.03486,24.85271,0
          67.03471,24.85256,0
          67.03463,24.85251,0
          67.03456,24.85246,0
          67.0344,24.85237,0
          67.03323,24.85181,0
          67.03265,24.85156,0
          67.03232,24.85139,0
          67.0322,24.85129,0
          67.03217,24.85128,0
          67.03205,24.85121,0
          67.03212,24.85106,0
          67.03195,24.85066,0
          67.03175,24.85048,0
          67.03168,24.85044,0
          67.03153,24.85038,0
          67.0306,24.84985,0
          67.03059,24.84983,0
          67.03055,24.84978,0
          67.0305,24.84973,0
          67.0304,24.84967,0
          67.03034,24.84976,0
          67.02994,24.85054,0
          67.02978,24.85072,0
          67.02943,24.85133,0
          67.02926,24.85166,0
          67.02908,24.85198,0
          67.0287,24.85273,0
          67.02845,24.85314,0
          67.02836,24.85331,0
          67.02831,24.85343,0
          67.02827,24.8536,0
          67.02825,24.85363,0
          67.02802,24.85377,0
          67.02792,24.85386,0
          67.02764,24.85385,0
          67.02669,24.85376,0
          67.02538,24.85357,0
          67.0224,24.85322,0
          67.02212,24.85315,0
          67.02212,24.85313,0
          67.02211,24.85312,0
          67.02211,24.8531,0
          67.02209,24.85308,0
          67.02209,24.85307,0
          67.02208,24.85307,0
          67.02205,24.85304,0
          67.02204,24.85304,0
          67.02203,24.85303,0
          67.02202,24.85303,0
          67.02201,24.85302,0
          67.02199,24.85302,0
          67.02198,24.85301,0
          67.02192,24.85301,0
          67.02191,24.85302,0
          67.02189,24.85302,0
          67.02187,24.85303,0
          67.02186,24.85304,0
          67.02171,24.85295,0
          67.02094,24.85237,0
          67.02019,24.85177,0
          67.01901,24.85086,0
          67.01891,24.85081,0
          67.01872,24.85079,0
          67.01843,24.8508,0
          67.01835,24.85082,0
          67.01789,24.85076,0
          67.01718,24.85069,0
          67.01682,24.85064,0
          67.01637,24.8506,0
          67.01614,24.8506,0
          67.0095,24.84997,0
          67.00944,24.84996,0
          67.00907,24.84992,0
          67.00872,24.84987,0
          67.008,24.84981,0
          67.00729,24.84973,0
          67.00721,24.84973,0
          67.00668,24.84967,0
          67.00611,24.84963,0
          67.00569,24.84959,0
          67.00563,24.84958,0
          67.0055,24.84957,0
          67.00485,24.84949,0
          67.00333,24.84934,0
          67.00318,24.84932,0
          67.00314,24.84932,0
          67.00297,24.8493,0
          67.00294,24.84929,0
          67.00277,24.84928,0
          67.00274,24.84927,0
          67.00009,24.84898,0
          66.99989,24.84897,0
          66.99886,24.84885,0
          66.99879,24.84885,0
          66.99705,24.84869,0
          66.99691,24.84866,0
          66.99685,24.84866,0
          66.9968,24.84865,0
          66.99671,24.84865,0
          66.99593,24.84837,0
          66.99573,24.84828,0
          66.99562,24.84822,0
          66.99544,24.8481,0
        </coordinates>
      </LineString>
    </Placemark>
  </Document>
</kml>
